NOMBRE,Tipo,Direccion,Municipio,Provincia,Latitud,Longitud,Comentarios,Horario,Telefono,Bocata_Bebida_Caliente,Comida_Preparada,Ducha
Andamur El Límite,ANDAMUR,"Autovía del Mediterráneo, Km 565",Huércal-Overa,Almería,37.48142,-1.870261,Servicio de bocadillos calientes y frios 24h. Pedidos al 950 52 87 90,24h,,Sí,No,Sí
Andamur Guarroman,ANDAMUR,"Polígono industrial de Guadiel, en la N-4 EN EL KILÓMETRO 288",Guarromán,Jaén,38.14286,-3.725343,Servicio de bocadillos calientes y frios de 10:00 a 16:00h,24h estación,,Sí,,Sí
Andamur La Junquera,ANDAMUR,"c/ Bassegoda, 4",Girona,Girona,42.40289,2.876075,Servicio de menú para recoger en tienda,24h,,Sí,Sí,Sí
Andamur Lorca,ANDAMUR,"Aut. A7 Salida 640, Ctra. N-340 km 588",Lorca,Murcia,37.64189,-1.726455,Disponibilidad de alimentación en tienda,24h,,No,No,Sí
Andamur Pamplona,ANDAMUR,"Ciudad del Transporte de Pamplona: Avenida del Este,1.",Pamplona/Iruña,Navarra,42.73265,-1.615465,Servicio de menú para recoger en tienda,24h,,Sí,Sí,No
Andamur San Román,ANDAMUR,"Aut. A1, Salida 385, Pol. INd. Okiturri",Okondo,Araba_Álava,42.86389,-2.320771,Servicio de menú y bocadillos para recoger en tienda,24h,,Sí,Sí,Sí
Aparcamiento de vehículos industriales CTVI,APARCAMIENTO SEGURO,,Vitoria-Gasteiz,Araba_Álava,42.84653,-2.740209,,L-V. 10.00h - 16.00h,945290432,Sí,No,Sí
APARKABISA I,APARCAMIENTO SEGURO,,Valle de Trápaga-Trapagaran,Bizkaia,43.29217,-3.009765,Solo café,24 horas,944189420,Sí,No,Sí
APARKABISA II,APARCAMIENTO SEGURO,,Valle de Trápaga-Trapagaran,Bizkaia,43.29614,-3.005521,Solo café,24 horas,944189440,Sí,No,Sí
APARKABISA VI,APARCAMIENTO SEGURO,,Zierbena,Bizkaia,43.35221,-3.075668,,24 horas,944189440,No,No,Sí
APARKABISA VII,APARCAMIENTO SEGURO,,Zierbena,Bizkaia,43.34841,-3.069794,,24 horas,944189440,No,No,Sí
Área de servicio La Tortuga,APARCAMIENTO SEGURO,,"Jonquera, La",Girona,42.40748,2.879221,,24 horas,972 555 645,Sí,No,Sí
Area de Servicios Can Calderón,APARCAMIENTO SEGURO,,Sant Boi de Llobregat,Barcelona,41.32599,2.037821,,24 horas,936304064,Sí,No,No
Area de Servicios Can Nadal,APARCAMIENTO SEGURO,,Lliçà de Vall,Barcelona,41.58847,2.246945,,24 horas,938437440,Sí,No,Sí
Area Logistica de Málaga,APARCAMIENTO SEGURO,,Málaga,Málaga,36.71389,-4.51161,Expendedoras o Carrefour según su horario,24 horas,952177984,Sí,No,Sí
Area Logistica de Sevilla- Sector Nº 1 La Negrilla,APARCAMIENTO SEGURO,,Sevilla,Sevilla,37.38541,-5.938404,,24 horas,954787072,No,No,Sí
Centro de transportes de Gijón,APARCAMIENTO SEGURO,,,Asturias,43.53017,-5.70365,,24 horas,985300364,No,No,Sí
CETRAMESA,APARCAMIENTO SEGURO,,Salamanca,Salamanca,40.96015,-5.723474,,24 horas,923330500,No,No,Sí
Ciudad del transporte de Molina de Segura,APARCAMIENTO SEGURO,,Molina de Segura,Murcia,38.0784,-1.214487,Horario expendedores 7:00 a 19:00h,24 horas ,605 84 25 65,Sí,Sí,Sí
Ciudad del Transporte de Pamplona,APARCAMIENTO SEGURO,,,Navarra,42.73003,-1.615,,24 horas,948314176,Sí,Sí,Sí
Estación de servicio El Cisne 1,APARCAMIENTO SEGURO,,,Zaragoza,41.62506,1.010944,,24 horas,976344320,Sí,Sí,Sí
Estacion de Servicio Las Ventas I,APARCAMIENTO SEGURO,,,Zaragoza,41.69573,-0.98967,,24 horas,976403403,Sí,Sí,Sí
Estación de Servicio Las Ventas I,APARCAMIENTO SEGURO,,,Zaragoza,41.69556,0.9897223,"Con vallado seguro; perímetro iluminado (mejorable); con circuito serrado de cámaras de TV; con control de accesos mediante barrera; con empresa de seguridad (Securitas); instalaciones de lavado disponibles y funcionando; tienda por vetanilla; restauración por ventanilla (sandwiches, embutidos al vacío, pan, cafés); aseos fuera (con llave); horario 24H",24H,976403392,Sí,Sí,Sí
Estación de Servicio Pirineo Aragonés,APARCAMIENTO SEGURO,,,Zaragoza,41.77862,-0.8304,,6H A 22H,976403403,Sí,Sí,Sí
Parking BRIN,APARCAMIENTO SEGURO,,,Granada,37.22692,-3.641556,,24 horas,958468352,No,No,Sí
Parking Exit 3 AP-7,APARCAMIENTO SEGURO,,,Girona,42.29894,2.937305,,24 horas,972528096,Sí,Sí,No
Repsol Security Parking Albatera,APARCAMIENTO SEGURO,,,Alicante_Alacant,38.17528,-0.8536111,,24H,965346048,Sí,Sí,Sí
Repsol Security Parking Guarroman,APARCAMIENTO SEGURO,,Guarromán,Jaén,38.19322,-3.671072,,24 horas,953615104,Sí,No,Sí
Repsol Security Parking La Junquera,APARCAMIENTO SEGURO,,,Girona,42.39861,2.880556,,24 horas,972554752,Sí,Sí,Sí
Repsol Security Parking Mérida,APARCAMIENTO SEGURO,,,Badajoz,38.93778,-6.334722,,24 horas,924349248,Sí,Sí,Sí
Repsol Security Parking Mirabueno,APARCAMIENTO SEGURO,,,Guadalajara,40.92778,-2.685833,,24H,664219904,Sí,Sí,No
Repsol Security Parking Valdecarpinteros,APARCAMIENTO SEGURO,,,Salamanca,40.66417,-6.429722,,24 horas,923480320,Sí,Sí,Sí
Repsol Security Parking Venta del Moro,APARCAMIENTO SEGURO,,Caudete de las Fuentes,Valencia_València,39.53967,-1.311711,,24 horas,637386560,Sí,No,Sí
Repsol Security Parking Zaragoza Plaza,APARCAMIENTO SEGURO,,Zaragoza,Zaragoza,41.63488,-0.991023,,24 horas,876768832,Sí,No,No
Truck Park Montseny,APARCAMIENTO SEGURO,,,Barcelona,41.65069,2.427381,,24 horas,934 927 827,Sí,Sí,Sí
Truck Park Porta Barcelona,APARCAMIENTO SEGURO,,,Barcelona,41.46886,1.98035,,24 horas,934 927 827,Sí,Sí,Sí
E.S. CARTAMA,"BP OIL ESPAÑA, S.A.U.","Autovia Guadalhorce a-357 Salida 57 A-7052, A-357",Cártama,Málaga,36.72016,-4.594222,,24 HORAS,952427222,Sí,No,No
E.S. EL AEROPUERTO DE CORDOBA,"BP OIL ESPAÑA, S.A.U.","Carr. del Aeropuerto, Km. 3,7",Córdoba,Córdoba,37.86152,-4.830126,,24 HORAS,957450568,Sí,No,No
E.S. GUADALHORCE,"BP OIL ESPAÑA, S.A.U."," Calle Rusia, 4",Málaga,Málaga,36.70747,-4.495082,Supermercado Coviran abierto de lunes a sabado de 9:00h a 20:00h y domingos y festivos de 9:00h a 14:00h,24 HORAS,952490788,Sí,No,No
E.S. LA AURORA,"BP OIL ESPAÑA, S.A.U.","Carr. Utrera-Sevilla, Km 1",Utrera,Sevilla,37.19284,-5.794263,,24 HORAS,954860016,Sí,No,No
E.S. LA VENTILLA,"BP OIL ESPAÑA, S.A.U.","Carretera A-387, km 4, Cruce de Mijas",Alhaurín el Grande,Málaga,36.61945,-4.709411,,24 HORAS,952596840,Sí,No,No
E.S. UNIVERSIDAD,"BP OIL ESPAÑA, S.A.U.","Calle Marisma, 48",Málaga,Málaga,36.71299,-4.474766,,24 HORAS,619952089,Sí,No,No
A Estrada - Servicios Puente Liñares -,Galp,"CTRA. N-640, PK 202,000","Estrada, A",Pontevedra,42.6982,-8.45916,,24h,,Sí,No,No
Abrera,Galp,"CL. SALVADOR SEGUI, 1",Abrera,Barcelona,41.5153,1.89758,,24h,,Sí,No,No
Agost - AP7 Dir.Murcia,Galp,"AUTOV. AP-7, PK 696,000 MI",Agost,Alicante_Alacant,38.4066,-0.599971,,24h,,Sí,No,No
Agost - AP7 Dir.Valencia,Galp,"AUTOV. AP-7, PK 696,000 MD",Agost,Alicante_Alacant,38.4088,-0.599395,,24h,,Sí,No,No
Albolote - A92 Dir Malaga,Galp,"AUTOV. A-92, PK 239,000 MI",Albolote,Granada,37.2328,-3.66772,,24h,,Sí,No,No
Albolote - A92 Dir Murcia,Galp,"AUTOV. A-92, PK 239,000 MD",Albolote,Granada,37.2315,-3.66852,,24h,,Sí,Sí,No
Alcalá de Guadaira - Bansur,Galp,"AUTOV. A-92, PK 4,000 MI",Alcalá de Guadaíra,Sevilla,37.3794,-5.89561,,24h,,Sí,Sí,No
Alcalá Henares - A2 Dir.Barcelona,Galp,"AUTOV. A-2, PK 29,000 DIR BARCELONA. MI",Alcalá de Henares,Madrid,40.4943,-3.38776,,24h,,Sí,No,Sí
Alcalá Henares - A2 Dir.Madrid,Galp,"AUTOV. A-2, PK 29,000 DIR MADRID. MD",Alcalá de Henares,Madrid,40.4932,-3.38638,,24h,,Sí,No,Sí
Alcalá Henares - C/Villamalea,Galp,"CL. VILLAMALEA, 2",Alcalá de Henares,Madrid,40.5077,-3.35269,,24h,,Sí,No,No
Alcalá Henares - Via Complutense,Galp,"CL. VIA COMPLUTENSE,1 ESQ CL. AVILA",Alcalá de Henares,Madrid,40.494,-3.34866,,24h,,Sí,No,No
Alcobendas - Av.Marq.Valdavia,Galp,"CL. MARQUES DE VALDAVIA, 169",Alcobendas,Madrid,40.5483,-3.66206,,24h,,Sí,No,No
Alcozar,Galp,"CTRA. N-122, PK 239,100 MD",Langa de Duero,Soria,41.5993,-3.35332,,24h,,Sí,Sí,No
Aldehuela de la Boveda,Galp,AUTOV. A62 SALIDA 275,Aldehuela de la Bóveda,Salamanca,40.8471,-6.05004,,24h,,Sí,No,Sí
Alfaz del Pí,Galp,"CAMINO VIEJO DE ALTEA, PK 2,000","Alfàs del Pi, l'",Alicante_Alacant,38.5678,-0.0829972,,24h,,Sí,No,No
Alicante - San Gabriel,Galp,"AV. RAMON GOMEZ SEMPERE, 9-11",Alicante/Alacant,Alicante_Alacant,38.3306,-0.513559,,24h,,Sí,No,No
Ames,Galp,"CTRA. AC-543, PK 7,500",Ames,A Coruña,42.8644,-8.62895,,24h,,Sí,No,No
Ansoain - Artica,Galp,CTRA. ARTICA S/N JUNTO A PLAZA PIO BAROJA,Ansoáin/Antsoain,Navarra,42.8319,-1.65108,,24h,,Sí,No,No
Antequera,Galp,"FINCA EL CAMPITO S/N, GTA.CRISTO DE LA VERONICA",Antequera,Málaga,37.0272,-4.57655,,24h,,Sí,No,No
Arcos de Jalon,Galp,"AUTOV. A-2, PK 167,000",Arcos de Jalón,Soria,41.217,-2.29127,,24h,,No,No,Sí
Badajoz - Av. Portugal,Galp,"AV. ADOLFO DIAZ AMBRONA, 60",Badajoz,Badajoz,38.8837,-6.99035,,24h,,Sí,No,No
Badajoz - N V,Galp,"AUTOV. A-5, PK 405,700 MD",Badajoz,Badajoz,38.8908,-7.01439,,24h,,Sí,No,No
Barakaldo,Galp,"CTRA. N-634, PK 120,000",Barakaldo,Bizkaia,43.2887,-3.00966,,24h,,Sí,No,No
Barcelona - Z.Franca-Plaza Cerdá,Galp,"PS. ZONA FRANCA, 221",Barcelona,Barcelona,41.363,2.13641,,24h,,Sí,No,No
Baza,Galp,"CTRA. A-4200,  PK 2,200",Baza,Granada,37.5086,-2.76581,,24h,,Sí,No,No
Bellreguard,Galp,"AV. ALACANT, 143",Bellreguard,Valencia_València,38.9494,-0.165143,,24h,,Sí,No,No
Benalmadena - Av.Arroyo Hondo,Galp,AV. ARROYO HONDO S/N,Benalmádena,Málaga,36.6003,-4.5616,,24h,,Sí,No,No
Benalmádena - Carvajal,Galp,"ANTIGUA CTRA. N-340 AV. DEL SOL, 18",Benalmádena,Málaga,36.5724,-4.59006,,24h,,Sí,No,No
Benalmádena - Miramar,Galp,CTRA. AUTOV. 2ª ROTONDA - ARROYO DE LA MIEL,Benalmádena,Málaga,36.6075,-4.53999,,24h,,Sí,No,No
Benidorm - Av.Villajoyosa,Galp,"AV. VILLAJOYOSA, 44",Benidorm,Alicante_Alacant,38.533,-0.166074,,24h,,Sí,No,No
Benidorm - Dir.Alicante N332,Galp,"CTRA. N-332, PK 124,500",Benidorm,Alicante_Alacant,38.558,-0.101893,,24h,,Sí,No,No
Benidorm - Dir.Valencia N332,Galp,"CTRA. N-332, PK 124,500",Benidorm,Alicante_Alacant,38.5578,-0.101484,,24h,,Sí,No,No
Berrioplano,Galp,"CL. MARiA VISCARRET, 3",Berrioplano/Berriobeiti,Navarra,42.8333,-1.66452,,24h,,Sí,No,No
Boadilla - Ventura Rodriguez,Galp,"CL. VENTURA RODRIGUEZ, 16",Boadilla del Monte,Madrid,40.3987,-3.891,,24h,,Sí,No,No
Bollullos,Galp,"POL. IND.B.O  AV. BORMUJOS, 1-3",Bollullos de la Mitación,Sevilla,37.3504,-6.13821,,24h,,Sí,No,No
Borrassa,Galp,"CTRA. N-II, PK 747,000",Borrassà,Girona,42.2153,2.94776,,24h,,Sí,No,No
Borriol,Galp,"CTRA. CV-16 PK 4,100",Borriol,Castellón_Castelló,40.0141,-0.125855,,24h,,Sí,No,Sí
Calera y Chozas,Galp,"AUTOV. A-5, PK 137,300",Calera y Chozas,Toledo,39.9177,-5.05865,,24h,,Sí,No,No
Campo de Criptana,Galp,"CTRA. CM-3166, PK 5,000",Campo de Criptana,Ciudad Real,39.4008,-3.14905,,24h,,Sí,No,No
Campolugar,Galp,"CTRA. EX-102, PK 12,200 MI",Campo Lugar,Cáceres,39.2163,-5.78687,,24h,,Sí,No,No
Carlet - La Reina,Galp,"AUTOV. A-7, PK 369,500",Carlet,Valencia_València,39.2274,-0.487635,,24h,,Sí,No,No
Casares - Porceyo,Galp,"CTRA. AS-II, PK 20,700",Gijón,Asturias,43.4954,-5.71698,,24h,,Sí,No,No
Castelldefells - Canal Olimpico,Galp,"AV. CANAL OLIMPICO, 21",Castelldefels,Barcelona,41.2817,1.98636,,24h,,Sí,No,No
Castillo de Garcimuñoz,Galp,"AUTOV. A-3, PK 159,500",Castillo de Garcimuñoz,Cuenca,39.6517,-2.35281,,24h,,No,No,Sí
Cazorla,Galp,"CTRA. A-319, PK 11,500",Cazorla,Jaén,37.9207,-3.01924,,24h,,Sí,No,No
Chirivel,Galp,"AUTOV. A-92N, PK 385,000",Chirivel,Almería,37.5959,-2.28109,,24h,,Sí,No,No
Chiva - Palmeras A3 Dir.Madrid,Galp,"AUTOV. A-3, PK 334,000",Chiva,Valencia_València,39.4749,-0.612291,,24h,,Sí,Sí,Sí
Cobeña,Galp,"CL. RIO JUCAR, 2",Cobeña,Madrid,40.5613,-3.51334,,24h,,Sí,No,No
Collado Villalba - Carrefour,Galp,"CL. RINCÓN DE LAS HERAS, 3",Collado Villalba,Madrid,40.6358,-4.00995,,24h,,Sí,No,No
Cordoba,Galp,AV. FUENTE DE LA SALUD S/N,Córdoba,Córdoba,37.9016,-4.77227,,24h,,Sí,No,No
Cornellá - C/Progrés,Galp,"CL. PROGRESO ESQ. CL. ALBERT EINSTEIN, PI. ALMEDA",Cornellà de Llobregat,Barcelona,41.3481,2.08191,,24h,,Sí,No,No
El Bruc,Galp,"AUTOV. A-2, PK 573,000","Bruc, El",Barcelona,41.5679,1.80173,,24h,,No,No,Sí
El Campello,Galp,"CL. SAN BARTOLOMEU, 1","Campello, el",Alicante_Alacant,38.4188,-0.393142,,24h,,Sí,No,No
El Remedio-Nava,Galp,"CTRA. N-634, PK 379,900",Nava,Asturias,43.3731,-5.54658,,24h,,Sí,No,No
Elche - A7Dir. Alicante,Galp,"AUTOV. A-70, PK 25,000 MI",Elche/Elx,Alicante_Alacant,38.308,-0.606568,,24h,,Sí,No,No
Elche - Av. Libertad,Galp,"AV. CREVILLENTE, 5",Elche/Elx,Alicante_Alacant,38.2603,-0.718009,,24h,,Sí,No,No
Elche - C/Almansa,Galp,"POL.IND. CARRUS  CL. ALMANSA, 62",Elche/Elx,Alicante_Alacant,38.279,-0.719523,,24h,,Sí,No,No
Estepona,Galp,"AUTOV. A-7, PK 154,500",Estepona,Málaga,36.4342,-5.16069,,24h,,Sí,No,No
Figueres,Galp,"POL.IND. ALT EMPORDA RONDA SUR, 23",Figueres,Girona,42.2612,2.97666,,24h,,Sí,No,No
Fontellas - Dir.Zaragoza N232,Galp,"AUTOVIA A-68 (ANTIGUA N-232) PK 99,820 MD",Fontellas,Navarra,42.0235,-1.58024,,24h,,No,No,Sí
Fraga - Dir.Barcelona N-II,Galp,"CTRA. N-II, PK 422,400 MD",Fraga,Huesca,41.5197,0.205797,,24h,,Sí,No,No
Fraga - Dir.Madrid N-II,Galp,"CTRA. N-II, PK 422,400 MI",Fraga,Huesca,41.5203,0.205812,,24h,,Sí,No,No
Fuengirola,Galp,"CL. MALVARROSA, 1  BARRIO LOS PACOS",Fuengirola,Málaga,36.5643,-4.62107,,24h,,Sí,No,No
Fuengirola - Ctra. Mijas,Galp,"CTRA. A-387, PK 6,000 MI",Fuengirola,Málaga,36.5563,-4.62696,,24h,,Sí,No,No
Fuenlabrada - Av.Hispanidad,Galp,"POL.IND. EL  PALOMO AV. HISPANIDAD, 52",Fuenlabrada,Madrid,40.2816,-3.77062,,24h,,Sí,Sí,No
Fuenlabrada - La Cantueña (Madrid),Galp,"POL.IND. LA CANTUEÑA AUTOV. A-42, PK 18,400",Fuenlabrada,Madrid,40.2659,-3.75853,,24h,,Sí,No,No
Gironès Norte,Galp,"AUTOP. AP-7, PK 70,500 MI",Aiguaviva,Girona,41.9072,2.77348,,24h,,Sí,No,Sí
Gironès Sur,Galp,"AUTOP. AP-7, PK 70,500 MD",Riudellots de la Selva,Girona,41.9057,2.77167,,24h,,Sí,No,Sí
Guadalajara - Av.Del Sol,Galp,AV. DEL SOL ESQUINA AV. DE FRANCIA,Guadalajara,Guadalajara,40.6439,-3.14296,,24h,,Sí,No,No
Hondarribia,Galp,"CL. GABARRARI, 22",Hondarribia,Gipuzkoa,43.3563,-1.79444,,24h,,Sí,No,No
Huétor Tajar A-92,Galp,"AUTOV. A-92, PK 200,000 MD",Huétor Tájar,Granada,37.1798,-4.05935,,24h,,Sí,No,Sí
Jerez - A-381,Galp,"AUTOV. A-381, PK 17,000",Jerez de la Frontera,Cádiz,36.5247,-5.98189,,24h,,No,No,Sí
Jerez - Area Sur,Galp,"CTRA. N-IV, PK 639,500",Jerez de la Frontera,Cádiz,36.6877,-6.15472,,24h,,Sí,No,No
Jerez - Av. Arcos Frontera-La Marquesa,Galp,AV. DE ARCOS CL. V CL. LAGUNA,Jerez de la Frontera,Cádiz,36.6943,-6.10082,,24h,,Sí,No,No
Jonquera - AS24,Galp,"CTRA. N-II, PK 772,500","Jonquera, La",Girona,42.3978,2.88042,,24h,,Sí,Sí,No
Jonquera - Centro,Galp,"CTRA. N-II, PK 774,800","Jonquera, La",Girona,42.4169,2.87201,,24h,,Sí,No,Sí
Jonquera - Norte,Galp,"AUTOP. AP-7, PK 7,000","Jonquera, La",Girona,42.4054,2.8746,,24h,,Sí,No,Sí
Jonquera - Tramuntana,Galp,"CTRA. N-II, PK 774,000","Jonquera, La",Girona,42.4104,2.87623,,24h,,Sí,Sí,Sí
L´Ampolla - Dir.Barcelona-N-340,Galp,"CTRA. N-340, PK 1.100,730 MD","Ampolla, L'",Tarragona,40.8376,0.711463,,24h,,Sí,No,No
La Nucía,Galp,"AV. MARINA BAIXA, 128","Nucia, la",Alicante_Alacant,38.6031,-0.129731,,24h,,Sí,No,No
La Roda Dir. Albacete,Galp,"AUTOV. A-31, PK 50,500","Roda, La",Albacete,39.1439,-2.0513,,24h,,Sí,No,No
La Roda Dir. Madrid,Galp,"AUTOV. A-31, PK 34,600","Roda, La",Albacete,39.225,-2.18604,,24h,,Sí,No,No
Lalin - Bendoiro,Galp,"CTRA. N-525, PK 296,200",Lalín,Pontevedra,42.6827,-8.16806,,24h,,Sí,Sí,No
Las Franquesas del Vallés,Galp,"CTRA. C-251, PK 2,800","Franqueses del Vallès, Les",Barcelona,41.6197,2.3179,,24h,,Sí,No,No
Lasarte,Galp,AV. DEL HIPODROMO S/N,Lasarte-Oria,Gipuzkoa,43.2542,-2.02275,,24h,,Sí,No,Sí
Lleida,Galp,"CTRA. N-240, PK 100,000",Lleida,Lleida,41.6454,0.566212,,24h,,Sí,No,No
Lloret de Mar,Galp,"CTRA. BLANES, 149",Lloret de Mar,Girona,41.6981,2.82725,,24h,,Sí,No,No
Madrid - Argentina,Galp,"AV. DE LOS POBLADOS, 83",Madrid,Madrid,40.3736,-3.74343,,24h,,Sí,Sí,No
Madrid - Sanchinarro,Galp,"AV. NICETO ALCALA ZAMORA, 20",Madrid,Madrid,40.494,-3.64822,,24h,,Sí,Sí,No
Madrid - Sinesio Delgado,Galp,"CL. SINESIO DELGADO, 110",Madrid,Madrid,40.4737,-3.70147,,24h,,Sí,Sí,No
Madrid - Vallecas,Galp,"AV. MAYORAZGO, 20",Madrid,Madrid,40.369,-3.63104,,24h,,Sí,Sí,No
Majadahonda,Galp,"CL. DOCTOR MARIANO ALCARAZ, 1",Majadahonda,Madrid,40.4556,-3.8674,,24h,,Sí,No,No
Málaga - El Limonar,Galp,"AUTOV. A-7, PK 244,000",Málaga,Málaga,36.7398,-4.39451,,24h,,Sí,No,No
Málaga - El Viso,Galp,"AV. WASHINGTON, 68",Málaga,Málaga,36.7136,-4.48252,,24h,,Sí,No,No
Málaga - Santa Barbara,Galp,"CL. TUCIDIDES, 36",Málaga,Málaga,36.6916,-4.46194,,24h,,Sí,No,No
Marbella - Ricardo Soriano,Galp,"AV. RICARDO SORIANO, 51",Marbella,Málaga,36.5101,-4.89669,,24h,,Sí,No,No
Marbella - Rodeito,Galp,"AUTOV. A-7, PK 173,500",Marbella,Málaga,36.4869,-4.96625,,24h,,Sí,No,No
Maresme Sur,Galp,"AUTOP. C-32, PK 89,000",Teià,Barcelona,41.4931,2.33403,,24h,,Sí,No,No
Martelo Rois,Galp,"CTRA. C-543, PK 23,000",Rois,A Coruña,42.8126,-8.77612,,24h,,Sí,No,No
Martin Muñoz de la Dehesa-Arevalo,Galp,"AUTOV. A-6, PK 124,100",Martín Muñoz de la Dehesa,Segovia,41.0528,-4.69933,,24h,,Sí,No,No
Mataró - Hortes,Galp,"POL.IND. HORTES DEL CAMI RAL CR.BARCELONA, 50 P",Mataró,Barcelona,41.5271,2.43089,,24h,,Sí,No,No
Mayorga,Galp,"CTRA. N-601, KM. 269,000",Mayorga,Valladolid,42.1606,-5.26776,,24h,,Sí,No,No
Mazagon,Galp,"CTRA. A-494, PK 24,500",Moguer,Huelva,37.1388,-6.82296,,24h,,Sí,No,No
Mazarrón - Camposol,Galp,"URB. CAMPOSOL SECTOR B, AV. COVACHOS, S/N",Mazarrón,Murcia,37.6771,-1.34,,24h,,Sí,No,No
Medina Del Campo,Galp,"AUTOV. A-6, PK 165,000",Medina del Campo,Valladolid,41.355,-4.95885,,24h,,Sí,Sí,Sí
Medol Norte,Galp,"AUTOP. AP-7, PK 237,000",Tarragona,Tarragona,41.1409,1.34752,,24h,,Sí,No,Sí
Meis,Galp,"VR. AU. G-41, PK 5,580",Meis,Pontevedra,42.4986,-8.74499,,24h,,No,No,Sí
Mislata,Galp,"CTRA. CV-403, PLAN PARCIAL LES VIÑES",Mislata,Valencia_València,39.4692,-0.433165,,24h,,Sí,No,No
Molins de Rei,Galp,"AUTOV. B-23, PK 8,500",Molins de Rei,Barcelona,41.3921,2.02411,,24h,,Sí,No,No
Montcada Norte,Galp,"AUTOP. C-33, PK 82,500",Montcada i Reixac,Barcelona,41.4952,2.19142,,24h,,Sí,No,No
Montijo - Badajoz,Galp,"CTRA. EX-209, PK 5,300",Montijo,Badajoz,38.9024,-6.60802,,24h,,Sí,No,Sí
Mont-Roig-Nacional,Galp,"CTRA. N-340, PK 1.139,000",Mont-roig del Camp,Tarragona,41.0494,0.999869,,24h,,Sí,Sí,No
Montseny Norte,Galp,"AUTOP. AP-7, PK 117,000 MD",Llinars del Vallès,Barcelona,41.6478,2.42566,,24h,,Sí,Sí,Sí
Montseny Sur,Galp,"AUTOP. AP-7, PK 117,000 MI",Llinars del Vallès,Barcelona,41.6468,2.42555,,24h,,Sí,Sí,Sí
Morón de la Frontera,Galp,"CL. DE LA TRILLA, 1 , CR. A-361, PK 45,500",Morón de la Frontera,Sevilla,37.127,-5.46022,,24h,,Sí,Sí,No
Murcia - Ctra. del Palmar,Galp,"CTRA. DE EL PALMAR, N 69",Murcia,Murcia,37.9717,-1.13685,,24h,,Sí,No,No
Murcia - Ronda Sur El Infante,Galp,POL.IND. INFANTE RONDA SUR,Murcia,Murcia,37.9798,-1.11378,,24h,,Sí,No,No
Muros de Nalón,Galp,"CTRA. N-632, PK 117,300",Muros de Nalón,Asturias,43.541,-6.10132,,24h,,Sí,No,No
Nevada,Galp,"CTRA. A- 337, PK 9,200",Nevada,Granada,37.0085,-3.01138,,24h,,Sí,No,No
Noaín,Galp,POL.IND. TALLUNTXE II  CL. N32 MANZANA 7,Aranguren,Navarra,42.7744,-1.63331,,24h,,No,No,Sí
Ocaña,Galp,"AUTOV. A-4, PK 64,000",Ocaña,Toledo,39.9341,-3.48928,,24h,,Sí,No,No
Oleiros - Dirección Lugo,Galp,"CTRA. N-VI, PK 589,600 MI",Oleiros,A Coruña,43.3288,-8.36619,,24h,,Sí,No,No
Olmedo,Galp,"CTRA. N-601, PK 147,800",Olmedo,Valladolid,41.2819,-4.68169,,24h,,Sí,No,No
Ordes,Galp,"CTRA. N-550, PK 34,500",Ordes,A Coruña,43.0934,-8.40316,,24h,,Sí,No,No
Oropesa de Toledo,Galp,"AUTOVIA A-5,  PK 148 DIR BADAJOZ",Oropesa,Toledo,39.9265,-5.18589,,24h,,Sí,No,No
Oropesa Del Mar,Galp,"AV. PLANA, 3",Oropesa del Mar/Orpesa,Castellón_Castelló,40.0916,0.13196,,24h,,Sí,No,No
Palma de Mallorca - Manuel Azaña,Galp,"CL. MANUEL AZAÑA, 5",Palma ,Illes Balears,39.5652,2.66336,,24h,,Sí,No,No
Parla,Galp,"POL.IND. GARCIA RIVERA CL. BUENAVISTA, 2",Parla,Madrid,40.2515,-3.76425,,24h,,Sí,Sí,No
Penedès Norte,Galp,"AUTOP. AP-7, PK 208,000","Arboç, L'",Tarragona,41.289,1.59354,,24h,,Sí,No,Sí
Peraleda de la Mata,Galp,"AUTOV. A-5 MADRID-BADAJOZ, PK. 171",Peraleda de la Mata,Cáceres,39.892,-5.42829,,24h,,Sí,No,Sí
Peraleda de la Mata - Ex118,Galp,"CTRA. EX-118, PK 60,150",Peraleda de la Mata,Cáceres,39.8593,-5.47045,,24h,,Sí,Sí,No
Perales De Tajuña,Galp,"CTRA. N-III, PK 41,000 MD",Perales de Tajuña,Madrid,40.2237,-3.33455,,24h,,Sí,Sí,No
Pinto - Eboli Dir.Arganda M506,Galp,"CTRA. M-506, PK 26,000",Pinto,Madrid,40.2364,-3.70531,,24h,,Sí,Sí,No
Pinto - Eboli Dir.Fuenlabrada M506,Galp,"CTRA. M-506, PK 24,000",Pinto,Madrid,40.2553,-3.72724,,24h,,Sí,Sí,No
Porta de Barcelona Sur,Galp,"AUTOP. AP-7, PK 165,500",Castellbisbal,Barcelona,41.468,1.9778,,24h,,Sí,No,Sí
Posada de Llanes - Dir.Oviedo,Galp,"CTRA. N-634, PK 303,000 MD",Llanes,Asturias,43.4326,-4.85832,,24h,,Sí,Sí,No
Posada de Llanes - Dir.Santander,Galp,"CTRA. N-634, PK 303,000 MI",Llanes,Asturias,43.4315,-4.85708,,24h,,Sí,Sí,No
Puerto Lápice - Dir.Cadiz A4,Galp,"AUTOV. A-4, PK 140,500 MI",Puerto Lápice,Ciudad Real,39.2883,-3.45431,,24h,,No,No,Sí
Puerto Lápice - Dir.Madrid A4,Galp,"AUTOV. A-4, PK 140,500 MD",Puerto Lápice,Ciudad Real,39.2876,-3.45662,,24h,,No,No,Sí
Quintana del Puente,Galp,"AUTOV. A-62, PK 56,500 MD",Quintana del Puente,Palencia,42.0765,-4.21049,,24h,,Sí,No,No
Reus - C/Racasens i Mercadé,Galp,"CL. RACASENS I MERCADE, 79",Reus,Tarragona,41.1524,1.0841,,24h,,Sí,No,No
Ripollet - Polig. La Siberia,Galp,"CTRA. N-150 BARCELONA-SABADELL, 286-288",Ripollet,Barcelona,41.5014,2.13949,,24h,,Sí,No,No
Rojales - Ciudad Quesada,Galp,"AV. NACIONES, 1 ESQ. CL. ARCOS",Rojales,Alicante_Alacant,38.0631,-0.728758,,24h,,Sí,No,No
Rosal de La Frontera,Galp,"CTRA. N-433, PK 154,200",Rosal de la Frontera,Huelva,37.963,-7.23914,,24h,,No,No,Sí
S.S.de los Reyes-Jarama,Galp,"AUTOV. A-1, PK 26,200",San Sebastián de los Reyes,Madrid,40.6087,-3.57905,,24h,,Sí,No,No
Sabadell - Gran Via,Galp,"CL. DOMENECH I MONTANER, 52",Sabadell,Barcelona,41.5351,2.10426,,24h,,Sí,No,No
Salnes,Galp,"AUTOV. AP-9, PK 114,000",Portas,Pontevedra,42.5625,-8.67207,,24h,,Sí,No,No
Salvatierra,Galp,"CL. FUEROS, 2 - ANTIGUA N-1, PK 375,000",Agurain/Salvatierra,Araba_Álava,42.849,-2.39468,,24h,,Sí,Sí,No
San Antonio de Benagéber,Galp,"CL. UE SECTOR I-1, 12B",San Antonio de Benagéber,Valencia_València,39.5556,-0.486969,,24h,,Sí,No,No
San Esteban de las Cruces,Galp,"CTRA. AS-242, PK 1,600",Oviedo,Asturias,43.3491,-5.82898,,24h,,Sí,No,No
Sant Adriá de Besòs-C/Guipuzcoa,Galp,"CL. GUIPUZCOA, 46 ESQ. CL.  ZORILLA",Sant Adrià de Besòs,Barcelona,41.4274,2.21076,,24h,,Sí,No,No
Sant Joan Despí,Galp,"AV. BARCELONA, 26",Sant Joan Despí,Barcelona,41.3677,2.06589,,24h,,Sí,No,No
Sant Pol de Mar,Galp,"CL. SANT GALDERIC, 12",Sant Pol de Mar,Barcelona,41.608,2.60489,,24h,,Sí,No,No
Santa Llogaia D'Alguema,Galp,"AV. D'ALGUEMA, 2",Santa Llogaia d'Àlguema,Girona,42.2298,2.95583,,24h,,Sí,No,No
Santa Marta Tormes Av.Serna,Galp,"AV. DE LA SERNA, 14-16",Santa Marta de Tormes,Salamanca,40.9504,-5.64109,,24h,,Sí,No,No
Santa Susanna,Galp,"CTRA. N-II, PK 672,000",Santa Susanna,Barcelona,41.6329,2.70414,,24h,,Sí,No,No
Santander - C/ Repuente,Galp,"CL. REPUENTE, 30",Santander,Cantabria,43.4648,-3.83395,,24h,,Sí,No,No
Sarracín - Dir.Burgos N-I,Galp,"AUTOV. A-1, PK 227,630 MD",Sarracín,Burgos,42.2458,-3.70345,,24h,,Sí,No,No
Silleda,Galp,"AUTOV. AP-53, PK 27,000",Silleda,Pontevedra,42.7163,-8.30127,,24h,,Sí,No,No
Socuéllamos,Galp,"CTRA. N-310, PK 104,700",Socuéllamos,Ciudad Real,39.1642,-2.88482,,24h,,Sí,No,No
Tembleque,Galp,"AUTOV. A-4, PK 99,500",Tembleque,Toledo,39.6362,-3.51743,,24h,,Sí,Sí,No
Torelló - Ter,Galp,"CL. DEL TER, 45",Torelló,Barcelona,42.0487,2.25304,,24h,,Sí,No,No
Torrent - A7Dir.Alicante,Galp,"AUTOV. A-7, PK 346,200 MD",Torrent,Girona,39.4006,-0.493606,,24h,,Sí,No,No
Torrent - A7Dir.Castellón,Galp,"AUTOV. A-7, PK 346,200 MI",Torrent,Girona,39.4007,-0.491101,,24h,,Sí,No,No
Valdemoro - Los Olivos,Galp,"AV. DE ESPAÑA, 103",Valdemoro,Madrid,40.1855,-3.6928,,24h,,Sí,Sí,No
Valdepeñas,Galp,"AUTOV. A-4, PK 210,000",Valdepeñas,Ciudad Real,38.688,-3.43734,,24h,,Sí,No,Sí
Valencia - Archiduque Carlos,Galp,"CL. PEDRAPIQUERS, 9",València,Valencia_València,39.4563,-0.405274,,24h,,No,No,Sí
Valencia - Emilio Baró,Galp,"CL. EMILIO BARO, 69",València,Valencia_València,39.4893,-0.360454,,24h,,Sí,No,No
Valencia - General Avilés,Galp,"AV. GENERAL AVILES, 92",València,Valencia_València,39.4817,-0.406471,,24h,,Sí,No,No
Valencia - Serrería,Galp,"CL. SERRERIA, 14",València,Valencia_València,39.4645,-0.335609,,24h,,Sí,No,No
Valencia de Alcántara,Galp,"POL.IND. CERRO DE SAN FRANCISCO, PARC. 8 CL. 8",Valencia de Alcántara,Cáceres,39.4144,-7.23032,,24h,,Sí,No,Sí
Vallirana,Galp,"CTRA. N-340, PK 1,234,500",Vallirana,Barcelona,41.3796,1.91969,,24h,,Sí,No,No
Vigo - Lavadores,Galp,"CL. ALCALDE LAVADORES, 32",Vigo,Pontevedra,42.2231,-8.69797,,24h,,Sí,No,No
Viladecans - Av.de Gavà,Galp,"AV. DE GAVA, 23",Viladecans,Barcelona,41.3121,2.01577,,24h,,Sí,No,No
Vilanova - Toldrà 67,Galp,"AV. EDUARD TOLDRÁ, 67",Vilanova i la Geltrú,Barcelona,41.2281,1.73606,,24h,,Sí,No,No
Villargordo Cabriel - Dir.Madrid A3,Galp,"AUTOV. A-3, PK 255,270 MI",Villargordo del Cabriel,Valencia_València,39.5288,-1.43344,,24h,,Sí,No,No
Villargordo Cabriel - Dir.Valencia A3,Galp,"AUTOV. A-3, PK 255,080 MD",Villargordo del Cabriel,Valencia_València,39.5261,-1.4373,,24h,,Sí,Sí,No
Xirivella,Galp,"AV. RAJOLAR, 4",Xirivella,Valencia_València,39.4637,-0.44012,,24h,,Sí,No,No
Yecla,Galp,"CTRA. RM 425, PK 64,900",Yecla,Murcia,38.6148,-1.10271,,24h,,Sí,No,No
Zaragoza - A2 Dir.Barcelona,Galp,"AUTOV. A-2, PK 304,500",Zaragoza,Zaragoza,41.6155,-1.05883,,24h,,Sí,No,Sí
Ziordia,Galp,"AUTOV. A-1, PK 392,000",Ziordia,Navarra,42.8648,-2.23564,,24h,,Sí,No,Sí
Area de Servicio Vilamalla Globaltank,GLOBALTANK,"Avinguda d'Europa, 1, 17469 Vilamalla, Girona",Vilamalla,Girona,42.22903,2.965855,"Estación de Servicio especial para Camiones. Parking, tienda de Alimentación, Duchas, Lavandería, Wifi, etc. Abierta 2h Horas con atención personal",24H / 365 Dias,972 52 54 21,No,Sí,Sí
JOSEFA GONZALEZ MOURIZ,HOSTAL RESTAURANTE GONZALEZ ,"LG. SAN MARTIN DE GUILLAR, 12- OTERO DE REY",Lugo,Lugo,43.0609,-7.602861,SERVICIO DE ALOJAMIENTO Y RESTAURANTE. ,L-S: 6H30-23H | D-CERRADO,982393413,Sí,Sí,No
Estacion Servicio Q8 TALAVERA,KUWAIT,"AUTOVIA AUTOVIA  A-5 KM. KM 375,86",,Badajoz,38.85229,-6.714869,,9H00-3H00,(+34)924440549,Sí,Sí,Sí
Estacion Servicio Q8 TRUJILLO,KUWAIT,AUTOVIA AUTOVIA DEL SUROESTE KM. 259,,Cáceres,39.41111,-5.890987,,24H.,(+34)927321491,No,No,Sí
IDS Guarromán,KUWAIT,"Poligono industrial Guadiel, parcela139",,Jaén,38.14141,-3.71972,,9H00-13H00 y 15H00-18H00,,Sí,No,Sí
MEROIL BECERRIL DE LA SIERRA,Meroil,"CARRETERA M-623 KM. 1,5",,Madrid,40.70753,-3.977075,,,902 300 300,Sí,No,No
MEROIL GRANOLLERS,Meroil,"CARRETERA BARCELONA-PUIGCERDÀ, KM. 26,8",,Barcelona,41.60173,2.275641,,,938492582,Sí,No,No
MEROIL LLAVANERES,Meroil,"CARRETERA N-II, KM. 651,475",,Barcelona,41.55568,2.494608,,,937928171,Sí,No,No
MEROIL LORA,Meroil,"Av. de la Campana, s/n",Lora del Río,Sevilla,37.65588,-5.524764,,,955-802-213,Sí,No,No
MEROIL MERIDIANA,Meroil,"MERIDIANA, 666",,Barcelona,41.44749,2.18626,SALIDA PRINCIPAL DE BARCELONA ,,902 300 300,Sí,No,No
MEROIL SABADELL,Meroil,"CARRETERA DE BARCELONA, 405-409",,Barcelona,41.53432,2.109842,,,937123505,Sí,No,No
MEROIL SALT,Meroil,"MARQUES CAMPS, 79",,Girona,41.96732,2.78579,JUNTO SALIDA AUTOPISTA GERONA SUR,,902 300 300,Sí,No,No
MEROIL ZARAGOZA,Meroil,A-2 PK 328 MARGEN DERECHO.,,Zaragoza,41.6673,-0.8160277,,,902 300 300,Sí,No,No
OILPRIX ARRABASSADA,Meroil,"CARRETERA DE SANT CUGAT, KM. 3",,Barcelona,41.43126,2.111666,VIA SALIDA BARCELONA HACIA VALLÉS,,933775900,Sí,No,No
OILPRIX MOLINS,Meroil,"CARRETERA N-II KM.609,100",,Barcelona,41.40439,2.02326,,,902 300 300,Sí,No,No
OILPRIX PUERTO TARRAGONA,Meroil,EIX TRANSVERSAL  S/N ( PUERTO DE TARRAGONA ),,Tarragona,41.1083,1.227623,ES DENTRO DEL PUERTO DE TARRAGONA,,902 300 300,No,No,Sí
REDTORTUGA,OILALBERA,"P.I. la Campa, SALIDA II LA JUNQUERA, AP-7 ","Jonquera, La",Girona,42.40729,2.877161,"VENDING, PARQUING VIGILADO, MENUS PARA LLEVAR, BEBIDAS CALIENTES, LAVADORAS, DUCHAS, SUPERMERCADO, WIFI GRATIS",24H ATENDIDO,(+34)972555645,Sí,Sí,Sí
ESTACION DE SERVICIO LA BASCULA,OTROS,AUTOVÍA A-23 P.K. 160,Villafranca del Campo,Teruel,40.70243,-1.320014,,24h,987077309,Sí,Sí,Sí
NAVATRANS Área de Servicio,OTROS,"Autovía A-601, Km. 80",Navalmanzano,Segovia,41.18679,-4.272158,RESTAURACIÓN: L-V    ESTACIÓN+DUCHA: L-D 24H,L-V:  13:00 -15:30 /19:30 - 22:00,921064963,Sí,Sí,Sí
TIENDA ALIMENTACION RUMA,OTROS,CR. N6 P.K. 75,Navas de San Antonio,Segovia,40.75795,-4.331837,"Disponemos de comida preparada, tienda alimentación, café y bebidas para llevar. N-VI, 75, 40408 Navas de San Antonio, Segovia",de 8 a 19 horas,921193000 - 600430720,Sí,Sí,No
AGOST,PEAJE,AP-7; 696,Agost,Alicante_Alacant,38.40776,-0.59984,,24 horas,965 96 11 69,Sí,No,No
ALT CAMP,PEAJE,AP-2; 221,Rodonyà,Tarragona,41.28709,1.412915,,7:00 a 23:00,977 62 80 05,Sí,No,No
ALTOS DE MARBELLA,PEAJE,AP-7; 187,Marbella,Málaga,36.51851,-4.830564,,24 horas,952 11 39 24,Sí,No,Sí
ALTUBE,PEAJE,AP-68; 36,Zuia,Araba_Álava,42.9667,-2.872067,,7:00 a 23:00,945 46 26 94,Sí,No,No
AMEIXEIRA,PEAJE,AP-9; 39,Ordes,A Coruña,43.09875,-8.350434,Horario de tienda (Combustible/Aseos 24 h),Tienda 7:00-23:00h,981 68 07 83,Sí,No,No
ARRIGORRIAGA,PEAJE,AP-68; 6,Ugao-Miraballes,Bizkaia,43.19093,-2.895899,,24 horas,946 71 03 98,Sí,No,No
ARROYO DE LA MIEL,PEAJE,AP-7; 224,Torremolinos,Málaga,36.61268,-4.528135,,24 horas,952 11 83 58,Sí,No,Sí
BELLATERRA,PEAJE,AP-7; 151,Cerdanyola del Vallès,Barcelona,41.49264,2.099734,,24 horas,935 92 90 84,Sí,Sí,No
CALAHORRA,PEAJE,AP-68; 177,Calahorra,La Rioja,42.29224,-1.970375,,7:00 a 23:00,941 13 30 57,Sí,No,No
CALDAS DE LUNA,PEAJE,AP-66; 89,Sena de Luna,León,42.92863,-5.857188,,24 horas,987 59 77 95,Sí,No,Sí
COMPOSTELA,PEAJE,AP-9; 81,Teo,A Coruña,42.811,-8.586235,Horario de tienda (Combustible/Aseos 24 h),Tienda 7:00-23:00h,981 80 55 44,Sí,No,No
CORTIJO DE ROBLEDO,PEAJE,AP-46; 3+600,Antequera,Málaga,36.91783,-4.439651,,24 horas,952 71 85 29,Sí,No,Sí
EL REALENGO,PEAJE,AP-7; 728,Crevillent,Alicante_Alacant,38.1963,-0.812705,Horario de tienda (Combustible 24 h),L-V 7:00-20:00h ,965 40 03 19,Sí,No,No
EMPORDÁ,PEAJE,AP-7; 35,Garrigàs,Girona,42.17391,2.931003,,24 horas,972 56 00 53,Sí,Sí,No
FRAGA,PEAJE,AP-2; 119,Fraga,Huesca,41.4973,0.396011,,7:00 a 23:00,974 47 00 45,Sí,No,No
GALLUR,PEAJE,AP-68; 254,Gallur,Zaragoza,41.83377,-1.319947,,7:00 a 23:00,976 86 45 25,Sí,No,No
GIRONÉS,PEAJE,"AP-7; 70,5",Riudellots de la Selva,Girona,41.90658,2.77291,,24 horas,972 47 42 28,Sí,Sí,No
IGAI,PEAJE,AP-68; 64,Erriberagoitia/Ribera Alta,Araba_Álava,42.7423,-2.913577,,24 horas,945 35 50 45,Sí,No,No
LA ATALAYA,PEAJE,M-50; 67,Villaviciosa de Odón,Madrid,40.37678,-3.873717,,24 horas,916 32 94 10,Sí,No,No
LA JONQUERA,PEAJE,AP-7; 7,"Jonquera, La",Girona,42.40584,2.873134,,24 horas,972 55 53 11,Sí,Sí,No
LA SELVA,PEAJE,AP-7; 86,Maçanet de la Selva,Girona,41.77372,2.739605,,24 horas,972 85 82 71,Sí,Sí,No
LES GARRIGUES,PEAJE,AP-2; 164,"Borges Blanques, Les",Lleida,41.48861,0.865503,,7:00 a 23:00,973 14 33 58,Sí,No,No
LLEIDA,PEAJE,AP-2; 142,Alfés,Lleida,41.54237,0.63831,,24 horas,973 13 60 24,Sí,No,Sí
LLOBREGAT,PEAJE,"AP-7; 165,5",,Barcelona,41.46669,1.97825,"Rte cerrado Sur, abierto Norte, C-Store abierta, lavabos abiertos.",24 H,937 72 04 28,Sí,Sí,Sí
LOGROÑO,PEAJE,AP-68; 136,Logroño,La Rioja,42.45089,-2.370321,,24 horas,941 23 21 05,Sí,No,Sí
MANILVA,PEAJE,AP-7; 138,Manilva,Málaga,36.33277,-5.266718,,24 horas,952 89 25 27,Sí,No,Sí
MAZARRON,PEAJE,AP-7; 848,Mazarrón,Murcia,37.59364,-1.367468,,24 horas,968 59 12 96,Sí,No,No
MECO,PEAJE,R-2; 36,Meco,Madrid,40.55543,-3.294824,,06:00-22:00,638 52 16 61,Sí,No,No
MÉDOL,PEAJE,AP-7; 237,,Tarragona,41.14086,1.346611,"Rte cerrado, C-Store abierta (incluye catering), lavabos abiertos.",24 H,977 65 00 87,Sí,Sí,No
MIÑO,PEAJE,AP-9; 15F,Miño,A Coruña,43.37379,-8.186887,Horario de tienda (Combustible/Aseos 24 h; Duchas abiertas de 7 a 23h),Tienda 7:00-23:00h,981 19 01 86,Sí,No,Sí
MONEGROS,PEAJE,AP-2; 86,Candasnos,Huesca,41.51821,0.040641,,24 horas,974 46 20 53,Sí,No,No
MONTBLANC,PEAJE,AP-2; 195,Montblanc,Tarragona,41.38774,1.189426,,24 horas,977 86 09 58,Sí,No,No
MONTSENY,PEAJE,AP-7; 117,Llinars del Vallès,Barcelona,41.64739,2.42517,,24 horas,938 41 25 07,Sí,Sí,Sí
O BURGO,PEAJE,AP-9; 6,Culleredo,A Coruña,43.31272,-8.365517,Horario de tienda (Combustible/Aseos 24 h),Tienda 7:00-23:00h,981 66 20 01,Sí,No,No
PENEDÉS,PEAJE,AP-7; 208,"Arboç, L'",Tarragona,41.28904,1.591731,,24 horas,977 67 02 13,Sí,Sí,Sí
PINA DE EBRO,PEAJE,AP-2; 48,Pina de Ebro,Zaragoza,41.52515,-0.396585,,24 horas,976 16 53 05,Sí,No,No
POLVORANCA,PEAJE,R-5; 6,Leganés,Madrid,40.33691,-3.802542,,06:00-22:00,690 12 37 40,Sí,No,No
RIO CASTOR,PEAJE,AP-7; 160,Estepona,Málaga,36.46465,-5.115619,,24 horas,952 11 39 32,Sí,No,Sí
RIOSECO DE TAPIA,PEAJE,AP-66; 126,Rioseco de Tapia,León,42.69094,-5.768999,,24 horas,987 69 83 52,Sí,No,Sí
ROBLEDO DE LA VALDONCINA,PEAJE,AP-71; 6,Valverde de la Virgen,León,42.54124,-5.725263,,24 horas,987 30 33 70,Sí,No,Sí
SALNES,PEAJE,AP-9; 114,Portas,Pontevedra,42.56304,-8.672278,Horario de tienda (Combustible/Aseos 24 h),Tienda 7:00-23:00h,986 68 64 44,Sí,No,No
SAN ASENSIO,PEAJE,AP-68; 100,San Asensio,La Rioja,42.51237,-2.753594,,7:00 a 23:00,941 45 73 31,Sí,No,No
SAN SIMON,PEAJE,AP-9; 144,Vilaboa,Pontevedra,42.31765,-8.662084,Horario de tienda (Combustible/Aseos 24 h),Tienda 7:00-23:00h,986 67 27 19,Sí,No,No
SESEÑA,PEAJE,R-4; 20,Seseña,Toledo,40.12814,-3.678038,Duchas solo en sentido Andalucía,24 horas,918 94 95 10 / 671 38 26 70,Sí,No,Sí
SILLEDA,PEAJE,AP-53; 28,,Pontevedra,42.71708,-8.301333,"Acceso a los baños independiente del bar-cafeteria. El bar-cafeteria es atendido en modo catering (bocadillos preparados) y por la misma persona que atiende la gasolinera. Los productos de alimentación disponibles en el pequeño establecimiento son simplemente (igual que ocurre en el resto del año) patatas fritas, latas de bebidas, bocadillos preparados y productos similares. El bar-cafetería permanece abierta desde las 7:00h-23:00h. El resto del tiempo (por la noche) solo permanece abierta la gasolinera en modo desatendido. Este horario de atención al público es el que se venía haciendo con anterioridad al estado de alarma.",7:00 a 23:00,986 68 18 55,Sí,No,No
SOBRADIEL,PEAJE,AP-68; 283,Sobradiel,Zaragoza,41.73113,-1.030683,,24 horas,976 13 90 80,Sí,No,No
TAMBORA,PEAJE,R-3; 18,Loeches,Madrid,40.34609,-3.449979,,07:00-22:00,680 75 13 66,Sí,No,No
TUDELA,PEAJE,AP-68; 223,Fontellas,Navarra,42.01307,-1.601264,,24 horas,948 41 21 59,Sí,No,Sí
VALDEMINGOMEZ,PEAJE,M-50; 34,Madrid,Madrid,40.34512,-3.588727,,24 horas,917 65 32 83,Sí,No,No
VALLÉS,PEAJE,AP-7; 144,Santa Perpètua de Mogoda,Barcelona,41.52646,2.16713,,7:00 a 23:00  ,935 74 05 59,Sí,Sí,No
VILLACASTIN,PEAJE,AP-6; 80,Villacastín,Segovia,40.77147,-4.397634,,24 horas,921 19 81 80,Sí,No,No
VILLALBA,PEAJE,AP-6; 43,San Lorenzo de El Escorial,Madrid,40.64307,-4.039365,Horario tienda (restaurante de 8 a 23h),24 horas,918 49 06 68,Sí,No,No
E.S. PEDROSA CENTRE SERVEIS,PETRONIEVES,"Pol. Ind. Pedrosa, Parcela 20",,Barcelona,41.49873,1.824476,"Tienda conveniencia, parking a escasos metros de la estación, microondas",24h atendido,(+34)937728536,Sí,Sí,No
E.S. PETRONIEVES Collbató,PETRONIEVES,"Ctra. Nacional II, Km 573 ",,Barcelona,41.56858,1.803177,"Tienda conveniencia, parking, en el caso de bocadillos/bebidas calientes: sólo café",L-V 8-14h resto autoservicio,(+34)937779848,Sí,No,No
E.S. PETRONIEVES Irún Zaisa,PETRONIEVES,"Pol. Ind. Zaisa II, Comete de Sarea, 7",,Gipuzkoa,43.33699,-1.753329,"vending, parking, en el caso de bocadillos/bebidas calientes: sólo café","24h atendido, cerrado de Sab 22h a Dom 14h",(+34)943623237,Sí,No,Sí
E.S. PETRONIEVES Nanclares de Oca,PETRONIEVES,"C/Tratado de Maastricht, 1A",,Araba_Álava,42.82574,-2.776861,"Tienda conveniencia, Parking, microondas, en el caso de bocadillos/bebidas calientes: sólo café","L-V 6-22h, sáb 6-18h, Dom 13-00h resto autoservicio",(+34)945377032,Sí,Sí,Sí
E.S. PETRONIEVES Olesa Montserrat Oeste,PETRONIEVES,"Ctra. Martorell a Manresa, Pol. Ind. La Flora Pou, Parcela 6",,Barcelona,41.54509,1.880357,"Tienda conveniencia, en el caso de bocadillos/bebidas calientes: sólo café",L-D 9-15h resto autoservicio,(+34)937781317,Sí,No,No
E.S. PETRONIEVES Ordal,PETRONIEVES,"Ctra. N340 Km. 1229,7",,Barcelona,41.39034,1.883993,"Supermercado, parking, lavado manual camiones, restaurante gestión externa cerrado",24h atendido,(+34)936848346,No,Sí,No
E.S. PETRONIEVES Parets del Vallés,PETRONIEVES,"Pol. Ind. Llevant Park C/tena, s/n",,Barcelona,41.57201,2.238164,"vending, parking, restaurante gestión externa cerrado",24h atendido,(+34)900500111,No,No,Sí
E.S. PETRONIEVES Sesrovires,PETRONIEVES,"C/Isaac Peral, parcela 9",,Barcelona,41.50122,1.881935,"Tienda conveniencia, lavado manual camiones, microondas, restaurante/cafetería gestión propia cerrado",24h atendido,(+34)937714402,Sí,Sí,No
E.S. PETRONIEVES Zona Franca,PETRONIEVES,"C/Letra B de la Zona Franca (sector B), 13 ",,Barcelona,41.33176,2.133148,"Tienda conveniencia, sala de chóferes con microondas, en el caso de bocadillos/bebidas calientes: sólo café",24h atendido,(+34)685158392,Sí,Sí,Sí
Estación de Servicio bonÀrea Badalona,PETRONIEVES,"C/Arquimides, 16",,Barcelona,41.43033,2.225091,,Variable según necesidad,900899089(Gratuito),Sí,No,No
Estación de Servicio bonÀrea Binefar,PETRONIEVES,"Ctra. N-240 km,133",,Huesca,41.85521,0.2805604,,Variable según necesidad,900899099(gratuito),Sí,Sí,No
Estación de Servicio bonÀrea Borges Blanques,PETRONIEVES,"Ctra. N-240 km,71",,Lleida,41.5266,0.8462372,,Variable según necesidad,900899089(Gratuito),Sí,Sí,Sí
Estación de Servicio bonÀrea Guissona,PETRONIEVES,"Carrer dels Llacs, s/n",,Lleida,41.78243,1.27986,,Variable según necesidad,900899089(Gratuito),No,Sí,No
Estación de Servicio bonÀrea Jorba,PETRONIEVES,"Bajo el barrio de la cruz de sant pere, A2",,Barcelona,41.60222,1.538937,,Variable según necesidad,900899089(Gratuito),No,Sí,No
Estación de Servicio bonÀrea Odena,PETRONIEVES,"Pol.Ind ``Les Gavarres´´ Av/Madrid, 38-44",,Barcelona,41.57754,1.654851,,Variable según necesidad,900899089(Gratuito),Sí,Sí,No
Estación de Servicio bonÀrea Reus,PETRONIEVES,"Crta. De Reus a Riudoms, km 2,2",,Tarragona,41.14557,1.08281,,Variable según necesidad,900899089(Gratuito),No,Sí,No
Estación de Servicio bonÀrea Sant Cugat Sesgarrigues,PETRONIEVES,N-340 P.K. 1215,,Barcelona,41.35578,1.740499,,Variable según necesidad,900899089(Gratuito),No,Sí,No
Estación de Servicio bonÀrea Torrefarrera,PETRONIEVES,"C/Industria, s/n",,Lleida,41.66413,0.6023815,,Variable según necesidad,900899089(Gratuito),No,Sí,No
Estación de Servicio bonÀrea Torrelles,PETRONIEVES,"Ctra, BV-2005 km. 4,7",,Barcelona,41.36243,1.976104,,Variable según necesidad,900899089(Gratuito),Sí,Sí,No
Estación de Servicio bonÀrea Valls,PETRONIEVES,"Ctra del Pla, 180",,Tarragona,41.29598,1.239277,,Variable según necesidad,900899089(Gratuito),Sí,Sí,No
Estación de Servicio bonÀrea Vic,PETRONIEVES,C/Mataro(pol.ind. Sot de Pradals,,Barcelona,41.93959,2.246846,,Variable según necesidad,900899089(Gratuito),Sí,Sí,No
Estación de Servicio bonÀrea Viladecavalls,PETRONIEVES,"Pol.Ind. Can Trias, C/Ramon Llull, 13",,Barcelona,41.56297,1.977124,,Variable según necesidad,900899089(Gratuito),Sí,No,No
Estación de Servicio bonÀrea Vila-real,PETRONIEVES,"Av/Castellon, 139",,Castellón_Castelló,39.94975,-0.0871375,,Variable según necesidad,900899099(gratuito),Sí,Sí,No
Estación de Servicio bonÀrea Zaragoza(Plaza),PETRONIEVES,"A2, km.311, delante del centro comercial plaza imperial",,Zaragoza,41.63269,-0.9859264,,Variable según necesidad,900899099(gratuito),Sí,Sí,No
E.S. BIGASTRO JOSE ANTONIO LECHUGA,Repsol,CL PROGRESO 19,,Alicante_Alacant,38.05918,-0.8852527,,ABIERTO 24h. ,966778670,No,No,Sí
U.S. 6731 LA TORRE II,Repsol,"CR N-340   P.K. 1011,60 D",,Castellón_Castelló,40.22184,0.2012045,, De Lunes a Domingo de 06:00 a 22:00 horas,670352982,Sí,No,No
A. DE S. CELEIRO S.L,Repsol,"CR LU-862  P.K. 87,70 I",,Lugo,43.67559,-7.585521,, Lunes de 08:00 a 21:00 horas,982551888,Sí,No,Sí
A.DE SERVIC. EL TORO,Repsol,"CR A-4  P.K. 28,23 D",,Madrid,40.17719,-3.66944,,ABIERTO 24h. ,918083030,No,No,Sí
"A.NUEZ E HIJOS, S.L.",Repsol,"CR N-211   P.K. 165,00 D",,Teruel,40.83137,-0.798219,, De Lunes a Viernes de 09:00 a 20:00 horas; Sábado de 09:00 a 14:00 horas,978750288,Sí,No,No
A.S. EL ROSARIO,Repsol,"AT  A-92M  P.K. 16,70 D",,Málaga,37.02252,-4.391351,,ABIERTO 24h. ,952742681,No,No,Sí
A.S. LA PEÑA,Repsol,"CR ENLACE A-92 CR A-354 P.K. 159,70 D",,Málaga,37.08229,-4.453888,,ABIERTO 24h. ,608757351,Sí,No,Sí
ALGETE FUEL S.L.,Repsol,"CR M-106  P.K. 3,70 D",,Madrid,40.58764,-3.545365,,ABIERTO 24h. ,916282976,Sí,No,No
"ALMELA YEPES, S.L.",Repsol,"CR MU-553  P.K. 2,50 I",,Murcia,38.17795,-1.352725,, De Lunes a Sábado de 07:00 a 20:00 horas,609045872,Sí,No,No
"ALMETIR, S.L.",Repsol,"CR N-340  P.K. 471,00 D",,Almería,36.86842,-2.230034,,ABIERTO 24h. ,950207000,No,No,Sí
AREA DE SERVICIO LINDABARCAS,Repsol,"CR N-632 P.K.134,20 D",,Asturias,43.55806,-6.283594,,ABIERTO 24h. ,609978878,Sí,No,Sí
AREA DE SERVICIO MI#O,Repsol,"AU AP-9  P.K. 15,50 I",,A Coruña,43.37389,-8.187354,,ABIERTO 24h. ,981190186,No,No,Sí
AREA DE SERVICIO VIASTUR-PRUVIA,Repsol,"AU AS-II (OVIEDA-GIJON) P.K. 9,80 D",,Asturias,43.44479,-5.799332,,ABIERTO 24h. ,985772355,No,No,Sí
"AREA DE VILASANA, SLU",REPSOL,"AUTOVIA N.II PK 486,25",Vila-sana,Lleida,41.6429,0.8947,APARCAMIENTO CAMIONES Y COCHES VIGILADO POR CAMARAS CIRCUITO CERRADO,24 HORAS,973712336,Sí,Sí,Sí
AREA EUROTRAK,Repsol,"CR  A-2  P.K. 513,80 I",,Lleida,41.66645,1.210961,,ABIERTO 24h. ,973532323,No,No,Sí
AREA LA TORRETA S.L,Repsol,"CR A-3  P.K. 225,00 I",,Cuenca,39.51948,-1.752575,,ABIERTO 24h. ,962187832,Sí,Sí,No
"AREA SERVICIO CALAHORRA, S.A.",Repsol,CR N-232   P.K. 353.70 A,,La Rioja,42.26331,-1.917541,,ABIERTO 24h. ,941146346,Sí,No,No
AREA SERVICIO CANUHE,Repsol,"CR  A-23  P.K. 332,80 D",,Huesca,41.98712,-0.6678269,,ABIERTO 24h. ,976697077,Sí,Sí,Sí
"AREA SERVICIO LOS NOGALES, S.L.",Repsol,CR  VP-6701 VILLAESTER-PEDROSA DEL REY,,Valladolid,41.51823,-5.21368,,De Lunes a Domingo de 07:00 a 23:00 horas,983784125,No,No,Sí
"AREA SERVICIO QUINTANS, S.L.",Repsol,"CR  A-52  P.K. 272,00 D",,Pontevedra,42.20711,-8.267609,,ABIERTO 24h. ,986652390,No,No,Sí
"ARTEAGA PASCUAL,S.L.",Repsol,"CR C-525   P.K. 94,00 D",,Salamanca,41.23631,-6.382774,,CERRADO NOCHES TODO EL AÑO,923141465,Sí,No,No
ASG BENEIXIDA,Repsol,CR N-340 PK 855 I,,Valencia_València,39.05935,-0.5445338,,ABIERTO 24h. ,607693042,No,No,Sí
AUSELLE I FILLS S.L.,Repsol,"CR C-63   P.K. 41,00 I",,Girona,41.96684,2.625177,, De Lunes a Sábado de 06:00 a 22:00 horas; Domingo de 06:00 a 14:00 horas,972421659,Sí,No,No
"BIDE BARRI, S.L.",Repsol,"CL AVENIDA IPARRAGUIRRE, 108",,Bizkaia,43.3194,-2.975742,,ABIERTO 24h. ,944807190,Sí,No,No
CAMPSARED ALHAMA,Repsol,CR A-7 PK 606 M.D.,,Murcia,37.79483,-1.428738,,ABIERTO 24h. ,968453844,Sí,Sí,No
CAMPSARED TOTANA,Repsol,CR A-7 PK 606 M.I.,,Murcia,37.79466,-1.427724,,ABIERTO 24h. ,968433007,Sí,Sí,No
CAÑO DORADO SL,Repsol,"CR N-601   P.K. 167,70 D",,Valladolid,41.45264,-4.666846,, De Lunes a Domingo de 06:00 a 22:00 horas,983607605,Sí,Sí,No
"CARB.NTRA.SRA.PEÑARROYA,S.L.",Repsol,"CR CR-141  P.K. 3,71 D",,Ciudad Real,38.98701,-3.380303,,ABIERTO 24h. ,926636724,Sí,No,Sí
"CARBURANTES DE MEDINA, S.L.",Repsol,"CR N-6 P.K. 147,20 I",,Valladolid,41.22066,-4.848219,, De Lunes a Viernes de 00:00 a 24:00 horas; Sábado de 00:00 a 15:00 horas; Domingo de 07:00 a 24:00 horas,983825101,No,No,Sí
"CARBURANTES DE TEIXEIRO, S.L.",Repsol,"CR N-634   P.K. 662,00 D",,A Coruña,43.15768,-8.003745,, De Lunes a Sábado de 07:00 a 23:00 horas; Domingo de 09:00 a 23:00 horas,981789449,Sí,No,No
CARBURANTS I SERVEIS,Repsol,"CR N-260   P.K. 17,40 I",,Girona,42.36544,3.150736,, De Lunes a Domingo de 07:00 a 21:00 horas,972380141,Sí,No,No
CDAD.TNPTE.PONIENTE,Repsol,"CR N-340  P.K. 420,70 I",,Almería,36.79632,-2.686576,,ABIERTO 24h. ,950603311,Sí,No,Sí
"COMAUSE, S.A.",Repsol,"CL CARRETERA DE VIC, 225 A",,Barcelona,41.73416,1.839904,,ABIERTO 24h. ,938730129,Sí,No,No
COMPLEJO S.CRISTOBAL,Repsol,"CL BENIGNO RIVERA, S.N.",,Lugo,43.04465,-7.569912,, De Lunes a Domingo de 07:00 a 23:00 horas,982209498,Sí,Sí,No
CONTRERAS UNICA SL,Repsol,"CR A-92  P.K. 263,00 D",,Granada,37.23388,-3.497188,, Festivo de 07:00 a 23:00 horas,958546301,Sí,No,Sí
CRED A VEIGA,Repsol,"CL AVENIDA DE ASTURIAS, 67",,Asturias,43.47091,-7.051598,, De Lunes a Domingo de 07:00 a 23:00 horas,985634210,Sí,Sí,No
CRED A. DE LA MIEL M.D.,Repsol,"AU AP-7  P.K. 224,00 D",,Málaga,36.61217,-4.527233,,ABIERTO 24h. ,952118358,Sí,Sí,Sí
CRED A. DE LA MIEL M.I.,Repsol,"AU AP-7  P.K. 224,00 I",,Málaga,36.61318,-4.528606,,ABIERTO 24h. ,952118366,Sí,Sí,Sí
CRED ABANILLA,Repsol,"CR  A-7 , P.K. 750 M.D.",,Murcia,38.10259,-1.035301,,ABIERTO 24h. ,968860685,Sí,Sí,No
CRED ALBACETE,Repsol,"CR A-31, P.K. 69,00 I",,Albacete,39.03269,-1.891436,, De Lunes a Domingo de 06:00 a 23:00 horas,682348925,Sí,Sí,No
CRED ALBERIQUE M.D.,Repsol,"CR  A-7  P.K. 659,80 D",,Valencia_València,39.15374,-0.5277309,,ABIERTO 24h. ,962441775,Sí,Sí,No
CRED ALBERIQUE M.I.,Repsol,"CR  A-7  P.K. 659,80 I",,Valencia_València,39.1548,-0.529426,,ABIERTO 24h. ,962441767,Sí,Sí,No
CRED ALBERTO AGUILERA,Repsol,"CL ALBERTO AGUILERA, 9",,Madrid,40.42955,-3.708325,,ABIERTO 24h. ,914473916,Sí,Sí,No
CRED ALBOLOTE,Repsol,C/ LOJA SN,,Granada,37.23299,-3.649455,, De Lunes a Viernes de 06:00 a 22:00 horas; De Sábado a Domingo de 06:00 a 22:00 horas,958466544,Sí,Sí,No
CRED ALBORAYA,Repsol,"CL PARTIDA DE VERA, 98",,Valencia_València,39.48519,-0.3296096,, De Lunes a Domingo de 06:00 a 22:00 horas,963565039,Sí,Sí,No
CRED ALCOBENDAS,Repsol,CL AVENIDA DE ESPAÑA S.N.,,Madrid,40.54598,-3.634572,,ABIERTO 24h. ,916538446,Sí,Sí,No
CRED ALGARROBO,Repsol,"AU A-7  P.K. 277,80 I",,Málaga,36.76009,-4.049841,, De Lunes a Domingo de 07:00 a 23:00 horas,952552853,Sí,Sí,No
CRED ALGARROBO COSTA,Repsol,"AU A-7 P.K. 277,89 D",,Málaga,36.75901,-4.051241,, De Lunes a Domingo de 06:00 a 23:00 horas,952551349,Sí,Sí,No
CRED ALMENARA,Repsol,"A-7 PK. 292,7 (MD)",,Castellón_Castelló,39.74261,-0.2368854,,ABIERTO 24h. ,962612867,Sí,Sí,No
CRED ALMERÍA,Repsol,CL PADRE MENDEZ S.N.,,Almería,36.83932,-2.446522,, De Lunes a Domingo de 07:00 a 23:00 horas,950222184,Sí,Sí,No
CRED ALOVERA,Repsol,"CR A-2     P.K. 45,60 D",,Guadalajara,40.57965,-3.235806,, De Lunes a Viernes de 06:00 a 22:00 horas. Sabado y Domingo de 7:00 a 21:00 horas,949270187,Sí,Sí,Sí
CRED ALPICAT,Repsol,CR A-22 rotonda con A-2 M.I.,,Lleida,41.648,0.5591031,, De Lunes a Domingo de 06:00 a 22:00 horas,973243161,Sí,Sí,No
CRED ALT MARBELLA I,Repsol,"AU AP-7  P.K. 187,00 I",,Málaga,36.51936,-4.831043,,ABIERTO 24h. ,952113921,Sí,Sí,Sí
CRED ALT MARBELLA II,Repsol,"AU AP-7  P.K. 187,00 D",,Málaga,36.51761,-4.829807,,ABIERTO 24h. ,952113924,Sí,Sí,Sí
CRED ALTUBE M.D.,Repsol,"AU AP-68    P.K. 36,00 D",,Araba_Álava,42.96629,-2.873699,, De Lunes a Domingo de 06:00 a 23:00 horas,945462571,Sí,Sí,No
CRED AMEIXEIRA NORTE,Repsol,"AU AP-9     P.K. 39,50 I",,A Coruña,43.09961,-8.349088,, De Lunes a Domingo de 07:00 a 23:00 horas,981682604,Sí,Sí,No
CRED AMEIXEIRA SUR,Repsol,"AU AP-9     P.K. 39,50 D",,A Coruña,43.09784,-8.351632,,ABIERTO 24h. ,981680783,Sí,Sí,No
CRED AMOREBIETA,Repsol,"CR N-634   P.K. 93,00 D",,Bizkaia,43.22893,-2.753255,, De Lunes a Domingo de 06:00 a 22:00 horas,946731654,Sí,Sí,No
CRED AMOREBIETA DCHA,Repsol,"AU  A-8  P.K. 99,70 D",,Bizkaia,43.23146,-2.756554,,ABIERTO 24h. ,946730716,Sí,Sí,No
CRED AMOREBIETA IZQ,Repsol,"AU  A-8  P.K. 100,00 I",,Bizkaia,43.23017,-2.753753,,ABIERTO 24h. ,946308739,Sí,Sí,No
CRED APEDADERO,Repsol,"CR  A-3  P.K. 306,50 I",,Valencia_València,39.45601,-0.9045186,,ABIERTO 24h. ,962138045,Sí,Sí,No
CRED ARANDA DE DUERO,Repsol,"CL AVENIDA CASTILLA, 64",,Burgos,41.66268,-3.691854,,ABIERTO 24h. ,947501000,Sí,Sí,No
CRED ARCHIDUQUE CARLOS,Repsol,"CL ARCHIDUQUE, 70",,Valencia_València,39.46075,-0.4000127,, De Lunes a Domingo de 06:00 a 22:00 horas,963770349,Sí,Sí,No
CRED AREA 280 MADRID,Repsol,"CR A-2   P.K. 281,60 I",,Zaragoza,41.52435,-1.273469,,ABIERTO 24h. ,976813242,Sí,Sí,Sí
CRED AREA 280 ZARAGOZA,Repsol,"CR A-2  P.K. 280,10 D",,Zaragoza,41.5165,-1.288111,,ABIERTO 24h. ,976813599,Sí,Sí,Sí
CRED AREA DE SERVICIO CARTAYA PLAYA,Repsol,"CR A-49 P.K. 102,00 I",,Huelva,37.32281,-7.116448,,ABIERTO 24h. ,959504438,Sí,Sí,Sí
CRED AREA DE SERVICIO CARTAYA SIERR,Repsol,"CR A-49 P.K. 102,00 D",,Huelva,37.32368,-7.114012,,ABIERTO 24h. ,959504171,Sí,Sí,Sí
CRED AREA Sº LA ATALAYA M.D.,Repsol,"CR M-50 P.K. 66,50 D",,Madrid,40.3761,-3.871929,,ABIERTO 24h. ,916329406,Sí,Sí,No
CRED AREA Sº LA ATALAYA M.I.,Repsol,"CR M-50 P.K. 66,50 I",,Madrid,40.37687,-3.875029,,ABIERTO 24h. ,916329410,Sí,Sí,No
CRED ARINAGA,Repsol,"CANAL DCHA. POLÍGONO DE ARINAGA, S/N",,Las Palmas,27.86222,-15.41768,, De Lunes a Viernes de 05:00 a 21:00 horas; Sábado de 07:00 a 13:00 horas,928188885,No,Sí,No
CRED ARRASATE MONDRAGON,Repsol,"CR  AP-1 P.K. 129,00 D",,Gipuzkoa,43.06318,-2.47614,,ABIERTO 24h. ,943799990,Sí,Sí,No
CRED ARRIGORRIAGA MD,Repsol,"AU A-68    P.K. 6,00 D",,Bizkaia,43.19035,-2.897381,,ABIERTO 24h. ,946710398,Sí,Sí,No
CRED ARRIGORRIAGA MI,Repsol,"AU A-68    P.K. 6,00 I",,Bizkaia,43.18982,-2.894425,,ABIERTO 24h. ,946713120,Sí,Sí,No
CRED ARTEBAKARRA,Repsol,"CR BI-631  P.K. 10,00 D",,Bizkaia,43.31865,-2.876611,, De Lunes a Domingo de 06:00 a 22:00 horas,944540360,Sí,Sí,No
CRED ARTICA,Repsol,"CL CARRETERA DE ARTICA,S.N.",,Navarra,42.83547,-1.653157,, De Lunes a Domingo de 06:00 a 23:00 horas,948128854,Sí,Sí,No
CRED ARTURO SORIA,Repsol,"CL ARTURO SORIA, 175",,Madrid,40.45733,-3.658272,,ABIERTO 24h. ,914154023,Sí,Sí,No
CRED ARTXANDA,Repsol,"CL AVENIDA ALTO DE ENEKURI, 5",,Bizkaia,43.28661,-2.958451,,L a D de 7:00 a 23:00,944751872,Sí,Sí,No
CRED ASTORGA,Repsol,"CR N-6     P.K. 325,00 D",,León,42.4599,-6.064089,,ABIERTO 24h. ,987616365,Sí,Sí,No
CRED ASUA,Repsol,"CL ASUA-LOIU, 57",,Bizkaia,43.30759,-2.944951,, De Lunes a Viernes de 07:00 a 22:00 horas; De Sábado a Domingo de 08:00 a 22:00 horas,944710054,Sí,Sí,No
CRED AUTOVÍA LOS CRISTIANOS,Repsol,"AU  TF-1  P.K. 70,50 I",,Santa Cruz de Tenerife,28.05903,-16.69114,,ABIERTO 24h. ,0,Sí,Sí,No
CRED AVDA ALEMANIA,Repsol,"CL AV.ALEMANIA ,S/N",,Cáceres,39.46207,-6.383595,, De Lunes a Domingo de 06:00 a 23:00 horas,927292363,Sí,Sí,No
CRED AVDA ANDALUCIA DCHO,Repsol,"CR A-4  P.K.  6,70 D",,Madrid,40.36643,-3.694529,,ABIERTO 24h. ,913173756,Sí,Sí,No
CRED AVDA ANDALUCIA IZQ,Repsol,"CR A-4  P.K.  6,70 I",,Madrid,40.36705,-3.693855,,ABIERTO 24h. ,917923068,Sí,Sí,No
CRED AVDA. DEL MEDITERRÁNEO,Repsol,"AV. MEDITERRÁNEO, S/N ESQ. C/ ALPUJARRA",,Almería,36.83502,-2.447346,, De Lunes a Domingo de 07:00 a 23:00 horas,950152089,Sí,Sí,No
CRED AVDA. MONFORTE DE LEMOS,Repsol,"CL MONFORTE DE LEMOS, 7",,Madrid,40.47757,-3.691183,, De Lunes a Domingo de 07:00 a 23:00 horas,913143989,Sí,Sí,No
CRED AVENIDA CANARIAS,Repsol,AVDA CANARIAS 360,,Las Palmas,27.84411,-15.44582,, De Lunes a Viernes de 06:00 a 22:00 horas; Sábado de 07:00 a 15:00 horas,928155517,Sí,Sí,No
CRED AVENIDAS,Repsol,"CR PM-402  P.K. 1,60 D",,Illes Balears,39.56695,3.220335,, De Lunes a Domingo de 06:00 a 22:00 horas,971551031,Sí,Sí,No
CRED AZUQUECA,Repsol,"CR N-320  P.K. 289,70 D",,Guadalajara,40.57511,-3.260328,,ABIERTO 24h. ,949265042,Sí,Sí,No
CRED BADALONA II,Repsol,"CL AVENIDA PRESIDENT COMPANYS, 280",,Barcelona,41.45978,2.249243,,ABIERTO 24h. ,933953953,Sí,Sí,No
CRED BAILÉN,Repsol,"CR N-323A     P.K. 0,00 D",,Jaén,38.08854,-3.778877,,ABIERTO 24h. ,953672404,Sí,Sí,No
CRED BARAJAS II,Repsol,"CR N-2     P.K. 12,60 D",,Madrid,40.44914,-3.565418,, De Lunes a Domingo de 06:00 a 23:00 horas,917474755,Sí,Sí,No
CRED BARAJAS INDUSTRIAL,Repsol,"AV HISPANIDAD, S.N. (AEROPUERTO BARAJAS)",,Madrid,40.46408,-3.575578,, De Lunes a Domingo de 06:30 a 22:30 horas,913056273,Sí,Sí,No
CRED BARAJAS TIERRA T-2,Repsol,TERMINAL 2 DEL AEROP. BARAJAS,,Madrid,40.46659,-3.572719,,ABIERTO 24h. ,913058152,Sí,Sí,No
CRED BEJAR I,Repsol,"CL CARRETERA DE SALAMANCA, 3",,Salamanca,40.3842,-5.762691,,ABIERTO 24h. ,923402465,Sí,Sí,No
CRED BELINCHÓN,Repsol,"CR N-3  P.K. 71,9 D",,Cuenca,40.06452,-3.08275,, De Lunes a Domingo de 06:00 a 22:00 horas,969323032,Sí,Sí,Sí
CRED BELLPUIG,Repsol,"CR  A-2     P.K. 495,50 I",,Lleida,41.63231,1.007161,, De Lunes a Domingo de 06:00 a 22:00 horas,973322227,Sí,Sí,No
CRED BENAVENTE,Repsol,"CR N-6     P.K. 260,50 I",,Zamora,41.9922,-5.647201,,ABIERTO 24h. ,980630556,Sí,Sí,Sí
CRED BERA MD,Repsol,CR N-121A  P.K. 77.39 D,,Navarra,43.27813,-1.708579,,L a D de 7:00 a 23:00,948630361,Sí,Sí,Sí
CRED BERA MI,Repsol,CR N-121A  P.K. 77.39 I,,Navarra,43.27828,-1.710036,, De Lunes a Domingo de 06:00 a 22:00 horas,948630075,Sí,Sí,Sí
CRED BERANGO,Repsol,Polígono Landaida Goikoa Sector 3 Parcelas P1 y P2,,Bizkaia,43.37255,-2.996574,, De Lunes a Domingo de 07:00 a 22:30 horas,946181940,Sí,Sí,No
CRED BERGARA,Repsol,"CL AMILLAGA, 17",,Gipuzkoa,43.12586,-2.423991,, De Lunes a Domingo de 06:00 a 22:00 horas,943761160,Sí,Sí,No
CRED BERMEO,Repsol,CR BI-631  P.K. 32.00 I,,Bizkaia,43.41991,-2.736274,, De Lunes a Domingo de 06:00 a 22:00 horas,946186517,Sí,Sí,No
CRED BIDASOA IZQ,Repsol,"AVENIDA DE IPARRALDE, 42",,Gipuzkoa,43.34681,-1.787505,, De Lunes a Domingo de 06:00 a 22:00 horas,943633849,Sí,Sí,No
CRED BLANCA PALOMA,Repsol,CR MA-426  P.K. 1 D,,Málaga,36.53828,-4.645643,, De Lunes a Domingo de 07:00 a 23:00 horas,952585057,Sí,Sí,No
CRED BOUZAS,Repsol,CL EXPLANADA DE BOUZAS (2º GLORIETA),,Pontevedra,42.22836,-8.753458,, De Lunes a Domingo de 06:30 a 22:30 horas,986240405,Sí,Sí,Sí
CRED BUENAVISTA,Repsol,"CR N-634   P.K. 115,00 D",,Bizkaia,43.26504,-2.96105,, De Lunes a Viernes de 06:30 a 22:30 horas; De Sábado a Domingo de 07:30 a 22:30 horas,944416448,Sí,Sí,No
CRED C.T.M.,Repsol,"CR M-301   P.K. 3,50 I",,Madrid,40.36631,-3.655864,,ABIERTO 24h. ,915076066,Sí,Sí,No
CRED CABO DE PALOS,Repsol,"CR MU-312  P.K. 14,90 D",,Murcia,37.62793,-0.7088855,, De Lunes a Viernes de 07:00 a 20:00 horas; De Sábado a Domingo de 08:00 a 14:00 horas,968563963,Sí,Sí,No
CRED CABRERA,Repsol,"CL RIERA ARGENTOMA, 1",,Barcelona,41.53099,2.420244,,ABIERTO 24h. ,937502016,Sí,Sí,No
CRED CABRERA II,Repsol,"CR  N-2  P.K. 643,00 D",,Barcelona,41.5149,2.413043,, De Lunes a Domingo de 07:00 a 23:00 horas,937592266,Sí,Sí,No
CRED CÁDIZ-VALENCIA,Repsol,"CL CADIZ, 98 - ESQ. A PERIS Y VALERO",,Valencia_València,39.45891,-0.371725,, De Lunes a Domingo de 06:00 a 20:00 horas,963331077,Sí,Sí,No
CRED CALAFELL,Repsol,"CR C-246   P.K. 56,00 I",,Tarragona,41.19181,1.596111,, De Lunes a Domingo de 06:00 a 22:00 horas,977162225,Sí,Sí,No
CRED CALAHORRA M.D.,Repsol,"AU AP-68    P.K. 176,90 D",,La Rioja,42.29187,-1.971266,, De Lunes a Domingo de 07:00 a 23:00 horas,941133057,Sí,Sí,No
CRED CALAHORRA M.I.,Repsol,"AU AP-68    P.K. 176,90 I",,La Rioja,42.29264,-1.969542,, De Lunes a Domingo de 07:00 a 23:00 horas,941133007,Sí,Sí,No
CRED CALDAS DE LUNA,Repsol,"AU AP-66    P.K. 89,00 I",,León,42.92899,-5.856571,,ABIERTO 24h. ,987597795,Sí,Sí,Sí
CRED CALDES,Repsol,"CR C-59   P.K. 16,59 I",,Barcelona,41.65445,2.161386,, De Lunes a Domingo de 06:00 a 22:00 horas,938651775,Sí,Sí,No
CRED CALLDETENES,Repsol,"CR N-141D  P.K. 3,32 I",,Barcelona,41.92908,2.298818,, De Lunes a Domingo de 06:00 a 22:00 horas,938862736,Sí,Sí,No
CRED CALLE LEGALITAT,Repsol,"CL LEGALIDAD, 59",,Barcelona,41.40874,2.161665,, De Lunes a Domingo de 06:45 a 22:45 horas,952312444,Sí,Sí,No
CRED CALVIA,Repsol,"CR C-719   P.K. 7,80 I (URB. BENDINAT)",,Illes Balears,39.54303,2.591913,, De Lunes a Domingo de 06:00 a 22:00 horas,971402726,Sí,Sí,No
CRED CAMAS,Repsol,CR SE-610  P.K. 0.90  D,,Sevilla,37.38147,-6.026602,, De Lunes a Domingo de 06:00 a 22:00 horas,954391235,Sí,Sí,No
CRED CAMPO REAL,Repsol,"CR M-209   P.K. 4,00 I",,Madrid,40.33128,-3.403472,, De Lunes a Domingo de 06:00 a 23:00 horas,918733706,Sí,Sí,No
CRED CAMPOLIVAR,Repsol,CL CRTA.VIEJA DE BURJASOT-CENTRO C. KINE,,Valencia_València,39.53148,-0.4422694,, De Lunes a Domingo de 06:00 a 22:00 horas,963638955,Sí,Sí,No
CRED CAN PASTILLA,Repsol,"CL CAMINO CA'N PASTILLA, 37",,Illes Balears,39.54785,2.703173,," De Lunes a viernes de 06:00 a 20:00 horas; Sabado, Domingo y Festivo  de 08:00 a 16:00 horas",971261047,Sí,Sí,No
CRED CANOVELLES,Repsol,"CL INDUSTRIA, 104",,Barcelona,41.62596,2.283172,, De Lunes a Domingo de 06:00 a 22:00 horas,938402500,Sí,Sí,No
CRED CAPELLADES,Repsol,CR C-244   P.K. 8.30  D,,Barcelona,41.53687,1.679606,, De Lunes a Domingo de 06:00 a 22:00 horas,938013802,Sí,Sí,No
CRED CARBALLO,Repsol,VAZQUEZ DE PARGA S/N,,A Coruña,43.21328,-8.693531,, De Lunes a Domingo de 07:00 a 23:00 horas,981701300,Sí,Sí,No
CRED CARDEDEU,Repsol,"CR C-251   P.K. 5,50 I",,Barcelona,41.63514,2.339705,, De Lunes a Domingo de 06:00 a 24:00 horas,938711783,Sí,Sí,No
CRED CAROLINAS,Repsol,"CL AVENIDA DE JIJONA, 88",,Alicante_Alacant,38.35843,-0.4840166,, De Lunes a Sábado de 06:30 a 22:30 horas; Domingo de 07:00 a 22:30 horas,965243334,Sí,Sí,No
CRED CARRER DE U.,Repsol,"CL URGEL, 11",,Lleida,41.79315,0.8109646,, De Lunes a Domingo de 06:00 a 22:00 horas,973445191,Sí,Sí,No
CRED CASAB.-ARAGÓN,Repsol,"CR  A-2     P.K. 333,80 D",,Zaragoza,41.64069,-0.7567831,,ABIERTO 24h. ,976107207,Sí,Sí,Sí
CRED CASABLANCA NORTE,Repsol,"CR  A-2     P.K. 333,80 I",,Zaragoza,41.64069,-0.754663,,ABIERTO 24h. ,976455570,Sí,Sí,No
CRED CASTELLDEFELS,Repsol,"CL AVENIDA 303, 1",,Barcelona,41.27488,1.973419,, De Lunes a Domingo de 06:00 a 22:00 horas,936362074,Sí,Sí,No
CRED CATOIRA,Repsol,"CR PO-548 P.K. 7,80",,Pontevedra,42.67141,-8.709727,, De Lunes a Domingo de 07:00 a 23:00 horas,986546092,Sí,Sí,No
CRED CAZALEGAS I,Repsol,CR A-5   P.K. 104.30 I,,Toledo,39.98856,-4.703472,,ABIERTO 24h. ,925872575,Sí,Sí,No
CRED CAZALEGAS II,Repsol,CR A-5  P.K. 103.20 D,,Toledo,39.99363,-4.691695,, De Lunes a Domingo de 06:00 a 23:00 horas,925872532,Sí,Sí,No
CRED CEA BERMUDEZ,Repsol,"CL CEA BERMUDEZ, 32",,Madrid,40.43909,-3.709657,,ABIERTO 24h. ,915343823,Sí,Sí,No
CRED CERDANYOLA,Repsol,"CL CAN GERONI MARTI/ESQ CR SABADELL, SN",,Barcelona,41.50852,2.090357,,"L a V de 6  a 22 horas, Sábado de 08 a 16.  y domingo de 08 a 16",935801584,Sí,Sí,No
CRED CERDEÑO,Repsol,"CR N-634   P.K. 406,00 D",,Asturias,43.37099,-5.815844,,ABIERTO 24h. ,943212859,Sí,Sí,No
CRED CHIVA,Repsol,"AT A-3  P.K. 337,00 I",,Valencia_València,39.47559,-0.5893218,,ABIERTO 24h. ,961982014,Sí,Sí,No
CRED CHUCENA NORTE,Repsol,"CR  A-49  P.K. 37,00 D",,Huelva,37.34835,-6.423251,,ABIERTO 24h. ,959424447,Sí,Sí,Sí
CRED CHUCENA SUR,Repsol,"CR  A-49  P.K. 37,00 I",,Huelva,37.34687,-6.423124,,ABIERTO 24h. ,959424447,Sí,Sí,Sí
CRED CIM II,Repsol,"CL LAS PALMAS, S.N.",,Barcelona,41.53216,2.193899,,ABIERTO 24h. ,935602449,Sí,Sí,No
CRED CIM VALLÉS,Repsol,"C.I.M. VALLES, PARCELA-13",,Barcelona,41.5397,2.186987,,ABIERTO 24h. ,935603616,Sí,Sí,Sí
CRED CIUDAD EXPO,Repsol,"CL AVENIDA DE CUBA, S.N.",,Sevilla,37.35215,-6.047413,,ABIERTO 24h. ,954187100,Sí,Sí,No
CRED CIUDAD JARDIN,Repsol,"CALLE JACINTO BENAVENTE  JUNTO A RROYO DEL SASTRE, 163",,Málaga,36.75354,-4.425537,, De Lunes a Domingo de 06:00 a 24:00 horas,952254280,Sí,Sí,No
CRED CIUDAD UNIVERSITARIA,Repsol,"CR SE-625 P.K. 1,15 I",,Sevilla,37.37476,-6.080496,,ABIERTO 24h. ,954789493,Sí,Sí,No
CRED CIUDADELLA (MENORCA),Repsol,"CL PINTOR TORRENT, 10",,Illes Balears,40.00795,3.832613,," De Lunes a viernes de 06:00 a 20:00 horas; Sabado, Domingo y Festivo  de 08:00 a 16:00 horas",971480489,Sí,Sí,No
CRED COLLADO II,Repsol,"CR  M-601  P.K. 1,3 I",,Madrid,40.64868,-4.008085,,ABIERTO 24h. ,918517565,Sí,Sí,No
CRED COLMENAR DE OREJA,Repsol,"CL MADRID, 1",,Madrid,40.1121,-3.39124,, De Lunes a Domingo de 06:30 a 22:00 horas,918944861,Sí,Sí,No
CRED COMPROMISO DE CASPE,Repsol,CL 3er CINTURON COMPROM.CASPE,,Zaragoza,41.64503,-0.8577028,, De Lunes a Viernes de 08:00 a 18:00 horas,976499256,Sí,Sí,No
CRED CONCHA ESPINA,Repsol,"CL SERRANO, 197",,Madrid,40.45148,-3.682058,,ABIERTO 24h. ,914112435,Sí,Sí,No
CRED CONIL,Repsol,"CL ROSA DE LOS VIENTOS, 40",,Cádiz,36.28119,-6.089784,, De Lunes a Domingo de 06:00 a 22:00 horas,956442525,Sí,Sí,No
CRED CONSOLACION,Repsol,AUTOVIA A-4 187 M.I.,,Ciudad Real,38.88371,-3.391761,, De Lunes a Domingo de 07:00 a 23:00 horas,,Sí,Sí,Sí
CRED CORTADURA,Repsol,"CL AVENIDA JOSE LEON DE CARRANZA, 16",,Cádiz,36.49802,-6.272419,, De Lunes a Domingo de 06:00 a 22:00 horas,956254241,Sí,Sí,No
CRED CREU ALTA,Repsol,CL PRATS LLUSANES S.N.-ESQ.C.URGEL,,Barcelona,41.56092,2.101,,L a D de 6 a 22 h.,937247651,Sí,Sí,No
CRED CREVILLENTE,Repsol,"CR CV-875 ,P.K. 10,50 I",,Alicante_Alacant,38.23335,-0.7906793,,ABIERTO 24h. ,965405673,Sí,Sí,No
CRED CRTA. ALCOLEA,Repsol,"CL DOCTOR VILASECA-PAISES CATALANS, 26",,Tarragona,41.15669,1.096982,, De Lunes a Domingo de 06:00 a 22:00 horas,977333595,Sí,Sí,No
CRED CRTA. FUENCARRAL,Repsol,"CR M-603   P.K. 14,10 D",,Madrid,40.5246,-3.656144,, De Lunes a Domingo de 06:00 a 24:00 horas,916619875,Sí,Sí,No
CRED CTRA CHILE,Repsol,"CTRA DE CHILE, P.K. 9,00 D",,Las Palmas,28.12145,-15.44777,, De Lunes a Domingo de 06:00 a 22:00 horas,928227609,Sí,Sí,No
CRED CTRA OLIVENZA,Repsol,"CR C-436   P.K. 2,10 D",,Badajoz,38.85855,-6.990058,, De Lunes a Domingo de 06:00 a 24:00 horas,0,Sí,Sí,No
CRED CUESTA DEL BOLON,Repsol,C/ VILLALPANDO ESQUINA CALLE CUESTA DEL BOLON Nº 13,,Zamora,41.5114,-5.747363,, De Lunes a Domingo de 06:00 a 24:00 horas,980670386,Sí,Sí,No
CRED DANTXARINEA,Repsol,"CR N-121 B P.K. 79,50 D",,Navarra,43.29016,-1.505149,, De Lunes a Viernes de 09:00 a 18:00 horas; De Sábado a Domingo de 10:00 a 19:00 horas,948599497,Sí,Sí,No
CRED DENIA,Repsol,"CL AVENIDA VALENCIA, 44",,Alicante_Alacant,38.83945,0.09823298,,ABIERTO 24h. ,966424394,Sí,Sí,No
CRED DR. ESQUERDO,Repsol,"CL AVENIDA DOCTOR ESQUERDO, 153",,Madrid,40.40982,-3.66941,,ABIERTO 24h. ,915733086,Sí,Sí,No
CRED DUEÑAS DCHO,Repsol,"CR A-62   P.K. 88,90 D",,Palencia,41.9136,-4.511625,,ABIERTO 24h. ,979770495,Sí,Sí,No
CRED DUEÑAS IZQ,Repsol,"CR A-62   P.K. 88,90 I",,Palencia,41.91365,-4.510003,,ABIERTO 24h. ,979770979,Sí,Sí,Sí
CRED EIRIS,Repsol,"AV DE MONELOS, S.N.",,A Coruña,43.33887,-8.393727,, De Lunes a Domingo de 07:00 a 23:00 horas,981132303,Sí,Sí,No
CRED EL ARCÁNGEL,Repsol,"CL ENRIQUE PUGA, S.N.",,Córdoba,37.87706,-4.766202,, De Lunes a Domingo de 06:00 a 24:00 horas,957751037,Sí,Sí,No
CRED EL ARENAL,Repsol,"CR CV-739 ,P.K. 2,90 D",,Alicante_Alacant,38.7705,0.1863711,," De Lunes a Viernes de 06:00 a 20:00 horas. Sabados, Domingos y festivos de 08:00 a 20:00 horas",965791109,Sí,Sí,No
CRED EL CANDADO MONTAÑA M. IZQ,Repsol,"CL ALMERIA, 78",,Málaga,36.71532,-4.343898,, De Lunes a Domingo de 06:00 a 22:00 horas,952203999,Sí,Sí,No
CRED EL CANDADO PLAYA M. DCHO,Repsol,"CL ALMERIA, 78",,Málaga,36.71494,-4.344361,, De Lunes a Domingo de 07:00 a 23:00 horas,952207259,Sí,Sí,No
CRED EL CARRO,Repsol,"CR A-62   P.K. 142,00 D",,Valladolid,41.53997,-4.895845,, De Lunes a Domingo de 07:00 a 23:00 horas,983770400,Sí,Sí,No
CRED EL DESCANS,Repsol,"AU  AP-7     P.K. 208,00 D",,Tarragona,41.28875,1.589638,,ABIERTO 24h. ,977670813,Sí,Sí,Sí
CRED EL DESVÍO,Repsol,"CR CV-8500 P.K. 3,60 I",,Alicante_Alacant,38.25102,-0.6983021,, De Lunes a Domingo de 06:00 a 22:00 horas,965451125,Sí,Sí,No
CRED EL ENCUENTRO,Repsol,"CL RONDA DE ALARCOS, 25",,Ciudad Real,38.98475,-3.934491,, De Lunes a Domingo de 06:00 a 23:00 horas,926210034,Sí,Sí,No
CRED EL MASNOU,Repsol,"CR  N-2  P.K. 635,50 I",,Barcelona,41.48254,2.333658,, De Lunes a Domingo de 06:00 a 22:00 horas,935551334,Sí,Sí,No
CRED EL MOLINO,Repsol,"CR C-31   P.K. 164,38 D",,Barcelona,41.23847,1.827454,,ABIERTO 24h. ,938947762,Sí,Sí,No
CRED EL PINAR DE LOS FRANCESES,Repsol,"AVDA DEL MUEBLE, 1",,Cádiz,36.44202,-6.143413,, De Lunes a Domingo de 06:00 a 22:00 horas,956530840,Sí,Sí,No
CRED EL VENDRELL,Repsol,"CL AVENIDA JAUME CARNER, ESQ/CL DEL MAR",,Tarragona,41.21562,1.535235,, De Lunes a Domingo de 06:00 a 22:00 horas,977666387,Sí,Sí,No
CRED ELVIÑA,Repsol,"AV DE ALFONSO MOLINA, S.N.",,A Coruña,43.33365,-8.402474,,ABIERTO 24h. ,981280457,Sí,Sí,No
CRED EMPALME,Repsol,"CR C-148   P.K. 0,800 I",,Lleida,41.78542,0.8301861,,ABIERTO 24h. ,973445637,Sí,Sí,No
CRED EMPURIA BRAVA,Repsol,"CL ORLINA, S.N.",,Girona,42.25291,3.095121,, De Lunes a Viernes de 06:00 a 22:00 horas,972456013,Sí,Sí,No
CRED ENÉKURI,Repsol,"CR BI-3704 P.K. 5,50 I",,Bizkaia,43.29118,-2.960382,, De Lunes a Domingo de 06:00 a 22:00 horas,944472493,Sí,Sí,No
CRED ESKORIATZA,Repsol,"CR  AP-1 P.K. 121,50 I",,Gipuzkoa,43.01702,-2.535411,,ABIERTO 24h. ,943585229,Sí,Sí,No
CRED ESKORTZA,Repsol,"CL AVENIDA DE LETXUMBORRO, S.N.",,Gipuzkoa,43.33376,-1.817112,, De Lunes a Domingo de 06:00 a 22:00 horas,943620284,Sí,Sí,No
CRED ESPINOSA,Repsol,"CR A-6  P.K. 118,50 D",,Ávila,41.00965,-4.665264,, De Lunes a Domingo de 07:00 a 23:00 horas,920300088,Sí,Sí,No
CRED ESTEPA,Repsol,"CR A-92    P.K. 105,20 D",,Sevilla,37.30309,-4.876801,, De Lunes a Domingo de 06:00 a 23:00 horas,955912384,Sí,Sí,Sí
CRED ESTEPA,Repsol,CR A-92  P.K. 110.1 I,,Sevilla,37.30199,-4.880131,,ABIERTO 24h. ,955820216,Sí,Sí,Sí
CRED ESTEPONA,Repsol,"CR N-340   P.K. 166,50 I",,Málaga,36.46368,-5.038765,, De Lunes a Domingo de 07:00 a 23:00 horas,952884082,Sí,Sí,No
CRED ESTEPONA PLAYA,Repsol,"CR  N-340  P.K. 163,00 D",,Málaga,36.45312,-5.075207,, De Lunes a Domingo de 07:00 a 23:00 horas,952923694,Sí,Sí,No
CRED FALSET,Repsol,CR N-420   P.K. 841 D,,Tarragona,41.14366,0.8166832,, De Lunes a Domingo de 06:00 a 22:00 horas,977830178,Sí,Sí,No
CRED FENE,Repsol,"CR N-651   P.K. 30,00 I (ACC.PTO.FERROL)",,A Coruña,43.47224,-8.161882,, De Lunes a Domingo de 06:00 a 22:00 horas,981341611,Sí,Sí,No
CRED FONOLLERAS,Repsol,"CR  A-2  P.K. 512,00 D",,Lleida,41.66168,1.198533,, De Lunes a Domingo de 06:00 a 22:00 horas,973530661,Sí,Sí,No
CRED FRAY J. GARCÉS,Repsol,"CL FRAY JULIAN GARCES, 112",,Zaragoza,41.62541,-0.8884093,, De Lunes a Viernes de 08:00 a 18:00 horas,976276857,Sí,Sí,No
CRED FUENCARRAL,Repsol,"CL AVENIDA NTRA. SRA. DE VALVERDE, 175",,Madrid,40.5034,-3.685807,, De Lunes a Domingo de 06:00 a 22:00 horas,917344509,Sí,Sí,No
CRED FUENLABRADA H DIR TOLEDO,Repsol,"CR A-42  P.K. 18,70  D",,Madrid,40.25986,-3.762356,,ABIERTO 24h. ,916421278,Sí,Sí,No
CRED FUENLABRADA II DIR MADRID,Repsol,"CR A-42   P.K. 18,70 I",,Madrid,40.2592,-3.761256,,ABIERTO 24h. ,916421112,Sí,Sí,No
CRED GALINDO M.I.,Repsol,"CR BI-3745 P.K. 9,20 I",,Bizkaia,43.29846,-3.00313,,ABIERTO 24h. ,944377395,Sí,Sí,No
CRED GALLUR M.D.,Repsol,"AU A-68    P.K. 254,00 D",,Zaragoza,41.83284,-1.319396,, De Lunes a Domingo de 07:00 a 23:00 horas,976864525,Sí,Sí,No
CRED GALLUR M.I.,Repsol,"AU A-68    P.K. 254,00 I",,Zaragoza,41.83458,-1.32019,, De Lunes a Domingo de 07:00 a 23:00 horas,976864882,Sí,Sí,No
CRED GANDIA PUERTO,Repsol,"CR VP-1056 P.K. 7,00 I",,Valencia_València,38.99591,-0.1666117,, De Lunes a Domingo de 06:00 a 22:00 horas,962844212,Sí,Sí,No
CRED GERONA II,Repsol,"CL BARCELONA, 208",,Girona,41.96246,2.811017,,ABIERTO 24h. ,972201929,Sí,Sí,No
CRED GINES,Repsol,"CR  SE-625 P.K.  0,75 D",,Sevilla,37.37798,-6.082067,, De Lunes a Domingo de 06:00 a 22:00 horas,954713526,Sí,Sí,No
CRED GRANOLLERS,Repsol,"CR B-5002  P.K. 15,00 I",,Barcelona,41.59466,2.285671,,ABIERTO 24h. ,938703343,Sí,Sí,No
CRED GROS,Repsol,"CL AVENIDA ZURRIOLA, 32",,Gipuzkoa,43.32517,-1.975021,, De Lunes a Domingo de 07:00 a 23:00 horas,943273384,Sí,Sí,No
CRED GUADALAJARA,Repsol,CL JULIAN BESTEIRO Nº 25,,Guadalajara,40.63339,-3.184783,, De Lunes a Viernes de 06:00 a 24:00 horas; De Sábado a Domingo de 07:00 a 23:00 horas,949200427,Sí,Sí,No
CRED GUADALIX,Repsol,"CR M-608   P.K. 6,50 D",,Madrid,40.78445,-3.686616,, De Lunes a Domingo de 07:00 a 23:00 horas,918470023,Sí,Sí,No
CRED GUARROMÁN,Repsol,"CR N-4     P.K. 280,50 I",,Jaén,38.19345,-3.672002,,ABIERTO 24h. ,953615132,Sí,Sí,Sí
CRED GUARROMÁN II,Repsol,"CR N-4     P.K. 280,00 D",,Jaén,38.19646,-3.673306,,ABIERTO 24h. ,953616162,Sí,Sí,Sí
CRED GUTURRIBAI,Repsol,"CR N-634 p.k. 101,800 MI",,Bizkaia,43.22728,-2.8381,, De Lunes a Viernes de 06:00 a 22:00 horas; De Sábado a Domingo de 08:00 a 22:00 horas,944564898,Sí,Sí,No
CRED HERNANI DCHO,Repsol,"CR AP-8 P.K. 22,00 D",,Gipuzkoa,43.27975,-1.982641,,ABIERTO 24h. ,943336121,Sí,Sí,Sí
CRED HERNANI IZDO,Repsol,"CR AP-8 P.K. 22,00 I",,Gipuzkoa,43.278,-1.978924,,ABIERTO 24h. ,943552494,Sí,Sí,Sí
CRED HERRERA ORIA,Repsol,"CL AVENIDA CARDENAL HERRERA ORIA, 290",,Madrid,40.47921,-3.725885,, De Lunes a Domingo de 07:00 a 23:00 horas,913161176,Sí,Sí,No
CRED HIPÓDROMO,Repsol,"CR A-6  P.K. 8,00 D",,Madrid,40.46115,-3.757829,,ABIERTO 24h. ,913574642,Sí,Sí,No
CRED HONRUBIA,Repsol,"CR CM-3112  P.K. 28,00 D",,Cuenca,39.59733,-2.281056,,ABIERTO 24h. ,969292265,Sí,Sí,No
CRED HUERCAL DE ALMERIA,Repsol,"CR N-340A  P.K. 446,50 D",,Almería,36.87496,-2.444681,, De Lunes a Domingo de 07:00 a 23:00 horas,950144173,Sí,Sí,No
CRED HUMANES,Repsol,"CL MADRID, 52",,Madrid,40.25672,-3.823835,, De Lunes a Domingo de 06:00 a 24:00 horas,916041522,Sí,Sí,No
CRED IBAETA,Repsol,"CL ZARAUTZ, 136",,Gipuzkoa,43.30082,-2.002238,, De Lunes a Domingo de 06:00 a 22:00 horas,943212859,Sí,Sí,No
CRED IBARRETA,Repsol,"CL DE LA RIBERA , 11",,Bizkaia,43.29309,-3.006357,, De Lunes a Domingo de 07:00 a 23:00 horas,944372908,Sí,Sí,No
CRED IGAY M.D.,Repsol,"AU AP-68    P.K. 63,00 D",,Araba_Álava,42.74313,-2.913518,,ABIERTO 24h. ,945355026,Sí,Sí,No
CRED IGAY M.I.,Repsol,"AU AP-68    P.K. 63,50 I",,Araba_Álava,42.7416,-2.913156,,ABIERTO 24h. ,945355045,Sí,Sí,No
CRED ILLESCAS,Repsol,"CR A-42   P.K. 32,80 D",,Toledo,40.1505,-3.824429,, De Lunes a Domingo de 06:00 a 24:00 horas,925513509,Sí,Sí,No
CRED INTELHORCE,Repsol,"CL CONCEPCION ARENAL ,S.N",,Málaga,36.69031,-4.482982,, De Lunes a Domingo de 06:00 a 22:00 horas,952238280,Sí,Sí,No
CRED IURRETA,Repsol,"CR N-634   P.K. 81,70 D",,Bizkaia,43.17533,-2.641487,, De Lunes a Viernes de 05:00 a 23:00 horas; De Sábado a Domingo de 05:30 a 23:00 horas; Festivo de 05:30 a 23:00 horas,946812359,Sí,Sí,No
CRED JEREZ ALTO,Repsol,"CR N-4     P.K. 635,00 I",,Cádiz,36.70669,-6.125019,,ABIERTO 24h. ,956307493,Sí,Sí,No
CRED JEREZ ALTO II,Repsol,"CR N-4     P.K. 635,00 D",,Cádiz,36.70706,-6.125045,, De Lunes a Domingo de 06:00 a 22:00 horas,956301931,Sí,Sí,No
CRED JEREZ DE LA FRONTERA,Repsol,"CL PASEO DE LAS DELICIAS, 1",,Cádiz,36.68113,-6.125247,, De Lunes a Domingo de 07:00 a 23:00 horas,956168313,Sí,Sí,No
CRED JOAQUIM BLUME,Repsol,"CL JOAQUIN BLUME, 1",,Barcelona,41.53219,2.104645,,ABIERTO 24h. ,937122463,Sí,Sí,No
CRED LA ALBERICIA,Repsol,CR CA-230  P.K. 0.10 I (ALBERICIA-SARDI,,Cantabria,43.46338,-3.838176,, De Lunes a Domingo de 07:00 a 23:00 horas,942343404,Sí,Sí,No
CRED LA ATALAYUELA,Repsol,"CR M-602 P.K.13,00 D",,Madrid,40.37234,-3.638632,,ABIERTO 24h. ,681222561,Sí,Sí,No
CRED LA AZUCARERA,Repsol,"CL VELAZQUEZ, 208",,Málaga,36.6824,-4.468327,, De Lunes a Viernes de 06:00 a 22:00 horas; De Sábado a Domingo de 07:00 a 22:00 horas,952230760,Sí,Sí,No
CRED LA BALLENA,Repsol,"CL GREGORIO MARAÑON, S.N.",,Las Palmas,28.10118,-15.44065,,ABIERTO 24h. ,928427465,Sí,Sí,No
CRED LA CAÑADA,Repsol,CR DE MIJAS P.K. 6,,Málaga,36.55214,-4.627707,,ABIERTO 24h. ,952582376,Sí,Sí,No
CRED LA CHANA,Repsol,AVENIDA DE LAS ALPUJARRAS S/N,,Granada,37.18348,-3.624498,,ABIERTO 24h. ,958283979,Sí,Sí,No
CRED LA CLARIANA,Repsol,"AU  AP-7     P.K. 86,00 D",,Girona,41.77233,2.739887,,ABIERTO 24h. ,972858211,Sí,Sí,Sí
CRED LA EUROPEA,Repsol,"AU  AP-7     P.K. 7,00 D",,Girona,42.4052,2.872186,,ABIERTO 24h. ,972555006,Sí,Sí,Sí
CRED LA FRONTERA,Repsol,"CL AUTOVIA BAILEN-MOTRIL  P.K. 69,40 I",,Jaén,37.59395,-3.602152,,ABIERTO 24h. ,953307090,Sí,Sí,No
CRED LA JUNCAL,Repsol,CL AVENIDA ALCALDE JUAN FERNANDEZ 8,,Sevilla,37.37332,-5.968823,, De Lunes a Domingo de 06:00 a 24:00 horas,954641070,Sí,Sí,No
CRED LA JUNQUERA,Repsol,"CR N-2  P.K. 772,50 I",,Girona,42.39861,2.880208,,ABIERTO 24h. ,972556005,Sí,Sí,Sí
CRED LA LUZ,Repsol,"CL AVENIDA VELAZQUEZ, 104",,Málaga,36.69143,-4.456893,,ABIERTO 24h. ,952243738,Sí,Sí,No
CRED LA MANGA,Repsol,"CL AVENIDA GRAN VIA S.N.""MANGA MAR MENOR",,Murcia,37.67353,-0.7309193,, De Lunes a Viernes de 07:00 a 20:00 horas; De Sábado a Domingo de 08:00 a 14:00 horas,968142216,Sí,Sí,No
CRED LA MASIA,Repsol,"CR N-2     P.K. 555,00 I",,Barcelona,41.57869,1.640074,," De Lunes a Viernes de 10:00 a 17:00 horas, Sabado de 10:00 a 14:00",938034899,Sí,Sí,No
CRED LA MERCED,Repsol,"CR N-332   P.K. 122,50 I",,Alicante_Alacant,38.45028,-0.3744281,, De Lunes a Viernes de 07:30 a 20:00 horas; De Sábado a Domingo de 08:00 a 14:00 horas; Festivo de 08:00 a 14:00 horas,965633776,Sí,Sí,No
CRED LA ORDEN,Repsol,"CL BARRIO LA ORDEN, S.N.",,Huelva,37.28357,-6.945675,, De Lunes a Domingo de 06:00 a 23:00 horas,959153764,Sí,Sí,No
CRED LA RABAZA,Repsol,"CR OR-536  P.K. 2,00 D",,Ourense,42.34201,-7.835815,,ABIERTO 24h. ,988235654,No,Sí,No
CRED LA RATLLA,Repsol,"CR N-340   P.K. 981,82 D",,Castellón_Castelló,40.03109,0.01296928,, De Lunes a Domingo de 06:00 a 20:00 horas,964398555,Sí,Sí,No
CRED LA ROCA,Repsol,"CR C-1415  P.K. 17,40 I",,Barcelona,41.5966,2.309167,,ABIERTO 24h. ,938422973,Sí,Sí,No
CRED LA RODA,Repsol,"CL AVENIDA DE VALENCIA, S.N.",,Alicante_Alacant,38.78542,0.1599677,," De Lunes a Viernes de 06:00 a 20:00 horas. Sabados, Domingos y festivos de 08:00 a 20:00 horas",966463724,Sí,Sí,No
CRED LA RODA AUTOVIA,Repsol,"CR A-31 P.K. 40,00 D",,Albacete,39.20093,-2.144701,, De Lunes a Domingo de 06:00 a 23:00 horas,967548253,Sí,Sí,No
CRED LA TALAIA,Repsol,"CR C-32  P.K. 88,50 D",,Barcelona,41.49149,2.333865,,ABIERTO 24h. ,935558061,Sí,Sí,No
CRED LA TRAMUNTANA,Repsol,"AU  AP-7     P.K. 35,00 D",,Girona,42.17345,2.930165,,ABIERTO 24h. ,972560053,Sí,Sí,Sí
CRED LAREDO,Repsol,"CR  N-634  P.K. 171,00 D",,Cantabria,43.39983,-3.439252,, De Lunes a Domingo de 07:00 a 23:00 horas,942605621,Sí,Sí,No
CRED LAS CHUMBERAS,Repsol,"CL LIBERTAD, S.N.",,Santa Cruz de Tenerife,28.46473,-16.3049,,ABIERTO 24h. ,922821745,Sí,Sí,No
CRED LAS GALLETAS,Repsol,CR GUAZA-LAS GALLETAS TF-66 P.K.,,Santa Cruz de Tenerife,28.01855,-16.67367,, De Lunes a Domingo de 06:00 a 22:00 horas,922730716,Sí,Sí,No
CRED LAS GAUNAS,Repsol,"CL AVENIDA DE MADRID, 25",,La Rioja,42.45308,-2.448043,,ABIERTO 24h. ,941499613,Sí,Sí,No
CRED LAS HUESAS,Repsol,"CL VELAZQUEZ, 1",,Las Palmas,27.98057,-15.3922,,ABIERTO 24h. ,928694312,Sí,Sí,No
CRED LAS PALMERAS,Repsol,"CR N-4     P.K. 392,9 I",,Córdoba,37.89268,-4.683109,,ABIERTO 24h. ,957322264,Sí,Sí,Sí
CRED LAS PEDRIZAS M.D.,Repsol,"CR AP-46, PK 3,70 D",,Málaga,36.91808,-4.440506,,ABIERTO 24h. ,952718529,Sí,Sí,Sí
CRED LAS PEDRIZAS M.I.,Repsol,"CR AP-46, PK 3,70 I",,Málaga,36.91692,-4.439101,,ABIERTO 24h. ,952758674,Sí,Sí,Sí
CRED LAS ROSAS,Repsol,CL MOZART SN,,Las Palmas,27.89201,-15.41543,, De Lunes a Domingo de 06:00 a 22:00 horas,928126166,Sí,Sí,No
CRED LAS TRIANAS,Repsol,"CL TRIANAS, 17",,Araba_Álava,42.83984,-2.662646,, De Lunes a Domingo de 06:00 a 22:00 horas,945138689,Sí,Sí,No
CRED LEGASA DCHO,Repsol,"CR  N-121 A  P.K. 44,50 D",,Navarra,43.13065,-1.630321,,ABIERTO 24h. ,948592410,Sí,Sí,Sí
CRED LES TRIES,Repsol,"CL LES TRIES, 70-78",,Girona,42.18953,2.504253,, De Lunes a Domingo de 06:00 a 22:00 horas,972264635,Sí,Sí,No
CRED LINARES,Repsol,"CL AVENIDA ESPAÑA, 3",,Jaén,38.09034,-3.625986,, De Lunes a Domingo de 06:00 a 22:00 horas,953692315,Sí,Sí,No
CRED LLODIO,Repsol,"CL ARETA, 2",,Araba_Álava,43.14858,-2.951622,, De Lunes a Domingo de 06:00 a 22:00 horas,946726472,Sí,Sí,No
CRED LOECHES,Repsol,"CR M-300   P.K. 13,00 D",,Madrid,40.38512,-3.407942,, De Lunes a Domingo de 06:00 a 23:00 horas,918851077,Sí,Sí,No
CRED LOGROÑO,Repsol,"AU A-68    P.K. 136,00 D",,La Rioja,42.4503,-2.370463,,ABIERTO 24h. ,941241195,Sí,Sí,Sí
CRED LOJA PUEBLO,Repsol,"CR N-342   P.K. 483,00 I",,Granada,37.16455,-4.137067,, De Lunes a Domingo de 07:00 a 23:00 horas,958320044,Sí,Sí,No
CRED LOPIDANA,Repsol,"CR N-1     P.K. 350,50 I",,Araba_Álava,42.8779,-2.714211,,ABIERTO 24h. ,945202060,Sí,Sí,No
CRED LOPIDANA DCHO,Repsol,"CR N-1     P.K. 350,50 D",,Araba_Álava,42.87718,-2.712815,,ABIERTO 24h. ,945267311,Sí,Sí,No
CRED LOS ALAMOS,Repsol,"CR N-4     P.K. 412,00 D",,Córdoba,37.79756,-4.8109,,ABIERTO 24h. ,957295933,Sí,Sí,Sí
CRED LOS BERMEJALES,Repsol,"CR N-4     P.K. 544,00 D",,Sevilla,37.35048,-5.977162,,ABIERTO 24h. ,954617639,Sí,Sí,No
CRED LOS CABALLOS,Repsol,"CR N-4     P.K. 346,60 I",,Jaén,37.98884,-4.260615,, De Lunes a Domingo de 06:00 a 22:00 horas,953516761,Sí,Sí,Sí
CRED LOS MOLINOS,Repsol,"CR A-31   P.K. 126,00 I",,Albacete,38.87616,-1.331805,, De Lunes a Domingo de 06:00 a 22:00 horas,967334218,Sí,Sí,No
CRED LOS OCHOS,Repsol,"CR N-634   P.K. 232,50 D",,Cantabria,43.341,-4.029424,, De Lunes a Domingo de 06:00 a 24:00 horas,942883025,Sí,Sí,No
CRED LOS OLIVOS,Repsol,"CR N-323  P.K. 11,90 I",,Jaén,38.02343,-3.77986,,ABIERTO 24h. ,953617343,Sí,Sí,No
CRED LOS PALANCARES,Repsol,"CR N-320   P.K. 136,50 D",,Cuenca,40.05509,-2.125951,,ABIERTO 24h. ,969221916,Sí,Sí,No
CRED LOS POTROS,Repsol,"CR N-4 P.K. 487,00 I","Campana, La",Sevilla,37.50512,-5.441147,,ABIERTO 24h.,954-837-702,Sí,No,No
CRED LOS ROSALES,Repsol,"AV GRAN CANRIA (POL. ROSALES), S.N.",,A Coruña,43.37308,-8.427897,, De Lunes a Domingo de 07:00 a 23:00 horas,981274616,Sí,Sí,No
CRED LOS VERGELES,Repsol,"CL SULTANA, 9",,Granada,37.15105,-3.592281,, De Lunes a Domingo de 06:00 a 22:00 horas,958123608,Sí,Sí,No
CRED LOUI,Repsol,"CL BI-3704, 57",,Bizkaia,43.30808,-2.943548,, De Lunes a Domingo de 06:00 a 22:00 horas,945332361,Sí,Sí,No
CRED LUCENA AUTOPISTA M.D.,Repsol,"CR A-45 P.K. 51,00 D",,Córdoba,37.44014,-4.552725,,ABIERTO 24h. ,957724548,Sí,Sí,No
CRED LUCENA AUTOPISTA M.I.,Repsol,"CR A-45 P.K. 51,00 I",,Córdoba,37.44044,-4.550654,,ABIERTO 24h. ,957724603,Sí,Sí,No
CRED LUGO (LA MURALLA),Repsol,"CL RONDA MURALLA, 134",,Lugo,43.01228,-7.562766,, De Lunes a Domingo de 07:00 a 23:00 horas,982211714,No,Sí,No
CRED LUGONES,Repsol,CR SI-3    P.K. 2.20 D,,Asturias,43.40029,-5.7911,, De Lunes a Domingo de 06:30 a 22:30 horas,985264699,Sí,Sí,No
CRED MAGRANERS,Repsol,"CR N-240   P.K. 89,00 I",,Lleida,41.61071,0.6629186,, De Lunes a Domingo de 07:00 a 23:00 horas,973205421,Sí,Sí,No
CRED MANACOR,Repsol,"CR C-715   P.K. 48,00 I",,Illes Balears,39.57424,3.200664,," De Lunes a Viernes de 06:00 a 21:00 horas. Sábado, Domingo y Festivos de 08:00 a 16:00 horas.",971844965,Sí,Sí,No
CRED MANZANILLA,Repsol,"CA-603, PK 0,5 MD",,Cádiz,36.76482,-6.342721,, De Lunes a Domingo de 06:00 a 22:00 horas,956368976,Sí,Sí,No
CRED MARESME,Repsol,CTR BARCELONA PK 27,,Barcelona,41.52391,2.427478,, De Lunes a Domingo de 06:00 a 22:00 horas,,Sí,Sí,No
CRED MARKINA,Repsol,"CR BI-633  P.K. 45,90 I",,Bizkaia,43.25949,-2.523682,, De Lunes a Domingo de 05:00 a 23:00 horas,946168006,Sí,Sí,No
CRED MARTÍNEZ VELASCO,Repsol,CL AVENIDA MARTINEZ DE VELASCO 53,,Huesca,42.13156,-0.4192798,,ABIERTO 24h. ,974212635,Sí,Sí,No
CRED MARZAGAN,Repsol,"CR GC-300 P.K. 7,60 D, CRUCE MARZAGAN",,Las Palmas,28.03886,-15.41872,, De Lunes a Viernes de 05:30 a 22:00 horas; De Sábado a Domingo de 06:00 a 22:00 horas,928717839,Sí,Sí,No
CRED MAS MORATO,Repsol,"CR  N-2  P.K. 772,50 D",,Girona,42.39838,2.88266,,ABIERTO 24h. ,972555321,Sí,Sí,Sí
CRED MATAPORQUERA,Repsol,A-67 PK 116 MI,,Palencia,42.86685,-4.154992,,L a D de 7:00 a 23:00,979181634,Sí,Sí,Sí
CRED MATARÓ I,Repsol,"CR C-1415  P.K. 1,40 D",,Barcelona,41.54132,2.421121,, De Lunes a Domingo de 06:00 a 22:00 horas,937579289,Sí,Sí,No
CRED MATARÓ III,Repsol,"PG MATA ROCAFONDA C/ENERGIA 2-4, S.",,Barcelona,41.55093,2.45446,,ABIERTO 24h. ,937907474,Sí,Sí,No
CRED MENORCA (MENORCA),Repsol,"CR  ME-1  P.K. 1,50 D",,Illes Balears,39.89118,4.248866,, De Lunes a Domingo de 06:00 a 22:00 horas,971367303,Sí,Sí,No
CRED MERCABARNA,Repsol,CL N.6-SEC.C Z.FRANCA-MERCAB.,,Barcelona,41.32801,2.113974,,ABIERTO 24h. ,933355991,Sí,Sí,No
CRED MERCAJEREZ,Repsol,AV ALCALDE CANTOS ROPERO 9A,,Cádiz,36.65965,-6.130136,, De Lunes a Domingo de 06:00 a 22:00 horas,956143123,Sí,Sí,No
CRED MERCAMADRID,Repsol,"MERCAMADRID, PARC. D-3, S.N.",,Madrid,40.3582,-3.659867,,ABIERTO 24h. ,917863801,Sí,Sí,No
CRED MIAMI PLAYA,Repsol,CR N-340   P.K. 1132 I,,Tarragona,41.00697,0.9359804,, De Lunes a Domingo de 06:00 a 22:00 horas,977810314,Sí,Sí,No
CRED MIGUEL SERVET,Repsol,"CL MIGUEL SERVET,254",,Zaragoza,41.63451,-0.8617947,, De Lunes a Viernes de 08:00 a 18:00 horas,976494308,Sí,Sí,No
CRED MIJ-ARAN,Repsol,"CR  N-230  P.K. 164,10 D",,Lleida,42.71112,0.7973391,, De Lunes a Domingo de 07:00 a 23:00 horas,973642344,Sí,Sí,No
CRED MIÑO,Repsol,"CR N-651   P.K. 9,50 I",,A Coruña,43.34129,-8.203681,, De Lunes a Domingo de 07:00 a 23:00 horas,981784001,Sí,Sí,No
CRED MIRAMAR,Repsol,CL CAMINO LA VILETA S.N.,,Illes Balears,39.58295,2.630767,, De Lunes a Domingo de 06:00 a 22:00 horas,971285894,Sí,Sí,No
CRED MOJACAR MOLINO,Repsol,"CR AL-118  P.K. 0,60 D",,Almería,37.16916,-1.824172,, De Lunes a Domingo de 07:00 a 23:00 horas,950133967,Sí,Sí,No
CRED MOJO GALLARDO,Repsol,"CR A-381  P.K. 20,00 D",,Cádiz,36.56964,-6.02386,,ABIERTO 24h. ,956237200,Sí,Sí,No
CRED MOLLET,Repsol,RONDA LA FARINERA SN,,Barcelona,41.53581,2.203688,, De Lunes a Domingo de 06:00 a 22:00 horas,935970540,Sí,Sí,No
CRED MONFORTE,Repsol,CL DOCTOR CASARES S.N.,,Lugo,42.52894,-7.507421,, De Lunes a Domingo de 07:00 a 23:00 horas,982400703,No,Sí,No
CRED MONTBLANC,Repsol,"CL MURALLA SANTA TECLA, 10",,Tarragona,41.37436,1.164609,, De Lunes a Domingo de 06:00 a 22:00 horas,977860078,Sí,Sí,No
CRED MONTCADA I REIXAC,Repsol,"CR C-17  P.K.. 1,5 I",,Barcelona,41.46691,2.177761,,ABIERTO 24h. ,935648070,Sí,Sí,No
CRED MONTESIERRA,Repsol,"CL AVDA. MONTESIERRA, S.N.",,Sevilla,37.39313,-5.952799,,ABIERTO 24h. ,954529817,Sí,Sí,No
CRED MONTMELÓ,Repsol,"CL VIC, 69",,Barcelona,41.55371,2.250167,, De Lunes a Domingo de 06:00 a 22:00 horas,935681141,Sí,Sí,No
CRED MONTORNÉS,Repsol,"CL AV MOGENT, 3",,Barcelona,41.54849,2.265482,,ABIERTO 24h. ,935723420,Sí,Sí,No
CRED MORATALAZ,Repsol,CL GLO.CORREGIDOR SANCHO DE CORDOBA S.N.,,Madrid,40.40741,-3.652035,,ABIERTO 24h. ,914399070,Sí,Sí,No
CRED MORATILLAS,Repsol,"CR A-3 P.K. 304,00 D",,Valencia_València,39.45057,-0.9296671,, De Lunes a Domingo de 06:00 a 22:00 horas,962340401,Sí,Sí,No
CRED MÓSTOLES M.D.,Repsol,"CR A-5     P.K. 21,00 D",,Madrid,40.31661,-3.898214,,ABIERTO 24h. ,916643632,Sí,Sí,No
CRED MÓSTOLES M.I.,Repsol,"CR A-5     P.K. 21,00 I",,Madrid,40.31642,-3.896785,, De Lunes a Domingo de 06:00 a 22:00 horas,916643053,Sí,Sí,No
CRED MUEL 255,Repsol,CR A-1101 KM 13 I,,Zaragoza,41.47243,-1.101368,,ABIERTO 24h. ,976148232,Sí,Sí,No
CRED MUNDAKA,Repsol,"CR BI-635  P.K. 48,50 I",,Bizkaia,43.41242,-2.703058,, De Lunes a Domingo de 05:30 a 23:30 horas,946177125,Sí,Sí,No
CRED MUSAKOLA,Repsol,"CL AVENIDA DE GUIPUZCOA, 34",,Gipuzkoa,43.06698,-2.478249,, De Lunes a Domingo de 06:00 a 22:00 horas,943771810,Sí,Sí,No
CRED NEPTUNO,Repsol,"CL PROLONGACION RECOGIDAS, S.N.",,Granada,37.16831,-3.60916,,ABIERTO 24h. ,958264703,Sí,Sí,No
CRED NIGRAN,Repsol,"CR PO-552   P.K. 7,40 I",,Pontevedra,42.162,-8.801654,, De Lunes a Domingo de 07:00 a 23:00 horas,986366673,Sí,Sí,No
CRED O BURGO,Repsol,"AU AP-9     P.K. 6,00 I",,A Coruña,43.31197,-8.365214,, De Lunes a Domingo de 07:00 a 23:00 horas,981662001,Sí,Sí,No
CRED OFELIA NIETO,Repsol,"CL OFELIA NIETO, 64",,Madrid,40.46134,-3.708428,, De Lunes a Domingo de 06:00 a 23:00 horas,913116346,Sí,Sí,No
CRED OIARTZUN,Repsol,"CR GI-636  P.K. 5,00 I",,Gipuzkoa,43.31233,-1.879438,, De Lunes a Domingo de 06:00 a 22:00 horas,943493702,Sí,Sí,Sí
CRED OJAIZ,Repsol,"C\ CAMARREAL 150 C (ANTIGUA N-611, PALENCIA-SANTANDER)",,Cantabria,43.44277,-3.877708,, De Lunes a Domingo de 06:00 a 22:00 horas,942337209,Sí,Sí,No
CRED OLAONA,Repsol,"CR N-1     P.K. 364,40 D",,Araba_Álava,42.87854,-2.518422,, De Lunes a Domingo de 06:00 a 22:00 horas,945307024,Sí,Sí,No
CRED ONDARA,Repsol,"CR N-332   P.K. 198,00 I",,Alicante_Alacant,38.82821,0.01475808,," De Lunes a Viernes de 06:00 a 21:00 horas; Sábado, Domingo y Festivo de 08:00 a 20:00 horas",965766212,Sí,Sí,No
CRED ORBITA,Repsol,CR N-6  P.K. 117 I,,Ávila,40.99818,-4.658635,, De Lunes a Domingo de 07:00 a 23:00 horas,920308513,Sí,Sí,No
CRED ORCASITAS,Repsol,CL AVENIDA PRINCESA JUANA DE AUSTRIA S.N,,Madrid,40.3786,-3.718592,,ABIERTO 24h. ,915652122,Sí,Sí,No
CRED PALAFRUGELL,Repsol,"AV DE ESPAÑA, S.N.",,Girona,41.91199,3.153931,, De Lunes a Domingo de 06:00 a 22:00 horas,972611340,Sí,Sí,No
CRED PALAUTORDERA,Repsol,CR. C-35 P.K. 51 I,,Barcelona,41.65782,2.450637,, De Lunes a Domingo de 06:00 a 22:00 horas,938489676,Sí,Sí,No
CRED PALMA DE M.,Repsol,AE AEROPUERTO SON SAN JUAN S.N.,,Illes Balears,39.54597,2.722468,,ABIERTO 24h. ,971787901,Sí,Sí,No
CRED PARETS,Repsol,"CARRER DE LA VOLTA, SN",,Barcelona,41.55916,2.231719,," De Lunes a Viernes de 06:00 a 22:00 horas, Sabado de 6:00 a 14:00",935738242,Sí,Sí,No
CRED PARLA,Repsol,CL REAL S.N.,,Madrid,40.2309,-3.776097,,ABIERTO 24h. ,916991371,Sí,Sí,No
CRED PARLA NORTE,Repsol,"CR M-408 0,15 D",,Madrid,40.2471,-3.765096,, De Lunes a Domingo de 09:00 a 17:00 horas,916992900,Sí,Sí,No
CRED PARQUE,Repsol,"CL CARRETRA SANTA COLOMA, S.N.",,Girona,42.17192,2.478713,, De Lunes a Domingo de 06:00 a 22:00 horas,972260185,Sí,Sí,No
CRED PARQUE ASTUR,Repsol,"CENTRO COMERCIAL PARQUE ASTUR, S.N.",,Asturias,43.54758,-5.871315,, De Lunes a Sábado de 07:00 a 23:00 horas; Domingo de 08:00 a 23:00 horas,985570227,Sí,Sí,No
CRED PARQUE LOGISTICO,Repsol,"CR A-431 P.K. 1,50 I",,Córdoba,37.87841,-4.833658,,ABIERTO 24h. ,957227846,Sí,Sí,No
CRED PASEO DE LA HABANA,Repsol,"CL PASEO DE LA HABANA, 168",,Madrid,40.45916,-3.681365,, De Lunes a Domingo de 06:00 a 23:00 horas,913590671,Sí,Sí,No
CRED PASEO VALLDAURA,Repsol,"CL PASEO VALLDAURA, 106",,Barcelona,41.4393,2.161444,,ABIERTO 24h. ,934284272,Sí,Sí,No
CRED PEDREGUER,Repsol,"CL AVENIDA JOAN CARLES I, 27",,Alicante_Alacant,38.79938,0.03827364,," De Lunes a Viernes de 06:00 a 21:00 horas; Sábado, Domingo y Festivo de 08:00 a 20:00 horas",965761892,Sí,Sí,No
CRED PICANYA,Repsol,"CR CV-36 P.K. 2,25 D",,Valencia_València,39.44071,-0.4267624,," De Lunes a Viernes de 07:00 a 20:00 horas. Sabados, Domingos y Festivos de 10:00 a 16:00",961592667,Sí,Sí,No
CRED PINEDA,Repsol,"CR L-4501  P.K. 3,50 I",,Barcelona,41.75815,1.839999,, De Lunes a Viernes de 06:00 a 22:00 horas. Sábados  y domingos de 09:00 a 16:00,938746754,Sí,Sí,No
CRED PINTO AUTOVIA,Repsol,"CR A-4     P.K. 20,20 D",,Madrid,40.24608,-3.690528,,ABIERTO 24h. ,916914806,Sí,Sí,No
CRED PINTO IZQ,Repsol,"CR A-4     P.K. 20,20 I",,Madrid,40.24649,-3.689486,,ABIERTO 24h. ,916921118,Sí,Sí,No
CRED PLANA BAIXA,Repsol,AVDA. DE FRANCIA 62-66,,Castellón_Castelló,39.93736,-0.09291847,, De Lunes a Domingo de 06:00 a 20:00 horas,964532498,Sí,Sí,No
CRED PLATJA DÑARO,Repsol,"AV DE CASTELL D'ARO, P.K. 12,2 I",,Girona,41.8162,3.050902,, De Lunes a Domingo de 06:00 a 22:00 horas,972827399,Sí,Sí,No
CRED POBRA II,Repsol,"CL VRG. 1.1. PADRON-RIVEIRA, 34",,A Coruña,42.60788,-8.96383,,ABIERTO 24h. ,981877767,Sí,Sí,No
CRED POLIGONO AZUQUECA,Repsol,"CL AVENIDA ALCALA, PARCELAS 84-85",,Guadalajara,40.55615,-3.277395,, De Lunes a Domingo de 06:00 a 22:00 horas,949265061,Sí,Sí,No
CRED POLIGONO LOS OLIVARES,Repsol,POLIGONO RONDA LOS OLIVARES,,Jaén,37.79311,-3.791636,, De Lunes a Domingo de 06:00 a 22:00 horas,953129771,Sí,Sí,No
CRED PORTAL DE CASTILLA,Repsol,"CL CASTILLA, 30",,Araba_Álava,42.84292,-2.682179,, De Lunes a Sábado de 06:30 a 22:30 horas; Domingo de 06:30 a 22:30 horas,,Sí,Sí,No
CRED POZOBLANCO,Repsol,"CR C-420   P.K. 131,40 I",,Córdoba,38.37974,-4.859958,, De Lunes a Domingo de 06:00 a 22:00 horas,957770678,Sí,Sí,No
CRED PTO CAVERO,Repsol,"CR  A-2  ,P.K. 239,75 M.I.",,Zaragoza,41.3646,-1.587265,, De Lunes a Domingo de 06:30 a 22:30 horas,976883495,Sí,Sí,Sí
CRED PTO STA.MARIA -M.I.,Repsol,"CR CA-603  P.K. 1,00 I",,Cádiz,36.59898,-6.240152,,ABIERTO 24h. ,956851016,Sí,Sí,No
CRED PUCHAR,Repsol,"CR N-634   P.K. 173,30 I",,Cantabria,43.3941,-3.459622,, De Lunes a Viernes de 06:00 a 22:00 horas,942650072,Sí,Sí,No
CRED PUENTE CASTRO,Repsol,"CL AVENIDA ALCALDE MIGUEL CASTAñO, 92",,León,42.58556,-5.559408,,ABIERTO 24h. ,987262144,Sí,Sí,Sí
CRED PUENTE COLGANTE,Repsol,"CL PUENTE COLGANTE, 12",,Valladolid,41.64117,-4.734207,,ABIERTO 24h. ,983275770,Sí,Sí,No
CRED PUENTE SAN FDO. II,Repsol,"CR N-2  P.K. 16,30 I",,Madrid,40.44995,-3.523792,,ABIERTO 24h. ,916740516,Sí,Sí,No
CRED PUENTE SAN FERNANDO,Repsol,"CR N-2     P.K. 16,30 D",,Madrid,40.44902,-3.522405,,ABIERTO 24h. ,916735641,Sí,Sí,No
CRED PUERTA DE TIERRA,Repsol,"CL AVENIDA ANDALUCIA, 2",,Cádiz,36.5247,-6.28769,, De Lunes a Domingo de 07:00 a 23:00 horas,956275945,Sí,Sí,No
CRED PUERTO AUTOVÍA,Repsol,CR N-340  P.K. 584.03 D,,Murcia,37.60751,-1.7602,,ABIERTO 24h. ,968438639,Sí,Sí,No
CRED PUERTO VENECIA,Repsol,CL ISLA MURANO S.N,,Zaragoza,41.60979,-0.8819565,, De Lunes a Domingo de 07:00 a 23:00 horas,876266963,Sí,Sí,No
CRED PUERTOLLANO,Repsol,"CR N-420   P.K. 163,00 D",,Ciudad Real,38.70485,-4.100161,,ABIERTO 24h. ,926440117,Sí,Sí,No
CRED PUNTALES,Repsol,AV DE LA ILUSTRACION S/N (BARRIO DE PUNTALES),,Cádiz,36.50813,-6.268231,, De Lunes a Domingo de 06:00 a 22:00 horas,956294435,Sí,Sí,No
CRED PUXEIROS DCHO,Repsol,"AU A-55   P.K. 7,20 D",,Pontevedra,42.21154,-8.668829,,ABIERTO 24h. ,986277101,Sí,Sí,No
CRED QUINTANAPALLA I,Repsol,"AU  AP-1  P.K. 12,00 I",,Burgos,42.40493,-3.54933,,ABIERTO 24h. ,947430466,Sí,Sí,No
CRED QUINTANAPALLA I,Repsol,"AU  AP-1  P.K. 12,00 D",,Burgos,42.40391,-3.549281,,ABIERTO 24h. ,947430449,Sí,Sí,No
CRED QUINTANILLA DE URZ,Repsol,"CR A-52  P.K. 15,80 D",,Zamora,42.0221,-5.852695,, De Lunes a Domingo de 07:00 a 23:00 horas,980563066,Sí,Sí,Sí
CRED RABADE,Repsol,"AV DEL FERROL, 67",,Lugo,43.12231,-7.621044,, De Lunes a Domingo de 07:00 a 23:00 horas,982390025,Sí,Sí,No
CRED RABASA,Repsol,"AV DE LA UNIVERSIDAD, S.N.",,Alicante_Alacant,38.37621,-0.5088509,,ABIERTO 24h. ,965179972,Sí,Sí,No
CRED RAMBLA BELEN,Repsol,PROL FEDERICO GARCIA LORCA (RAMBLA BELEN,,Almería,36.8531,-2.468249,,ABIERTO 24h. ,950253039,Sí,Sí,No
CRED RAMIRO,Repsol,"CR A-6   P.K. 154,10 D",,Valladolid,41.27567,-4.887857,,ABIERTO 24h. ,983481096,Sí,Sí,Sí
CRED RANTE,Repsol,CL CR COMARCAL INFESTA-RANTE ENLACE A-52,,Ourense,42.25079,-7.864332,,ABIERTO 24h. ,988381116,Sí,Sí,No
CRED RANTE II,Repsol,CR A-52 P.K. 217 I,,Ourense,42.24859,-7.864145,, De Lunes a Domingo de 07:00 a 23:00 horas,988381359,Sí,Sí,No
CRED RECTA DE TARAHALES,Repsol,AVDA DE ESCALERITAS ESQUINA CALLE TELEGRAFOS SN,,Las Palmas,28.10143,-15.44704,, De Lunes a Domingo de 06:00 a 22:00 horas,928170497,Sí,Sí,No
CRED RÍO CASTOR I,Repsol,"AU AP-7  P.K. 161,00 I",,Málaga,36.46406,-5.116398,,ABIERTO 24h. ,952113932,Sí,Sí,Sí
CRED RÍO CASTOR II,Repsol,"AU AP-7  P.K. 161,00 D",,Málaga,36.46492,-5.114883,,ABIERTO 24h. ,952113934,Sí,Sí,No
CRED RÍOSECO DE TAPIA,Repsol,"AU AP-66    P.K. 126,00 D",,León,42.69079,-5.767406,,ABIERTO 24h. ,987685118,Sí,Sí,No
CRED RÍOSECO II,Repsol,"AU AP-66  P.K. 126,00 I",,León,42.69129,-5.770646,,ABIERTO 24h. ,987698352,Sí,Sí,No
CRED RIPOLL,Repsol,"CL PASEO RAGULL, 12-14",,Girona,42.19712,2.190739,, De Lunes a Domingo de 06:00 a 22:00 horas,972601303,Sí,Sí,No
CRED ROBLEDO 1,Repsol,"AU A-66    P.K. 19,00 D",,Ciudad Real,43.4353,-5.799035,,ABIERTO 24h. ,985772409,Sí,Sí,No
CRED ROBLEDO 2,Repsol,"AU A-66    P.K. 19,00 I",,Ciudad Real,43.43835,-5.798337,,ABIERTO 24h. ,985772082,Sí,Sí,No
CRED RONDA ESTE,Repsol,"CR N-601   P.K. 187,00 I",,Valladolid,41.61876,-4.726615,,ABIERTO 24h. ,983479017,Sí,Sí,No
CRED S.ASENSIO M.D.,Repsol,"AU AP-68    P.K. 100,00 D",,La Rioja,42.5116,-2.754318,, De Lunes a Domingo de 07:00 a 23:00 horas,941457331,Sí,Sí,No
CRED S.ASENSIO M.I.,Repsol,"AU A-68    P.K. 100,00 I",,La Rioja,42.51318,-2.752763,, De Lunes a Domingo de 07:00 a 23:00 horas,941457143,Sí,Sí,No
CRED S.S. DE LOS REYES II,Repsol,"CL REAL, 120 (ANTIGUA N-1)",,Madrid,40.55251,-3.61886,, De Lunes a Domingo de 06:00 a 22:00 horas,916542859,Sí,Sí,No
CRED SABINOSA,Repsol,CR N-340   P.K. 1165 D,,Tarragona,41.12294,1.280742,, De Lunes a Domingo de 06:00 a 22:00 horas,977232539,Sí,Sí,No
CRED SALINETAS,Repsol,GC-1 ENLACE SALINETAS,,Las Palmas,27.98411,-15.3917,, Lunes de 06:00 a 22:00 horas,,Sí,Sí,No
CRED SAN AGUSTIN,Repsol,"CL AVENIDA SAN AGUSTIN, 78",,Salamanca,40.97878,-5.658055,,ABIERTO 24h. ,923282352,Sí,Sí,No
CRED SAN ALVARO,Repsol,"AV. REPUBLICA ARGENTINA, S/N",,Córdoba,37.886,-4.786138,,ABIERTO 24h. ,957231352,Sí,Sí,No
CRED SAN ANDRES,Repsol,"CL SAN ANDRES DE COMESAÑA, 16",,Pontevedra,42.20429,-8.752986,,ABIERTO 24h. ,986236677,Sí,Sí,No
CRED SAN BLAS,Repsol,"CL ALCALA, 510",,Madrid,40.44109,-3.625303,,ABIERTO 24h. ,913270310,Sí,Sí,No
CRED SAN CARLOS RÁPITA,Repsol,"CL DELS FUNDADORS, 104",,Tarragona,40.62321,0.5935903,, De Lunes a Domingo de 06:00 a 22:00 horas,977740853,Sí,Sí,No
CRED SAN JUAN DE AZNALFARACHE,Repsol,CR SE-640  P.K. 0.70 I,,Sevilla,37.36242,-6.036692,, De Lunes a Domingo de 06:00 a 22:00 horas,954170566,Sí,Sí,No
CRED SAN JUAN DE DIOS,Repsol,"CR C-623   P.K. 3,40 D",,León,42.61736,-5.602127,, De Lunes a Domingo de 07:00 a 23:00 horas,987223025,Sí,Sí,No
CRED SAN LORENZO,Repsol,"CL FINCA LA CANCELA, S.N.",,Las Palmas,28.07654,-15.46399,, De Lunes a Domingo de 06:00 a 22:00 horas,928170800,Sí,Sí,No
CRED SAN MAMES DE MERUELO,Repsol,CR CA-147   P.K. 4.70 I,,Cantabria,43.44961,-3.559246,, De Lunes a Domingo de 06:30 a 22:30 horas,942637312,Sí,Sí,No
CRED SAN MARTIN IZDO,Repsol,"CR M-501   P.K. 54,10 I",,Madrid,40.35742,-4.379484,, De Lunes a Viernes de 06:00 a 22:00 horas; De Sábado a Domingo de 07:00 a 23:00 horas,918612549,Sí,Sí,No
CRED SAN PABLO,Repsol,"CR N-4     P.K. 537,60 I",,Sevilla,37.4048,-5.955783,,ABIERTO 24h. ,954511821,Sí,Sí,No
CRED SAN RAFAEL,Repsol,"CL AVENIDA LA CORUÑA, 310",,Lugo,43.02575,-7.567155,,ABIERTO 24h. ,982211493,Sí,Sí,No
CRED SANSE AUTOVIA,Repsol,"CR  N-1  P.K. 18,60 D",,Madrid,40.5458,-3.606484,,ABIERTO 24h. ,916534289,Sí,Sí,No
CRED SANT PERE DE R.,Repsol,"CR B-211   P.K. 8,00 D",,Barcelona,41.25596,1.778886,, De Lunes a Domingo de 06:00 a 22:00 horas,938962229,Sí,Sí,No
CRED SANT VICENÇ MONTALT,Repsol,CR N-2     P.K. 653.60 D,,Barcelona,41.5661,2.519555,, De Lunes a Domingo de 07:00 a 23:00 horas,937911357,Sí,Sí,No
CRED SANTA CRUZ DE MUDELA,Repsol,"CR N-4     P.K. 216,90 I",,Ciudad Real,38.63609,-3.471415,,ABIERTO 24h. ,926342206,Sí,Sí,Sí
CRED SANTA EULALIA,Repsol,"CL SANTA EULALIA, 27",,Barcelona,41.36747,2.130218,, De Lunes a Domingo de 06:00 a 22:00 horas; ,934316385,Sí,Sí,No
CRED SANTA MARTA,Repsol,"CR N-501   P.K. 89,00 D",,Salamanca,40.94974,-5.610274,, De Lunes a Domingo de 07:00 a 23:00 horas,923139464,Sí,Sí,No
CRED SANTA POLA,Repsol,"CR N-332   P.K. 93,50 D",,Alicante_Alacant,38.23533,-0.5500319,,ABIERTO 24h. ,965415439,Sí,Sí,No
CRED SANTANYÍ,Repsol,"CR C-717   P.K. 49,70 I",,Illes Balears,39.35828,3.125316,," De Lunes a Viernes de 06:00 a 21:00 horas. Sábado, Domingo y Festivos de 08:00 a 16:00 horas.",971653645,Sí,Sí,No
CRED SANTOMERA M.I.,Repsol,"AU  A-7  P.K. 750,00 I",,Murcia,38.10084,-1.035576,,ABIERTO 24h. ,968863271,Sí,Sí,No
CRED SESEÑA M.DCHO,Repsol,"CR A-4     P.K. 36,50 D",,Toledo,40.10488,-3.645894,, De Lunes a Domingo de 06:00 a 22:00 horas,918936275,Sí,Sí,No
CRED SESEÑA M.IZDO,Repsol,"CR A-4     P.K. 36,50 I",,Toledo,40.10511,-3.645085,, De Lunes a Domingo de 06:00 a 22:00 horas,918012303,Sí,Sí,No
CRED SOBRADIEL M.D.,Repsol,"AU A-68    P.K. 283,00 D",,Zaragoza,41.73031,-1.031232,,ABIERTO 24h. ,976139108,Sí,Sí,No
CRED SOBRADIEL M.I.,Repsol,"AU A-68    P.K. 283,00 I",,Zaragoza,41.73211,-1.030094,,ABIERTO 24h. ,976139080,Sí,Sí,No
CRED SON ANTEM,Repsol,"CR PM-602  P.K. 5,00 D",,Illes Balears,39.4844,2.832171,," De Lunes a viernes de 06:00 a 20:00 horas; Sabado, Domingo y Festivo  de 08:00 a 16:00 horas",971121167,Sí,Sí,No
CRED SON VALENTI,Repsol,"CAMI D'ELS REIS, S,N, (POLIGONO SON VALE",,Illes Balears,39.59584,2.637945,, De Lunes a Domingo de 06:00 a 22:00 horas,971253094,Sí,Sí,No
CRED T4 TIERRA,Repsol,"AV DE LA HISPANIDAD, 44  BARAJAS-TIERRA T4",,Madrid,40.497,-3.597658,, De Lunes a Domingo de 06:00 a 24:00 horas,913337268,Sí,Sí,No
CRED TARRAGONA,Repsol,"CR N-340   P.K. 1160,00 I",,Tarragona,41.11655,1.228088,, De Lunes a Domingo de 06:00 a 22:00 horas,977540106,Sí,Sí,No
CRED TERUEL II (PL.),Repsol,CL AVENIDA DE SAGUNTO-FUENFRESCA S.N.,,Teruel,40.33279,-1.08747,, De Lunes a Domingo de 06:00 a 23:00 horas,978606579,Sí,Sí,No
CRED TORDESILLAS,Repsol,"AV DE PORTUGAL, 7",,Valladolid,41.50105,-5.00457,,ABIERTO 24h. ,983771869,Sí,Sí,No
CRED TORO,Repsol,"CR N-122   P.K. 425,50 I",,Zamora,41.52321,-5.386181,, De Lunes a Domingo de 07:00 a 23:00 horas,980690341,Sí,Sí,No
CRED TORRE VALLE I,Repsol,A-6 P.K. 273 D,,Zamora,42.08776,-5.713266,,L a D de 7:00 a 23:00,980650059,Sí,Sí,No
CRED TORRE VALLE II,Repsol,A-6 P.K. 273 I,,Zamora,42.08929,-5.715539,,ABIERTO 24h. ,980650155,Sí,Sí,No
CRED TORRELODONES,Repsol,"CR A-6  P.K. 28,20 I",,Madrid,40.56824,-3.917352,, De Lunes a Domingo de 06:30 a 22:30 horas,918594397,Sí,Sí,No
CRED TORRENTE,Repsol,"CL CARRETERA PICAÑA, 24",,Girona,39.43906,-0.4563914,,ABIERTO 24h. ,961557975,Sí,Sí,No
CRED TRES CANTOS,Repsol,"CL AVENIDA DE LA INSDUSTRIA, 33",,Madrid,40.61308,-3.700746,, De Lunes a Domingo de 07:00 a 23:00 horas,918033648,Sí,Sí,No
CRED TUDELA NAVARRA,Repsol,"AU A-68    P.K. 222,00 D",,Navarra,42.01253,-1.601074,,ABIERTO 24h. ,948825853,Sí,Sí,Sí
CRED UGALDEBIETA M.D.,Repsol,"AU  A-8 P.K. 131,00 D",,Bizkaia,43.32853,-3.068465,,ABIERTO 24h. ,946361501,Sí,Sí,Sí
CRED UGALDEBIETA M.I.,Repsol,"AU  A-8  P.K. 131,00 I",,Bizkaia,43.3269,-3.067953,,ABIERTO 24h. ,946360365,Sí,Sí,No
CRED ULLA,Repsol,"CR C-31  P.K. 350,50 I",,Girona,42.04528,3.117185,, De Lunes a Domingo de 06:00 a 22:00 horas,972760811,Sí,Sí,No
CRED VALDALIGA M.DCHO,Repsol,"CR  A-8  P.K. 256,00 D",,Cantabria,43.33496,-4.329673,,ABIERTO 24h. ,942708100,Sí,Sí,No
CRED VALDALIGA M.IZQ,Repsol,"CR  A-8  P.K. 256,00 I",,Cantabria,43.33399,-4.331981,,ABIERTO 24h. ,942708090,Sí,Sí,No
CRED VALDEMINGOMEZ M.D.,Repsol,CR M-50 P.K. 34 D,,Madrid,40.3461,-3.588081,,ABIERTO 24h. ,917653283,Sí,Sí,No
CRED VALDEMINGOMEZ M.I.,Repsol,CR M-50 P.K. 34 I,,Madrid,40.34397,-3.588955,,ABIERTO 24h. ,628231465,Sí,Sí,No
CRED VALDEZORRAS,Repsol,"CR SE-30   P.K. 0,10 D (INTRS.PG.ESTORE)",,Sevilla,37.41659,-5.955264,,ABIERTO 24h. ,954359190,Sí,Sí,No
CRED VALLES NORTE,Repsol,"AU AP-7     P.K. 144,00 D",,Barcelona,41.52629,2.168119,,ABIERTO 24h. ,935740559,Sí,Sí,No
CRED VALLES SUR,Repsol,"AU AP-7     P.K. 144,00 I",,Barcelona,41.52678,2.167095,,ABIERTO 24h. ,935740613,Sí,Sí,No
CRED VALLS POLIGONO,Repsol,"CR T-200  P.K. 2,50 D",,Tarragona,41.2983,1.258475,, De Lunes a Domingo de 06:00 a 22:00 horas,977606813,Sí,Sí,No
CRED VALTIERRA M.D.,Repsol,"AU A-15    P.K. 14,00 D",,Navarra,42.20028,-1.674992,,ABIERTO 24h. ,948407570,Sí,Sí,No
CRED VALTIERRA M.I.,Repsol,"AU A-15    P.K. 14,00 I",,Navarra,42.20024,-1.676219,,ABIERTO 24h. ,948407653,Sí,Sí,No
CRED VARIANTE ESTE NORTE,Repsol,"CL VIADUCTO MIRAFLORES-LARREAGA, 1",,Bizkaia,43.24852,-2.924783,,ABIERTO 24h. ,944100856,Sí,Sí,No
CRED VARIANTE ESTE SUR,Repsol,"CL VIADUCTO MIRAFLORES-LARREAGA, 2",,Bizkaia,43.24759,-2.92392,, De Lunes a Domingo de 07:00 a 23:00 horas,944441582,Sí,Sí,No
CRED VECINDARIO,Repsol,"AV DEL ATLANTICO, S.N.",,Las Palmas,27.84122,-15.4409,,ABIERTO 24h. ,928125093,Sí,Sí,No
CRED VENTA DEL MORO,Repsol,"AU A-3 P.K. 266,10 D",,Valencia_València,39.53944,-1.311605,,ABIERTO 24h. ,679401486,Sí,Sí,Sí
CRED VENTURADA,Repsol,"CR A-I  P.K. 49,00 D",,Madrid,40.78588,-3.614154,, De Lunes a Domingo de 06:00 a 24:00 horas,918438654,Sí,Sí,No
CRED VIA DE LA PLATA,Repsol,"CR A-66  P.K. 494,00 D",,Cáceres,39.88298,-6.276141,,ABIERTO 24h. ,927453451,Sí,Sí,Sí
CRED VICALVARO,Repsol,"CR M-214   P.K. 4,60 D",,Madrid,40.39862,-3.589863,,ABIERTO 24h. ,917762707,Sí,Sí,No
CRED VIELHA,Repsol,"CR N-230   P.K. 163,70 I",,Lleida,42.70179,0.7929885,, De Lunes a Domingo de 09:00 a 18:00 horas,973642277,Sí,Sí,No
CRED VILANOVA,Repsol,"CR BV-5001  P.K. 19,90 I",,Barcelona,41.55178,2.28513,, De Lunes a Domingo de 06:00 a 22:00 horas,938458026,Sí,Sí,No
CRED VILASECA,Repsol,"VILA DEL COMU 8POL. IND. L'ALBA PARC.A-22-a, 1",,Tarragona,41.11426,1.15582,, De Lunes a Domingo de 06:00 a 22:00 horas,977395361,Sí,Sí,No
CRED VILLAGARCIA,Repsol,CL SAN ROQUE/JUAN CARLOS I S.N.,,Pontevedra,42.59465,-8.762742,, De Lunes a Domingo de 07:00 a 23:00 horas,986500434,Sí,Sí,No
CRED VILLALBA,Repsol,"CL CAMPO DEL PUENTE, S.N.",,Lugo,43.30259,-7.672344,, De Lunes a Domingo de 07:00 a 23:00 horas,982512849,Sí,Sí,No
CRED VILLANUEVA DEL ARZOBISPO,Repsol,"CR N-322   P.K. 191,00 D",,Jaén,38.17255,-3.003949,, De Lunes a Domingo de 06:00 a 22:00 horas,953450105,Sí,Sí,No
CRED VILLAVIDEL M.D.,Repsol,"CR  A-231  P.K. 8,00 D",,León,42.45497,-5.520886,, De Lunes a Domingo de 07:00 a 23:00 horas,987315056,Sí,Sí,No
CRED VILLAVIDEL M.I.,Repsol,"CR  A-231  P.K. 8,00 I",,León,42.4555,-5.518208,, De Lunes a Domingo de 07:00 a 23:00 horas,987315063,Sí,Sí,No
CRED VIRGEN MONTSERRAT,Repsol,"AV VIRGEN DE MONTSERRAT, 87 bis",,Barcelona,41.41552,2.166979,, De Lunes a Domingo de 06:00 a 22:00 horas,932846895,Sí,Sí,No
CRED XUQUER,Repsol,"CL CLARIANO, 3",,Valencia_València,39.47629,-0.3522877,, De Lunes a Domingo de 06:00 a 20:00 horas,963696659,Sí,Sí,No
CRED ZUASTI,Repsol,AU A-15    P.K. 98.50 D,,Navarra,42.86174,-1.743931,,ABIERTO 24h. ,948302963,Sí,Sí,No
DIEGO MENENDEZ RIVERA,Repsol,"CR AS-15    P.K. 4,10 D",,Asturias,43.37666,-6.151887,, De Lunes a Domingo de 06:30 a 22:00 horas,985835170,Sí,No,No
"DOMIPETROL,S.L.",Repsol,"CR N-331   P.K. 51,30 I",,Córdoba,37.52563,-4.65406,, De Lunes a Domingo de 06:00 a 22:00 horas,957660158,Sí,No,No
"E.PEIRO BONAFONTE,SL",Repsol,"CR N-234   P.K. 83,00 I",,Teruel,40.14888,-0.8233952,,ABIERTO 24h. ,978780438,Sí,Sí,Sí
E.S HITIGARCA SL,Repsol,"CR CM-4000 P.K. 2,65 D",,Toledo,39.86357,-4.072619,, De Lunes a Domingo de 07:00 a 22:00 horas,925251243,Sí,No,No
E.S COMBUSTIBLES LUIS FERNANDEZ S.L,Repsol,"CR N-232   P.K. 33,00 I",,La Rioja,42.57082,-2.761553,, De Lunes a Domingo de 07:00 a 22:00 horas,941334155,Sí,No,No
E.S CRED NOVA CULLERA,Repsol,CL CORBERA S/N BULEVAR DEL XUQUE,,Valencia_València,39.1562,-0.2542715,, De Lunes a Domingo de 06:00 a 22:00 horas,961721523,Sí,Sí,No
E.S EL OLIVAR,Repsol,A-92 SALIDA 220,,Granada,37.1927,-3.852831,,ABIERTO 24h. ,958457500,No,No,Sí
"E.S GEOSCRI, S.L",Repsol,"CR N-3     P.K. 131,20 I",,Cuenca,39.84206,-2.509683,, De Lunes a Domingo de 07:00 a 22:00 horas,969298038,No,No,Sí
E.S LA INMACULADA,Repsol,"CR  A-356 , P.K. 45,80 D",,Málaga,36.77858,-4.112537,,ABIERTO 24h. ,952549873,Sí,Sí,No
E.S VILLAHUERTA S.L.,Repsol,CR A-2  P.K. 154.40 I,,Soria,41.18923,-2.404372,, De Lunes a Viernes de 00:00 a 24:00 horas; Sábado de 00:00 a 21:00 horas; Domingo de 08:00 a 00:00 horas,975182127,Sí,No,Sí
"E.S. EL AVION, S.L.",Repsol,"CR N-630   P.K. 454,30 D",,Cáceres,40.14256,-6.043404,, De Lunes a Domingo de 08:00 a 20:00 horas,927489016,No,No,Sí
E.S. AUTOSERV. BILBAO,Repsol,"CR N-634   P.K. 106,40 A",,Bizkaia,43.25069,-2.888987,,ABIERTO 24h. ,944492550,Sí,Sí,No
E.S. AYALA S.L.,Repsol,CL AYALA S.N.,,Málaga,36.70805,-4.43331,,ABIERTO 24h. ,952313138,Sí,No,No
E.S. CAMINO BLANCO,Repsol,"CR N-630   P.K. 664,50 D",,Badajoz,38.56773,-6.350721,, De Lunes a Domingo de 06:00 a 24:00 horas,924525879,Sí,No,Sí
E.S. CRED AXPE,Repsol,"CL RIVERA DE AXPE, 19",,Bizkaia,43.31326,-2.98529,,ABIERTO 24h. ,944632102,Sí,Sí,No
E.S. EL CARMEN,Repsol,"CL AVENIDA DEL PINTOR SOROLLA, 76",,Málaga,36.72168,-4.380575,,ABIERTO 24h. ,952293151,Sí,No,No
E.S. HELLIN S.L.,Repsol,"CR N-301   P.K. 310,20 I",,Albacete,38.52438,-1.70307,, De Lunes a Domingo de 06:00 a 23:00 horas,967300792,Sí,Sí,No
E.S. HERSAN S.L,Repsol,"CL AVENIDA CARLOS HAYA, 96",,Málaga,36.723,-4.451076,,ABIERTO 24h. ,952271614,Sí,No,No
"E.S. LA PISTA,S.L.",Repsol,"CR N-630   P.K. 509,30 D",,Cáceres,39.79459,-6.385463,, De Lunes a Domingo de 07:00 a 22:00 horas,927300280,Sí,No,No
E.S. LES 4 RODES S.L.,Repsol,"CR C-44   P.K. 20,20 I",,Tarragona,41.04779,0.7297924,, De Lunes a Viernes de 07:00 a 13:30 horas; De Lunes a Viernes de 16:30 a 20:00 horas; De Sábado a Domingo de 08:00 a 14:00 horas,977417310,Sí,No,No
E.S. LOS MOLINOS,Repsol,"CR L-213   P.K. 1,00 I",,Cádiz,36.28147,-6.084049,, De Lunes a Domingo de 07:00 a 23:00 horas,956440430,Sí,No,No
E.S. Mª DE LOS ÁNGELES NÚÑEZ MELÉN,Repsol,"CR C-440   P.K. 32,00 I",,Cádiz,36.47947,-5.915833,, De Lunes a Domingo de 07:00 a 24:00 horas,956412060,Sí,No,No
E.S. MEDINA Y VALERO,Repsol,CL VIRGEN DEL ROSARIO S.N.,,Valencia_València,39.05963,-1.053339,, De Lunes a Domingo de 06:00 a 22:00 horas,962191215,Sí,No,No
"E.S. PRYCON HEREDERO, S.L.",Repsol,"CR BA-436  P.K. 26,60 I",,Badajoz,38.66527,-7.096134,, Lunes de 06:00 a 23:00 horas,924491647,Sí,No,No
"E.S. RAMBAR,S.A.",Repsol,CL AVENIDA PERONE S.N.,,Granada,36.74024,-3.584279,, De Lunes a Domingo de 07:00 a 22:00 horas,958612130,Sí,Sí,No
E.S. ROGEN S.L.,Repsol,"CR C-344   P.K. 63,00 D",,Málaga,36.66323,-4.753163,, De Lunes a Domingo de 06:00 a 24:00 horas,952450633,Sí,No,No
"E.S. ROLO,S.L.",Repsol,CR C-512   P.K. 49 D,,Cáceres,40.32575,-6.292419,, De Lunes a Viernes de 07:00 a 21:00 horas; Festivo de 08:00 a 21:00 horas,927435343,Sí,No,No
E.S. SAN JOSE,Repsol,"CR N-331   P.K. 114,20 D",,Málaga,37.11269,-4.566987,,ABIERTO 24h. ,952843756,No,No,Sí
E.S. SORIANO ALGARRA,Repsol,"CR VP-6116 P.K. 29,00 I",,Valencia_València,39.6017,-0.7252735,, De Lunes a Sábado de 06:00 a 21:00 horas; Domingo de 07:00 a 14:00 horas,962707183,Sí,No,No
"E.S. VICTORIA,S.L.",Repsol,"CL AVENIDA DEL TEXTIL, 42",,Valencia_València,38.82691,-0.58802,, De Lunes a Domingo de 06:00 a 22:00 horas,962912136,Sí,No,No
"E.S. VILLAROSA,S.A.",Repsol,"CR N-340   P.K. 231,90 D",,Málaga,36.67339,-4.476643,,ABIERTO 24h. ,952231661,Sí,No,No
E.S. ADAN MALANDA LORENZO,Repsol,"CR A-62   P.K. 62,50 D",,Palencia,42.04723,-4.255103,, De Lunes a Domingo de 07:00 a 22:00 horas,979800258,Sí,No,No
"E.S. ADISJUBER,S.L.",Repsol,"CR N-340   P.K. 118,00 I",,Cádiz,36.20739,-5.409786,,ABIERTO 24h. ,956786265,Sí,No,No
E.S. ADMON Y DISTRIB. DE COMBUSTIBL,Repsol,"CL MURCIA, 33",,Albacete,38.50674,-1.687193,, De Lunes a Domingo de 06:00 a 23:00 horas,967302034,Sí,Sí,No
E.S. ALHAMA,Repsol,"CR MU-414  P.K. 6,00 D",,Murcia,38.11132,-1.049241,, De Lunes a Sábado de 06:00 a 23:30 horas; Domingo de 07:00 a 23:30 horas,968309805,Sí,Sí,No
"E.S. ALMARAZ,S.L.",Repsol,"CR A-5  P.K. 200,00 D",,Cáceres,39.79119,-5.696167,,ABIERTO 24h. ,927545151,No,No,Sí
"E.S. ALTET,S.L.",Repsol,"AVENIDA CARTAGENA, 59",,Alicante_Alacant,38.27588,-0.5388237,,ABIERTO 24h. ,965687098,Sí,No,No
E.S. ALZ,Repsol,"AT A-3     P.K. 341,00 A",,Valencia_València,39.47161,-0.5360055,,ABIERTO 24h. ,961668309,Sí,No,Sí
E.S. ALZ ALBORACHE,Repsol,"CR  CV-425  P.K. 4,90 D",,Valencia_València,39.39208,-0.7857153,, De Lunes a Domingo de 06:00 a 22:00 horas,962508530,Sí,No,No
E.S. ALZ BUÑOL,Repsol,"AT A-3     P.K. 322,00 I",,Valencia_València,39.44498,-0.7552043,,ABIERTO 24h. ,962503719,Sí,No,Sí
E.S. ALZ MISLATA,Repsol,"AT A-3     P.K. 350,90 I",,Valencia_València,39.47214,-0.4297179,,ABIERTO 24h. ,662676562,Sí,No,No
E.S. ALZ MISLATA PUEBLO,Repsol,"CL SAN ANTONIO, 14",,Valencia_València,39.47451,-0.4127744,, De Lunes a Domingo de 06:00 a 22:00 horas,662676518,Sí,No,No
"E.S. ANDORRA, S.L.",Repsol,"CR A-223   P.K. 12,10 D",,Teruel,40.9821,-0.4479178,, De Lunes a Domingo de 07:00 a 21:00 horas,978842014,Sí,No,No
E.S. ANIES ALMADRAVA SL,Repsol,CR N-340   P.K.1121.80 D,,Tarragona,40.94933,0.8568764,, De Lunes a Viernes de 06:00 a 20:00 horas; De Sábado a Domingo de 08:00 a 20:00 horas,616648888,Sí,No,No
E.S. ANTONIO PUERTA ROBLES,Repsol,CR C-3314  P.K. 10.70 D,,Murcia,38.17506,-1.750589,, De Lunes a Domingo de 06:00 a 22:00 horas,629947742,Sí,No,No
E.S. ARAGON - ZOILO RIOS,Repsol,"CR  A-68 , P.K. 258,25 D",,Zaragoza,41.74049,-1.078954,, De Lunes a Viernes de 06:00 a 20:00 horas; Sábado de 08:00 a 20:00 horas,976792244,Sí,Sí,Sí
E.S. ARBA SA,Repsol,CR  N-3  P.K. 108.40 I,,Cuenca,39.91369,-2.744615,, De Lunes a Domingo de 07:00 a 23:00 horas,969134420,No,No,Sí
E.S. ARBA SA M.D.,Repsol,CR  N-3  P.K. 108.40 D,,Cuenca,39.91209,-2.743697,,ABIERTO 24h. ,969132161,No,No,Sí
E.S. AREA DE SERVICIO KM 258,Repsol,CR A-4 P.K. 258.00 D,,Jaén,38.33693,-3.545228,,ABIERTO 24h. ,953664031,Sí,No,Sí
E.S. AREA DE SERVICIO LOS CERRILLOS,Repsol,"CL AUTOVIA DE EXTREMADURA, 174",,Cáceres,39.88855,-5.467399,,ABIERTO 24h. ,927530081,No,No,Sí
E.S. AREA DE SERVICIO RUTA 5 SLU,Repsol,"CR  A-5  P.K. 325,00 D",,Badajoz,38.94755,-6.187535,,ABIERTO 24h. ,924325151,No,No,Sí
E.S. AREA SALIDA 129 S.L.,Repsol,"CR A-43 P.K. 129,00 D",,Albacete,39.2558,-2.583177,,ABIERTO 24h. ,633119121,Sí,Sí,Sí
E.S. AS MOAS,Repsol,"CL AVENIDA DEL EJERCITO, S.N.",,A Coruña,43.3544,-8.393281,, De Lunes a Domingo de 07:00 a 23:00 horas,981171295,Sí,Sí,No
E.S. ASAMA CAMPANAR,Repsol,"CL VALLE BALLESTERA, 44",,Valencia_València,39.47874,-0.4011958,,ABIERTO 24h. ,961477598,Sí,Sí,No
"E.S. ATEN OIL OPERACIONES, S.L.U.",Repsol,"CR A-471  P.K. 27,90 I",,Sevilla,36.92707,-6.071108,,ABIERTO 24h. ,955974530,Sí,No,No
E.S. AUTODROM BAIX P.,Repsol,CL G - POLIGONO RIUCLAR PARC. 169/179,,Tarragona,41.14089,1.230982,, De Lunes a Viernes de 06:00 a 21:00 horas; Sábado de 07:00 a 21:00 horas,977 550 270,Sí,No,No
E.S. AUTO-SERVI.ROMERO,Repsol,"CR N-3     P.K. 262,00 A",,Valencia_València,39.56302,-1.213641,,ABIERTO 24h. ,962170231,Sí,No,Sí
"E.S. AUTOSERVICO CATUXO, S.L",Repsol,"AV DE GALICIA, 13",,Asturias,43.56852,-6.944028,, De Lunes a Domingo de 07:00 a 20:00 horas,985628525,Sí,No,No
"E.S. BAÑALES, S.L.",Repsol,"CR A-471  P.K. 34,00 D",,Sevilla,36.90065,-6.125452,, De Lunes a Viernes de 06:00 a 20:30 horas; Sábado de 07:00 a 20:30 horas; Domingo de 09:00 a 19:00 horas,955971360,Sí,No,No
E.S. BARREAL,Repsol,"CR C-552   P.K. 37,50 I",,A Coruña,43.18964,-8.73231,, De Lunes a Viernes de 06:00 a 23:30 horas; De Sábado a Domingo de 07:00 a 23:15 horas,981733088,Sí,No,No
E.S. BASTIMENTS ALCOCEBRE SL,Repsol,"CR N-340   P.K. 1021,70 I",,Castellón_Castelló,40.29621,0.226356,,ABIERTO 24h. ,964411126,No,No,Sí
E.S. BAYO LIROLA S.A.,Repsol,"CR N-340   P.K. 487,00 I",,Almería,36.95591,-2.127748,,ABIERTO 24h. ,950611306,Sí,No,No
E.S. BAZARRA S.L.,Repsol,"CR C-552   P.K. 93,00 D",,A Coruña,42.96605,-9.193637,, De Lunes a Domingo de 07:00 a 23:00 horas,981745011,Sí,No,No
E.S. BEROGLEZ INVERSIONES SL,Repsol,"CR N-6     P.K. 391,00 D",,León,42.5667,-6.657943,, De Lunes a Sábado de 06:00 a 22:00 horas; Domingo de 08:00 a 20:00 horas,987450260,Sí,Sí,No
"E.S. BESAYA, S.L.- ARENAS DE IGUÑA",Repsol,CR N-611   P.K. 163.20 I,,Cantabria,43.18199,-4.052463,, De Lunes a Domingo de 06:00 a 22:00 horas,942826624,No,No,Sí
E.S. BIP BIP PUERTO DE SAGUNTO,Repsol,"CL JUAN ALMAGRO , 2",,Valencia_València,39.66262,-0.2388731,,ABIERTO 24h. ,962683514,Sí,No,No
E.S. BUENAS NOCHES,Repsol,"CR N-340   P.K. 148,00 D",,Málaga,36.38866,-5.205907,,ABIERTO 24h. ,951577926,Sí,No,No
E.S. CALLOSA DE SEGURA,Repsol,"CR-CV913, P.K. 1,00 D",,Alicante_Alacant,38.12583,-0.8672973,, De Lunes a Domingo de 06:00 a 22:00 horas,966758561,Sí,Sí,No
E.S. CAMPOSINES S.C.P.,Repsol,"CR N-420   P.K. 455,60 I",,Tarragona,41.10903,0.5359912,, De Lunes a Domingo de 07:00 a 21:00 horas,977400729,Sí,No,No
E.S. CAÑADA HERMOSA,Repsol,"CR RM-15   P.K. 9,00 A",,Murcia,38.00738,-1.33765,, De Lunes a Domingo de 06:00 a 24:00 horas,968805151,No,No,Sí
E.S. CANIVELL COMBUSTIBLES S.L.U.,Repsol,"CL AVENIDA DE LUGO, 24",,Asturias,43.56651,-5.926754,, De Lunes a Domingo de 07:00 a 23:00 horas,985561018,Sí,Sí,No
"E.S. CAO MOTOR, S.L.",Repsol,"CR AC-115  P.K.1,80 D",,A Coruña,43.48999,-8.161766,, De Lunes a Domingo de 07:00 a 23:00 horas,981344368,Sí,No,No
E.S. CARBURANTES BENICASSIM,Repsol,"CR N-340   P.K. 986,80 I",,Castellón_Castelló,40.04943,0.05304608,, De Lunes a Sábado de 08:00 a 15:00 horas,964300973,Sí,No,No
E.S. CARBURANTES CANIDO,Repsol,"AVDA DE CASTRELOS, 524",,Pontevedra,42.1906,-8.721246,, De Lunes a Domingo de 07:00 a 23:00 horas,986469112,Sí,Sí,No
"E.S. CARBURANTES GEOT,S.L.",Repsol,"CL PASEO EZEQUIEL GONZALEZ, 28",,Segovia,40.94355,-4.120358,,ABIERTO 24h. ,921427910,Sí,No,No
"E.S. CARBURANTES GEOT,S.L.",Repsol,"CR C-605   P.K. 14,00 I",,Segovia,40.98629,-4.263874,, De Lunes a Domingo de 07:00 a 22:00 horas,921490208,Sí,No,No
E.S. CARBURANTES YAGÜE S.L,Repsol,"CR N-6     P.K. 202,20 D",,Valladolid,41.62732,-5.173078,,ABIERTO 24h. ,983780196,Sí,No,Sí
"E.S. CARMEN PRIETO E HIJOS,S.C.",Repsol,"AV ESTALAJES, S.N.",,Badajoz,38.26156,-5.684947,, De Lunes a Domingo de 07:00 a 22:00 horas,924890269,Sí,No,No
E.S. CASCAJOS,Repsol,"CL PIQUERAS, 22",,La Rioja,42.45645,-2.432051,, De Lunes a Domingo de 06:00 a 23:00 horas,941257011,Sí,Sí,No
"E.S. CASO MARTINEZ, S.L",Repsol,"AV GENERALITAT, 44",,Tarragona,40.71856,0.725333,, De Lunes a Domingo de 06:00 a 24:00 horas,977489165,Sí,No,No
E.S. CENTRO,Repsol,"CL AVENIDA SAGUNTO, 5",,Teruel,40.33679,-1.104851,, De Lunes a Domingo de 07:00 a 22:00 horas,978601015,Sí,No,No
E.S. COMBUSTIBLES PLATA,Repsol,"AUTOVIA A-66 (VIA DE LA PLATA) M.D., KM 790",Guillena,Sevilla,37.57222,-6.108937,,ABIERTO 24h.,670-767-616,Sí,No,Sí
"E.S. COSPEITO,S.L.",Repsol,AVEDINA CIDADE DE VERIA S/N.,,Lugo,43.23655,-7.554157,, De Lunes a Domingo de 08:00 a 23:00 horas,655082631,Sí,No,No
E.S. COVALCYSA DSC,Repsol,"CR CM-412  P.K. 84,80 D",,Ciudad Real,38.76624,-3.398168,, De Lunes a Domingo de 06:00 a 23:00 horas,926325057,Sí,Sí,No
E.S. CRED AREA Sº PONFERRADA M.D.,Repsol,"CR A-6  P.K. 390,30 D",,León,42.58443,-6.625631,,ABIERTO 24h. ,987426982,Sí,Sí,Sí
E.S. CRED AREA Sº PONFERRADA M.I.,Repsol,"CR A-6  P.K. 390,30 I",,León,42.58398,-6.629395,,ABIERTO 24h. ,987427941,Sí,Sí,Sí
E.S. CRED AVENIDA MERIDIANA,Repsol,"CL AVENIDA MERIDIANA, 267",,Barcelona,41.42105,2.186387,, De Lunes a Domingo de 07:00 a 23:00 horas,934086211,Sí,Sí,No
E.S. CRED CABECICOS BLANCOS,Repsol,"CR  A-7 P.K. 641,00 I",,Murcia,37.91242,-1.313552,,ABIERTO 24h. ,968668523,Sí,Sí,No
E.S. CRED CASILLAS DEL ANGEL,Repsol,"CL CASILLAS DEL ANGEL, 132",,Las Palmas,28.48822,-13.97409,, De Lunes a Sábado de 06:00 a 22:00 horas,928538229,Sí,Sí,No
E.S. CRED COIROS I,Repsol,CR A-6 P.K. 558 D,,A Coruña,43.24045,-8.134957,,ABIERTO 24h. ,981796442,Sí,Sí,No
E.S. CRED COIROS II,Repsol,CR A-6 P.K. 558 I,,A Coruña,43.2393,-8.13456,,L a D de 7:00 a 23:00,981796148,Sí,Sí,No
E.S. CRED DARSENA PESQUERA,Repsol,"VIA INTERIOR DEL PUERTO, S/N",,Santa Cruz de Tenerife,28.49641,-16.20866,, De Lunes a Domingo de 07:00 a 21:00 horas,922549193,Sí,Sí,No
E.S. CRED DIAGONAL PLAZA,Repsol,"CL AVDA DIAGONAL PLAZA ,13",,Zaragoza,41.63581,-0.9912049,,ABIERTO 24h. ,876768833,Sí,Sí,No
E.S. CRED ECO ZARAGOZA,Repsol,"CL AVDA CASABLANCA ,11",,Zaragoza,41.62296,-0.9391594,, De Lunes a Viernes de 08:00 a 18:00 horas,976939205,Sí,Sí,No
E.S. CRED ECUADOR,Repsol,CL AVDA  EL ECUADOR (ESQ. GRAL.LLORENS) S/N,,Valencia_València,39.49296,-0.3867743,, De Lunes a Domingo de 06:00 a 20:00 horas,963476046,Sí,Sí,No
E.S. CRED EL CONSUL,Repsol,CL DEMÓSTONES ESQ. AVDA JENOFONTES S/N,,Málaga,36.7185,-4.484278,,ABIERTO 24h. ,952109472,Sí,Sí,No
E.S. CRED EL MESON,Repsol,"CR N-525  P.K. 136,70 I",,Ourense,42.03114,-7.179932,,ABIERTO 24h. ,988421236,Sí,Sí,Sí
E.S. CRED EL PADUL,Repsol,"CR A-44 P.K. 147,00 D",,Granada,37.04615,-3.654149,, De Lunes a Domingo de 06:00 a 22:00 horas,958347291,Sí,Sí,No
E.S. CRED EL PEÑASCO,Repsol,"CL VALLE INCLAN , S.N.",,Málaga,36.73631,-4.434474,,ABIERTO 24h. ,952274347,Sí,Sí,No
E.S. CRED LARIN,Repsol,"CR A-55  P.K. 15,30 I",,A Coruña,43.27471,-8.528744,,L a D de 7:00 a 23:00,981190442,Sí,Sí,No
E.S. CRED LEGASA IZQ,Repsol,"CR  N-121A , P.K. 44,5 M.I.",,Navarra,43.12998,-1.631392,, De Lunes a Domingo de 06:00 a 22:00 horas,948592409,Sí,Sí,Sí
E.S. CRED LOS BARRIOS,Repsol,"CR A-381 P.K. 80,00 I",,Cádiz,36.19979,-5.514571,,ABIERTO 24h. ,956622967,Sí,Sí,No
E.S. CRED LOS CAMPONES,Repsol,PG  P.IND. LOS CAMPONES INTERS. AS-19 (PARC.1 Y 4),,Asturias,43.53005,-5.707023,, De Lunes a Domingo de 06:00 a 24:00 horas,985324659,Sí,Sí,No
E.S. CRED MIERES,Repsol,"POLIGONO VEGA ARRIBA, S.N.",,Girona,43.23697,-5.778833,, De Lunes a Domingo de 07:00 a 23:00 horas,985451764,Sí,Sí,No
E.S. CRED MONCADA,Repsol,"CR N-152   P.K. 4,85 D",,Barcelona,41.49169,2.185339,, De Lunes a Domingo de 05:00 a 23:00 horas,935643003,Sí,Sí,No
E.S. CRED MORA M.D.,Repsol,"CR CM-42  P.K. 21,3 D",,Toledo,39.6932,-3.835679,, De Lunes a Domingo de 06:00 a 22:00 horas,925340510,Sí,Sí,No
E.S. CRED MOSTOLES (CTR),Repsol,CR M-856 ROTON. ENTR.MOSTOLES CONFL.A-5,,Madrid,40.33408,-3.886682,,ABIERTO 24h. ,916655785,Sí,Sí,No
E.S. CRED PALOL DE REVARDIT,Repsol,CR  C-66 P.K. 36 D,,Girona,42.04812,2.819461,, De Lunes a Domingo de 06:00 a 22:00 horas,972171712,Sí,Sí,No
E.S. CRED Pº DE LA MINA,Repsol,"CL PASEO DE LA MINA, 12",,Zaragoza,41.64748,-0.8774247,, De Lunes a Sábado de 06:00 a 24:00 horas; Festivo de 06:00 a 22:00 horas,976219248,Sí,Sí,No
E.S. CRED Pº MARITIMO HUELVA,Repsol,"CL BARRIADA MOLINO DE LA VEGA ,37",,Huelva,37.26766,-6.958237,,ABIERTO 24h. ,959254138,Sí,Sí,No
E.S. CRED PUMARIN-GIJON,Repsol,"CL AVENIDA CONSTITUCION, 220",,Asturias,43.52227,-5.683714,,ABIERTO 24h. ,985388400,Sí,Sí,No
E.S. CRED SABIÑANIGO,Repsol,"CL AVENIDA HUESCA, 22",,Huesca,42.51475,-0.3613595,, De Lunes a Domingo de 06:00 a 22:00 horas,974480365,Sí,Sí,No
E.S. CRED SANCTI SPIRITUS,Repsol,"CR A-62  P.K. 309,00 I",,Salamanca,40.71157,-6.387456,, De Lunes a Domingo de 06:00 a 22:00 horas,923484287,Sí,Sí,Sí
E.S. CRED TIRANT LO BLANCH,Repsol,"CL AV TIRANT LO BLANC, S.N.",,Alicante_Alacant,38.70874,-0.4725731,, De Lunes a Viernes de 06:30 a 20:00 horas; De Sábado a Domingo de 08:00 a 20:00 horas,965336630,Sí,Sí,No
E.S. CRED VALDECARPINTEROS,Repsol,"CR N-620  P.K. 313,30 D",,Salamanca,40.66367,-6.438003,,ABIERTO 24h. ,923480313,Sí,Sí,Sí
E.S. CRED VILASSAR DE DALT,Repsol,CL PIO XII S.N.,,Barcelona,41.51132,2.361375,, De Lunes a Domingo de 06:00 a 22:00 horas,937533642,Sí,Sí,No
E.S. DAVID RAMIREZ PARRALEJO,Repsol,"CR CV-855 P.K. 8,30 D",,Alicante_Alacant,38.17709,-0.7021727,, De Lunes a Viernes de 07:00 a 21:00 horas; De Sábado a Domingo de 07:00 a 20:00 horas,965077699,Sí,No,No
E.S. DAVIDIGA SL,Repsol,"CL CALERA, 100",,Toledo,39.95335,-4.8476,, De Lunes a Domingo de 06:00 a 22:00 horas,925806776,Sí,No,No
E.S. DE PANTOJA,Repsol,"CR CM-4004 P.K. 29,90 I",,Toledo,40.05154,-3.836907,,ABIERTO 24h. ,925554280,Sí,No,No
E.S. DEL REY GONZALEZ SL,Repsol,"CR AB-430  P.K. 530,30 I",,Albacete,38.91616,-1.725997,, De Lunes a Domingo de 06:00 a 22:00 horas,967260415,Sí,Sí,No
E.S. DEL REY GONZALEZ SL,Repsol,"CR N-322   P.K. 359,00 D",,Albacete,39.03318,-1.845044,, De Lunes a Viernes de 07:00 a 14:00 horas; De Sábado a Domingo de 09:00 a 14:00 horas,967520510,Sí,No,No
E.S. DELICIAS,Repsol,"CR A-431   P.K. 2,00 D",,Córdoba,37.88328,-4.80543,,ABIERTO 24h. ,957465202,Sí,No,No
"E.S. DELTA AMOROS, S.L",Repsol,"CL JUAN BOSCO, 44-46",,Tarragona,40.71549,0.7451818,, Lunes de 06:00 a 24:00 horas,977481523,Sí,No,No
E.S. DIAMOND S.L.,Repsol,"CL AVENIDA AVIACION, 32",,Madrid,40.37386,-3.771555,,ABIERTO 24h. ,917107606,Sí,No,No
E.S. DIAZ BARRIGA S.L.,Repsol,CR BA-426  P.K. 7.90 I,,Badajoz,39.08596,-5.891302,, De Lunes a Sábado de 07:00 a 15:00 horas; Domingo de 08:00 a 15:00 horas,924853602,Sí,No,No
"E.S. DOMINGUEZ JABALQUINTO, S.L.",Repsol,CL AVENIDA JOAQUIN COSTA S.N.,,Jaén,37.87294,-4.176183,, De Lunes a Domingo de 06:00 a 22:00 horas,953546497,Sí,No,No
E.S. DONABRI S.L.,Repsol,A7 SALIDA 289 ENLACE CV3211,,Castellón_Castelló,39.77388,-0.2261932,,ABIERTO 24h. ,962612444,No,No,Sí
E.S. DULANTZI,Repsol,Kale Gasteiz Bidea 59,,Araba_Álava,42.84278,-2.519167,, De Lunes a Domingo de 07:00 a 22:00 horas,945420654,Sí,No,No
E.S. ECO ALHÁNDIGA,Repsol,"CR N-501   P.K. 84,00 I",,Salamanca,40.94577,-5.554383,, De Lunes a Viernes de 07:00 a 22:00 horas; De Sábado a Domingo de 08:00 a 22:00 horas,923306657,Sí,No,No
E.S. EGARA 2005 SL,Repsol,"CR C-63 P.K. 9,40 I",,Girona,41.76632,2.780528,, De Lunes a Domingo de 06:00 a 22:00 horas,972850002,Sí,Sí,No
"E.S. EL BATAN,SA",Repsol,"CR A-5     P.K. 5,40 D",,Madrid,40.40163,-3.761589,,ABIERTO 24h. ,915181532,Sí,Sí,No
"E.S. EL BRUCH, S.A.",Repsol,"CR  A-2     P.K. 567,00 A",,Barcelona,41.59306,1.750536,,ABIERTO 24h. ,937710472,Sí,No,Sí
E.S. EL CHICO DE LA FELI,Repsol,"CR C-526   P.K. 90,00 D",,Salamanca,40.38666,-6.608167,, De Lunes a Sábado de 07:00 a 20:30 horas; Domingo de 08:00 a 20:30 horas,923486231,Sí,No,No
"E.S. EL MORELL,S.L.",Repsol,"CL AVENIDA LA PAU, S.N.",,Tarragona,41.19316,1.203206,, De Lunes a Domingo de 06:00 a 22:00 horas,977840592,Sí,Sí,No
"E.S. EL PARETON,S.L.",Repsol,"CR MU-3315 P.K. 9,00 D",,Murcia,37.71772,-1.415909,, De Lunes a Domingo de 07:00 a 19:00 horas,968429268,Sí,No,No
E.S. EL POLEAR,Repsol,"AUTOVIA  A-92M, P.K.8,00 I",,Málaga,37.06686,-4.327252,,ABIERTO 24h. ,952031980,No,No,Sí
E.S. EL POLIGONO,Repsol,"CL EL EFEBO,1",,Málaga,37.0294,-4.534625,,ABIERTO 24h. ,952703751,Sí,No,No
"E.S. EL PRADO DE GOMEZSERRACIN,S.L.",Repsol,"CR CL-601  P.K. 62,90 D",,Segovia,41.29169,-4.300082,, De Lunes a Domingo de 07:00 a 22:00 horas,660958185,No,No,Sí
E.S. EL QUEJIGAL S.L.,Repsol,"CR EX-A1 P.K. 16,00 D",,Cáceres,39.91987,-5.759256,,ABIERTO 24h. ,927-57-71-82,No,No,Sí
E.S. EL TELENO S.A.,Repsol,"CR N-6     P.K. 335,00 A",,León,42.51667,-6.128438,,ABIERTO 24h. ,987606542,Sí,No,No
E.S. ELOMENDI S.L.,Repsol,"POLG. IND. ARETA, S.N. (RONDA ESTE)",,Navarra,42.81826,-1.603248,, De Lunes a Viernes de 06:00 a 22:00 horas; De Sábado a Domingo de 07:00 a 22:00 horas,948322202,Sí,No,No
"E.S. ELOMENDI, S.L.",Repsol,"AV DE PAMPLONA, S.N.",,Navarra,42.5341,-1.670649,, De Lunes a Sábado de 06:00 a 22:00 horas; Domingo de 07:00 a 15:00 horas,948702918,Sí,No,No
"E.S. ELOMENDI,S.L.",Repsol,CR N-135   P.K. 4.60 D,,Navarra,42.81608,-1.593917,, De Lunes a Domingo de 06:00 a 22:00 horas,948332876,Sí,Sí,No
"E.S. ELVIRIA,S.L.",Repsol,"CR N-340   P.K. 192,10 I",,Málaga,36.49426,-4.766061,,ABIERTO 24h. ,952830220,Sí,No,No
"E.S. ELVIRIA,S.L.",Repsol,"CR N-340   P.K. 192,50 D",,Málaga,36.49356,-4.764303,,ABIERTO 24h. ,952831256,Sí,No,No
E.S. ENERGY EXPRESS SL,Repsol,"CR C-17   P.K. 26,65 D",,Barcelona,41.66479,2.269567,, De Lunes a Jueves de 05:00 a 23:00 horas; Viernes de 05:00 a 24:00 horas; Sábado de 00:00 a 24:00 horas; Domingo de 00:00 a 23:00 horas,938432853,Sí,No,No
E.S. ENGUERA S.L.,Repsol,"CL AVENIDA DE LA CONSTITUCION, 20",,Valencia_València,38.98215,-0.6875995,, Festivo de 07:00 a 22:00 horas,962224225,Sí,Sí,No
E.S. ESTACIONES CONVENIENCE Y SERVI,Repsol,"CR N-340 P.K. 674,50 D",,Murcia,38.06337,-1.038593,,ABIERTO 24h. ,968277081,No,No,Sí
"E.S. FAER, S.L.",Repsol,"CR C-519   P.K. 11,70 D",,Valladolid,41.80814,-5.14515,, De Lunes a Domingo de 09:00 a 19:00 horas,983714247,Sí,No,Sí
E.S. FAM. COCA PEREZ,Repsol,"CR C-610   P.K. 26,00 I",,Ávila,41.09298,-4.999999,, De Lunes a Sábado de 07:00 a 21:00 horas; Domingo de 08:00 a 14:00 horas,920320062,Sí,No,Sí
E.S. FASANCORT SL,Repsol,"A-7, pk 459,8 MI",,Almería,36.87542,-2.337874,,ABIERTO 24h. ,950172222,Sí,No,Sí
E.S. FCO JAVIER POYATOS MOLINA,Repsol,"PG P.I. FRANCOLI, PARC-1",,Tarragona,41.11393,1.222734,, De Lunes a Viernes de 07:00 a 19:00 horas,977540770,Sí,No,No
E.S. FCO.JAVIER POYATOS MOLINA,Repsol,"CR N-240   P.K. 7,00 D",,Tarragona,41.18906,1.242843,, De Lunes a Viernes de 07:00 a 19:00 horas,977625110,Sí,No,No
"E.S. FRESOGAS,S.L.",Repsol,"CL AVENIDA DOCTOR OTERO ULLOA, 1",,Pontevedra,42.3737,-8.727499,, De Lunes a Domingo de 06:00 a 23:00 horas,986702071,Sí,No,No
E.S. G DE RECURSOS ENERGETICOS GUIL,Repsol,"CR C-3331  P.K. 20,00 D",,Cádiz,36.68302,-5.451918,, De Lunes a Domingo de 06:30 a 22:30 horas,956461717,Sí,Sí,No
"E.S. GARDOAN 63,S.L.",Repsol,"V-23 Puçol-Sagunto P.K. 0,50 D",,Valencia_València,39.63288,-0.2967281,, De Lunes a Viernes de 08:00 a 20:00 horas; De Sábado a Domingo de 08:00 a 20:00 horas,962653012,Sí,No,Sí
E.S. GASOL.SAN MIGUEL,Repsol,"CL DUQUE DE LIRIA, 132",,Valencia_València,39.63008,-0.6025356,, De Lunes a Domingo de 07:00 a 20:30 horas,962781138,Sí,No,No
E.S. GASOLEOS EL BALCON,Repsol,"CR  A-4  P.K. 326,00 I",,Jaén,38.02947,-4.079762,,ABIERTO 24h. ,953500912,No,No,Sí
E.S. GASOLEOS ENERGÉTICOS DEL SUR,Repsol,"CR CO-761  P.K. 1,00 I",,Córdoba,37.43045,-4.602281,, De Lunes a Domingo de 06:00 a 22:00 horas,629221034,Sí,No,No
E.S. GASOLEOS ENERGETICOS DEL SUR S,Repsol,CR CO-741  P.K. 0.80 I,,Córdoba,37.60474,-4.734614,, De Lunes a Domingo de 05:30 a 23:30 horas,957682362,Sí,Sí,No
E.S. GASOLINERA LA HOYA SL,Repsol,"CR CV-853 P.K. 6,70 I",,Alicante_Alacant,38.196,-0.6786341,, De Lunes a Domingo de 07:00 a 22:00 horas,965454195,Sí,No,No
E.S. GASOLINERA PORT XABIA,Repsol,"CL AVENIDA DEL PUERTO, 36",,Alicante_Alacant,38.79426,0.1772004,, De Lunes a Domingo de 07:00 a 20:00 horas,966460708,Sí,No,No
E.S. GASOLMILLOS S.L,Repsol,"CR N-120   P.K. 144,00 D",,Burgos,42.39946,-4.038054,, De Lunes a Sábado de 07:00 a 22:00 horas; Domingo de 08:00 a 22:00 horas,947370047,Sí,No,No
E.S. GEMMA RIVERA MORE,Repsol,"CR N-260   P.K. 385,50 D",,Huesca,42.51301,0.4824527,, De Lunes a Domingo de 08:00 a 21:00 horas,974553059,Sí,No,No
"E.S. GERNILAN,S.A. GERNIKA Y LUNO",Repsol,"CL POL.IND. TXAPORTA, S.N.",,Bizkaia,43.30491,-2.678324,, De Lunes a Viernes de 06:00 a 22:30 horas; Sábado de 07:00 a 22:30 horas; Domingo de 07:00 a 22:00 horas,946256261,Sí,Sí,No
E.S. GEX SL,Repsol,"CR N-340   P.K. 1159,5 D",,Tarragona,41.1152,1.222322,, De Lunes a Viernes de 06:00 a 22:00 horas; De Sábado a Domingo de 06:00 a 20:00 horas,977540789,Sí,Sí,No
E.S. GIL S.L.,Repsol,"CL AVENIDA DE VALENCIA, 3",,Valencia_València,38.828,-0.6056663,,ABIERTO 24h. ,962381295,Sí,No,No
E.S. GIL S.L.,Repsol,"CL AVENIDA ALMANSA, 25",,Valencia_València,38.82084,-0.6170589,, De Lunes a Domingo de 06:00 a 22:00 horas,962380035,Sí,No,No
E.S. GILMASA S.L.,Repsol,"CL AVENIDA ALBUFERA, 319",,Madrid,40.3844,-3.632928,,ABIERTO 24h. ,913310590,Sí,Sí,No
E.S. GLEM ELDA,Repsol,"CR C-3213  P.K. 15,70 I",,Alicante_Alacant,38.47395,-0.8047491,, De Lunes a Viernes de 06:00 a 20:00 horas; De Sábado a Domingo de 08:00 a 20:00 horas,965398903,Sí,No,No
E.S. GLEM EXC. ELDA,Repsol,AV  Centro excursionista Eldendese s/n,,Alicante_Alacant,38.47004,-0.8062367,, De Lunes a Viernes de 06:00 a 20:00 horas; De Sábado a Domingo de 08:00 a 14:00 horas,966980253,Sí,No,No
E.S. GLEM SL ELCHE,Repsol,"CAMINO VIEJO ELCHE-SANTA P.K. 0,2",,Alicante_Alacant,38.2579,-0.6782729,, De Lunes a Viernes de 06:00 a 20:00 horas; De Sábado a Domingo de 08:00 a 14:00 horas,965453545,Sí,No,No
"E.S. GLEM, S.L. CASTALLA 2",Repsol,"CR CV-815 P.K. 5,70 D",,Alicante_Alacant,38.57808,-0.6552098,, De Lunes a Viernes de 06:00 a 22:00 horas; De Sábado a Domingo de 07:00 a 22:00 horas,965560710,Sí,Sí,No
"E.S. GLEM,S.L. AGOST.",Repsol,"CR A-220   P.K. 11,00 I",,Alicante_Alacant,38.43446,-0.6371129,, De Lunes a Viernes de 07:00 a 20:00 horas; De Sábado a Domingo de 08:00 a 15:00 horas,965691185,Sí,No,No
E.S. GRUPO AIZAGA SL,Repsol,"CR N-240  P.K. 15,00 D",,Navarra,42.89205,-1.777555,Oferta de Menú por 5€ / Bebidas gratis para fuerzas de seguridad del estado y servicios en general,L-V:8H:00-23H:00 | S:9H:00-16:00,848463018,Sí,Sí,Sí
E.S. GRUPO EMPRESARIAL EESS E.F.C.,Repsol,"CR N-525   P.K. 103,00 I",,Zamora,42.03436,-6.84236,, De Lunes a Viernes de 07:00 a 21:00 horas; Sábado de 08:00 a 19:00 horas; Domingo de 09:00 a 18:00 horas,980567815,No,No,Sí
E.S. GRUPO MAICAS PEIRO SLU,Repsol,"CR N-234   P.K. 123,50 D",,Teruel,40.35769,-1.136199,, De Lunes a Domingo de 06:00 a 22:00 horas,978611341,Sí,Sí,Sí
E.S. GUIBE SL.,Repsol,"CR M-509   P.K. 7,30 I",,Madrid,40.48497,-3.974871,,ABIERTO 24h. ,918150079,Sí,No,No
E.S. GUIU SENTIS,Repsol,"AV GARRIGUES, 44",,Lleida,41.51764,0.6196763,, De Lunes a Domingo de 07:00 a 21:00 horas,973136056,No,No,Sí
E.S. H. FRIGOLS,Repsol,"CR VP-3076 P.K. 4,30 D",,Valencia_València,39.03233,-0.6550138,, De Lunes a Domingo de 06:00 a 22:00 horas,96222051,Sí,No,No
"E.S. HERRERO, S. L.",Repsol,"CL CORONA DE ARAGON, 52",,Huesca,42.03469,0.1282539,, De Lunes a Domingo de 08:00 a 21:00 horas,974311248,Sí,Sí,No
"E.S. HERSAN, S.L.",Repsol,"CL AV. GARCIA LORCA, 17 ARROYO LA MIEL",,Málaga,36.59466,-4.528167,,ABIERTO 24h. ,952564655,Sí,No,No
E.S. HIDROCARBUROS EL MAMI,Repsol,"CR AL-201  P.K. 1,6 I (EL MAMI)",,Almería,36.85363,-2.420792,, De Lunes a Viernes de 06:00 a 21:00 horas; De Sábado a Domingo de 06:00 a 20:30 horas,950291921,Sí,No,No
E.S. HIPONOVA SL,Repsol,"CR C-335   P.K. 26,80 D",,Granada,37.326,-4.005278,, De Lunes a Sábado de 06:00 a 22:00 horas; Domingo de 08:00 a 22:00 horas,958336201,Sí,No,No
E.S. HISPANO MURANO,Repsol,UR ANDALUCIA NUEVA (P. BANUS),,Málaga,36.48689,-4.955066,,ABIERTO 24h. ,952816959,Sí,No,No
"E.S. HNOS PRIETO DE BOAL,S.L.",Repsol,"PG RIO PINTO DE JARRIO, PARC.102",,Asturias,43.54215,-6.764214,, De Lunes a Domingo de 07:00 a 23:00 horas,985624850,Sí,No,No
E.S. IANLLUC S.L.,Repsol,"CR N-620   P.K. 244,00 D",,Salamanca,40.95366,-5.726504,, De Lunes a Sábado de 07:30 a 15:00 horas,923192445,Sí,No,No
E.S. INDALICA COPEC SA,Repsol,"CR A-92  P.K. 279,08 I",,Granada,37.32249,-3.296945,, De Lunes a Viernes de 06:30 a 22:30 horas; De Sábado a Domingo de 07:30 a 22:30 horas,958680046,Sí,No,No
E.S. INDALICA COPEC SA,Repsol,"CR A-92  P.K. 279,00 D",,Granada,37.32082,-3.297457,, De Lunes a Viernes de 06:30 a 22:30 horas; De Sábado a Domingo de 07:30 a 22:30 horas,958680194,Sí,No,No
E.S. INICIATIVAS Y ESTACIONES DEL N,Repsol,"CR N-120   P.K. 162,00 D",,Burgos,42.40292,-4.238244,, De Lunes a Domingo de 07:00 a 22:00 horas,947372461,Sí,No,No
E.S. INTER-ALFARA SA,Repsol,"CR CV-35   P.K. 67,90 D",,Valencia_València,39.7496,-0.9921731,,ABIERTO 24h. ,962100107,Sí,No,No
E.S. ISIDORO BLAS GARCIA,Repsol,CR N-120   P.K. 342.50 D,,León,42.44807,-5.966108,, De Lunes a Viernes de 06:00 a 22:00 horas; De Sábado a Domingo de 08:00 a 20:00 horas,987687000,Sí,No,No
E.S. ISLA (IBIZA),Repsol,CR PM-801  P.K. 1.20 I (AEROPUERTO),,Illes Balears,38.90549,1.417965,, De Lunes a Domingo de 07:00 a 23:00 horas,971393201,Sí,No,No
"E.S. J. GOLDAR, S.L.",Repsol,"CR N-611   P.K. 58,70 D",,Palencia,42.41365,-4.352701,, De Lunes a Viernes de 08:00 a 20:00 horas; De Sábado a Domingo de 09:00 a 16:00 horas,979817052,No,No,Sí
"E.S. J.M. MARTIN MORENO E HIJOS ,CB",Repsol,"CL RONDA SANTO DOMINGO, 3",,Ciudad Real,38.89058,-3.715554,, De Lunes a Sábado de 06:30 a 22:00 horas; Festivo de 08:30 a 21:00 horas,653611610,Sí,No,No
E.S. J.V. TORRES SANCHIS E HIJOS S.,Repsol,"CR C-3324 (CV-550) PK 1,40  D SALIDA 38",,Valencia_València,39.12968,-0.5081047,, De Lunes a Domingo de 06:00 a 22:00 horas,962442292,Sí,Sí,Sí
E.S. JAIME I S.A.,Repsol,"CR A-1234  P.K. 22,25 I",,Huesca,41.67245,0.1879128,, De Lunes a Viernes de 07:30 a 21:30 horas; Sábado de 07:30 a 14:00 horas,974456282,Sí,No,No
"E.S. JAIME I, SA.",Repsol,"CL AVENIDA DE LERIDA, 31",,Huesca,41.91109,0.1968127,,ABIERTO 24h. ,974403817,Sí,No,No
"E.S. JAIME I, SA.",Repsol,"CR A-1234  P.K. 28,90 D",,Huesca,41.72184,0.1466279,,ABIERTO 24h. ,974469470,Sí,No,No
E.S. JAVIER ANGEL CABRERA LAPARRA,Repsol,CR N-332   P.K. 155.50 I,,Alicante_Alacant,38.58653,-0.06473277,, De Lunes a Viernes de 07:00 a 20:00 horas; De Sábado a Domingo de 09:00 a 17:00 horas,965845561,Sí,No,No
"E.S. JIMENEZ CONESA,F.",Repsol,"CR A-30   P.K. 423,00 A",,Murcia,37.76756,-1.069352,,ABIERTO 24h. ,968160224,No,No,Sí
E.S. JOSE LUIS SOLER ACUÑA,Repsol,"CR N-340   P.K.1110,00 D",,Tarragona,40.89661,0.7479367,, De Lunes a Domingo de 06:00 a 20:00 horas,977493312,Sí,No,No
E.S. JUAN CARLOS RODRIGUEZ LOPEZ,Repsol,"CR N-332   P.K. 122,50 D",,Alicante_Alacant,38.45018,-0.3736191,, De Lunes a Domingo de 06:30 a 20:00 horas,965630097,Sí,No,No
"E.S. KARENTO, S.L.",Repsol,CR A-5   P.K. 162.10 D,,Toledo,39.89566,-5.332811,,ABIERTO 24h. ,608241089,Sí,No,No
"E.S. L. GUARDIOLA, S.L",Repsol,"CL SAN ISIDRO, 10",,Alicante_Alacant,38.64789,-0.1208628,, De Lunes a Viernes de 07:00 a 21:00 horas; Sábado de 07:00 a 15:00 horas,965880052,Sí,No,No
E.S. LA CALA,Repsol,CL AVENIDA DE MALAGA S.N.,,Málaga,36.71609,-4.304956,,ABIERTO 24h. ,952407154,Sí,No,No
E.S. LA COLINA,Repsol,"AV MANUEL FRAGA IRIBARNE, 14",,Málaga,36.64142,-4.494936,,ABIERTO 24h. ,952375154,Sí,No,No
"E.S. LA CRUZANZANA,SL.",Repsol,"CR N-2     P.K. 412,00 I",,Huesca,41.513,0.08844052,, De Lunes a Domingo de 06:00 a 23:00 horas,974463044,No,No,Sí
"E.S. LA FUENTE,S.L.",Repsol,"CL AVENIDA ARIAS DE VELASCO, 2",,Málaga,36.51598,-4.880095,,ABIERTO 24h. ,952772090,Sí,No,No
E.S. LA GRANADINA,Repsol,"CR A-7  P.K. 732,00 I",,Alicante_Alacant,38.17505,-0.8541226,,ABIERTO 24h. ,965486733,Sí,No,Sí
E.S. LA LOMA,Repsol,"CR A-44  P.K. 153,00 D",,Granada,36.98678,-3.605778,,ABIERTO 24h. ,958782790,No,No,Sí
E.S. LA PANADELLA,Repsol,"CR N-2     P.K. 535,00 A",,Barcelona,41.61717,1.399725,,ABIERTO 24h. ,938092011,Sí,No,No
"E.S. LA PISTA, S.L.",Repsol,"CR N-630   P.K. 489,90 D",,Cáceres,39.91579,-6.246785,, De Lunes a Domingo de 07:00 a 14:00 horas,927453274,Sí,No,No
E.S. LA SENIA,Repsol,"CL TARRAGONA, 33",,Tarragona,40.63465,0.2843528,,ABIERTO 24h. ,977713583,Sí,No,No
E.S. LA TORRE,Repsol,"AV DE ANDALUCIA, S.N.",,Málaga,36.74781,-4.082821,,ABIERTO 24h. ,952542204,Sí,No,No
"E.S. LA TORRE, S.L.",Repsol,"CR N-340   P.K. 1011,60 I",,Castellón_Castelló,40.22224,0.2013407,,ABIERTO 24h. ,670352982,Sí,No,Sí
E.S. LAGUNA SC,Repsol,"CL FERNANDO EL CATOLICO, 56",,Zaragoza,41.49186,-0.5210873,, De Lunes a Viernes de 07:00 a 21:00 horas; Sábado de 08:00 a 14:00 horas,376165100,Sí,No,No
"E.S. LAS CUMBRES,S.L.",Repsol,"CL AVENIDA SANCHEZ MECA, S.N.",,Murcia,37.59635,-0.9660178,,ABIERTO 24h. ,968507352,Sí,No,No
"E.S. LAS CUMBRES,S.L.",Repsol,"CR N-301   P.K. 410,00 D",,Murcia,37.86985,-1.130101,,ABIERTO 24h. ,968383214,Sí,No,Sí
E.S. LAS LAGUNAS,Repsol,"CTRA TO-2516 KM 0,1",,Toledo,39.99266,-3.964158,,CERRADO NOCHES TODO EL AÑO,925590616,Sí,No,No
E.S. LAS LAGUNAS - VILLALPANDO,Repsol,"CR C-612  P.K. 49,00 D",,Zamora,41.86046,-5.417702,, De Lunes a Domingo de 07:00 a 23:00 horas,980660458,Sí,No,No
E.S. LAS NAVAS,Repsol,PG IND. EL BRAJERO C-PARAL.,,Ávila,40.59504,-4.333414,, De Lunes a Viernes de 06:00 a 20:00 horas; Festivo de 07:00 a 15:00 horas,918972340,Sí,Sí,No
"E.S. LAS PALMERAS, S.L.",Repsol,"CR B-2002  P.K. 2,80 I",,Barcelona,41.38293,2.017342,,ABIERTO 24h. ,936561406,Sí,No,No
E.S. LAS PEDRIZAS,Repsol,"CR A-45   P.K. 159,50 I",,Málaga,36.81295,-4.441931,, De Lunes a Domingo de 06:00 a 22:00 horas,952110919,Sí,No,No
"E.S. LES 4 RODES, S.L.",Repsol,"CR N-420   P.K. 467,10 D",,Tarragona,41.09366,0.6479059,, De Lunes a Domingo de 06:00 a 22:00 horas,977400607,Sí,No,No
"E.S. LLODRA,S.L.",Repsol,"CL REG ESQ CL SA CREU, S.N.",,Illes Balears,39.68686,2.839953,, De Lunes a Sábado de 07:00 a 21:00 horas,971870574,Sí,No,No
E.S. LORETO SL,Repsol,"CR A-92    P.K. 210,00 D",,Granada,37.18492,-3.958857,, De Lunes a Domingo de 07:00 a 22:00 horas,958443300,Sí,No,No
E.S. LOS ALAMOS,Repsol,"AV MANUEL FRAGA IRIBARNE, 14",,Málaga,36.64462,-4.489945,,ABIERTO 24h. ,952375695,Sí,No,No
E.S. LOS CABALLOS II,Repsol,"CR N-4     P.K. 346,60 D",,Jaén,37.99002,-4.261346,, De Lunes a Domingo de 06:00 a 22:00 horas,953516772,Sí,No,No
"E.S. LOS MARTINEZ,S.L.",Repsol,"CR N-340   P.K. 696,70 A",,Alicante_Alacant,38.16484,-0.8944197,,ABIERTO 24h. ,965487001,Sí,No,No
E.S. LOS ROSALES,Repsol,"CL AVENIDA CARLOTA ALEXANDRI, 9",,Málaga,36.61501,-4.503028,,ABIERTO 24h. ,952371203,Sí,No,No
E.S. LUYKAR,Repsol,"CL AVENIDA INGENIERO RIVERA, S.N.",,Palencia,42.26423,-4.406784,, De Lunes a Domingo de 07:00 a 20:30 horas,979810139,Sí,No,No
"E.S. MACE, S.L.",Repsol,"CL PASEO SANTA MARIA DE LA CABEZA, 18",,Madrid,40.40586,-3.695178,,ABIERTO 24h. ,915273061,Sí,Sí,No
E.S. MADRE DEL SOCORRO,Repsol,"CR HU-614  P.K. 8,60 D",,Huelva,37.30154,-6.595492,, De Lunes a Domingo de 06:00 a 22:00 horas,,Sí,No,No
"E.S. MAGAVI, S.A",Repsol,"CR M-505   P.K. 15,50 D",,Madrid,40.57135,-3.994113,,ABIERTO 24h. ,918580077,Sí,No,No
E.S. MAJANEQUE,Repsol,"CR N-437  P.K. 8,10 I",,Córdoba,37.8452,-4.877972,,ABIERTO 24h. ,957328194,Sí,No,No
E.S. MARIA DE HUERVA,Repsol,"CR N-330   P.K. 480,30 D",,Zaragoza,41.54001,-0.9962555,, De Lunes a Domingo de 07:00 a 22:00 horas,976124217,Sí,No,No
E.S. MARIA DEL PRADO VILLA GUTIERRE,Repsol,"CL ARENAL, S.N.",,Ciudad Real,38.94629,-4.60848,, De Lunes a Domingo de 09:00 a 15:00 horas,926779085,No,No,Sí
E.S. MARIA NIEVES GARCIA LLUCH,Repsol,"CR N-430   P.K. 625,00 D",,Valencia_València,38.87862,-0.7539824,, De Lunes a Viernes de 07:00 a 20:00 horas; De Sábado a Domingo de 09:00 a 16:00 horas,962261237,Sí,No,No
"E.S. MIRAT COMBUSTIBLES,S.L",Repsol,CL AVENIDA DE LA ALDEHUELA,,Salamanca,40.95795,-5.653279,, De Lunes a Domingo de 07:00 a 23:00 horas,923181528,Sí,No,No
"E.S. MIRAT COMBUSTIBLES,S.L.",Repsol,"CR N-5     P.K. 253,00 I",,Cáceres,39.46026,-5.87075,, De Lunes a Domingo de 06:00 a 22:00 horas,927659058,Sí,No,No
E.S. MIRAT RIBASECA LEON,Repsol,"CR  C-622  P.K. 4,00 D",,León,42.5336,-5.592975,, De Lunes a Domingo de 07:00 a 23:00 horas,987280266,Sí,No,No
E.S. MONCAVIMA S.L.,Repsol,"AVDA CARLOS III , Nº 139",,Córdoba,37.66467,-4.942773,,ABIERTO 24h. ,957301764,Sí,Sí,Sí
E.S. MONTSACRO,Repsol,"POL. IND. RIAÑO (LANREO), S.N.",,Asturias,43.32626,-5.729684,,ABIERTO 24h. ,985692657,No,No,Sí
E.S. MORALEDA,Repsol,"CR A-92  P.K. 211,20 D",,Granada,37.18258,-3.952749,,ABIERTO 24h. ,958443082,Sí,Sí,No
E.S. MUNUERA S.L.,Repsol,"CR C-3211  P.K. 64,80 D",,Murcia,37.64337,-1.682615,, De Lunes a Sábado de 07:00 a 21:00 horas,968471743,Sí,No,No
E.S. MUNUERA SL,Repsol,CR MU-620   P.K. 5.05 D,,Sevilla,37.45612,-1.734107,, De Lunes a Sábado de 06:30 a 22:30 horas; Festivo de 07:00 a 22:30 horas,636476277,Sí,No,No
E.S. MURRIA HERMANOS,Repsol,"CR N-232   P.K. 134,80 D",,Teruel,41.0526,-0.152782,, De Lunes a Sábado de 06:00 a 22:00 horas; Festivo de 07:00 a 22:00 horas,978870050,No,No,Sí
E.S. N.SRA.DEL OLIVAR,Repsol,"CR A-222   P.K. 40,80 D",,Zaragoza,41.20881,-0.7108503,, De Lunes a Domingo de 07:00 a 22:00 horas,976835034,No,No,Sí
E.S. NAVARRO,Repsol,"AT A-3  P.K. 281,00 I",,Valencia_València,39.53051,-1.165308,, De Lunes a Domingo de 06:00 a 24:00 horas,962302552,Sí,No,No
"E.S. NAVAS A., SL",Repsol,"CR A-1 P.K. 107,40 D",,Segovia,41.25931,-3.591228,,ABIERTO 24h. ,921557345,No,No,Sí
E.S. NESATELI GRUPO DE NEGOCIOS SL,Repsol,"CR N-634   P.K. 299,10 I",,Asturias,43.39863,-4.734978,, De Lunes a Domingo de 06:00 a 22:00 horas,985417017,Sí,Sí,No
"E.S. NIETO MATAS,S.L.",Repsol,"CL FILIBERTO VILLALOBOS, 189",,Salamanca,40.56447,-5.670556,, De Lunes a Viernes de 07:00 a 21:00 horas; De Sábado a Domingo de 09:00 a 14:00 horas,923581148,Sí,No,No
E.S. NIMACI S.L.,Repsol,CR DE TORROELLA A L'ESTARTIT KM 2,,Girona,42.04238,3.140824,, De Lunes a Domingo de 06:00 a 22:00 horas,972761312,Sí,Sí,No
"E.S. NJULIAN, S. L.",Repsol,"CR C-552   P.K. 20,00 D",,A Coruña,43.25346,-8.557861,, De Lunes a Domingo de 07:00 a 23:00 horas,981605082,Sí,No,No
E.S. NUESTRA SEÑORA DEL PRADO,Repsol,"CR CR-722  P.K. 11,70 D",,Ciudad Real,39.21806,-4.284005,, De Lunes a Domingo de 07:00 a 21:00 horas,926785222,Sí,No,No
E.S. NUESTRA SEÑORA PUEYO SA,Repsol,"CR A-222   P.K. 28,10 I",,Zaragoza,41.30966,-0.7424476,, De Lunes a Domingo de 07:00 a 22:00 horas,976830095,Sí,Sí,No
E.S. OGIJARES,Repsol,"CR GR-32-SE  P.K. 1,80 D",,Granada,37.12472,-3.619927,, De Lunes a Domingo de 07:00 a 22:00 horas,958597230,Sí,No,No
"E.S. OJEDA Y OJEDA, S.L.",Repsol,"CR A-6301  P.K. 3,50 I",,Jaén,38.26151,-2.916663,, De Lunes a Domingo de 07:00 a 21:00 horas,953458123,Sí,No,No
E.S. ORTIZ,Repsol,"CR C-250   P.K. 2,00 D",,Girona,41.97,2.839241,, De Lunes a Domingo de 06:00 a 22:00 horas,972205089,Sí,No,No
E.S. OTERO VAZQUEZ SL,Repsol,CR N-642   P.K. 52.10 I,,Lugo,43.67445,-7.421066,, De Lunes a Sábado de 07:00 a 22:30 horas; Festivo de 09:00 a 22:00 horas,982557663,Sí,No,Sí
E.S. PARAISO ESTACION NORTE SLU,Repsol,"CR A-92    P.K. 212,70 I",,Granada,37.18147,-3.929525,,ABIERTO 24h. ,645496344,Sí,Sí,Sí
"E.S. PARRA VIZCAINO, JESUS",Repsol,"CR A-5 P.K. 182,00 I",,Cáceres,39.87364,-5.549922,,ABIERTO 24h. ,927533320,No,No,Sí
E.S. PAU,Repsol,"CR GE-610  P.K. 6,85 D",,Girona,42.31324,3.119853,, De Lunes a Domingo de 07:00 a 21:00 horas,972552008,Sí,No,No
E.S. PETRO-CARIBA S.L.,Repsol,"CR N-330A  P.K. 401,00 I",,Alicante_Alacant,38.34237,-0.6070791,, De Lunes a Viernes de 07:00 a 21:00 horas; Sábado de 08:00 a 14:00 horas,965189549,Sí,No,No
E.S. PETROMORAIRA SL,Repsol,"CR CV-743 P.K. 6,00 I",,Alicante_Alacant,38.68983,0.1348081,, De Lunes a Domingo de 06:00 a 22:00 horas,965744038,Sí,Sí,No
E.S. PETROSELF,Repsol,"AUTOVIA DEL MEDITERRANEO, SALIDA 591 A-7  P.K. 591,50",,Murcia,37.89262,-1.339632,,ABIERTO 24h. ,968659272,No,No,Sí
E.S. PGNO.TORRECIEGA,Repsol,"CL PG. CABEZO BAEZA-BERLIN E-2, S.N.",,Murcia,37.62333,-0.9647066,, De Lunes a Domingo de 06:00 a 22:00 horas,968124203,Sí,No,No
"E.S. PICA,S.L.",Repsol,"CR N-340   P.K. 426,00 D",,Almería,36.80474,-2.621016,, De Lunes a Viernes de 06:00 a 20:30 horas; Festivo de 08:00 a 16:00 horas,950550253,Sí,No,No
E.S. PINOMAR,Repsol,"CR N-340   P.K. 189,00 D",,Málaga,36.50019,-4.798833,,ABIERTO 24h. ,952834883,Sí,No,No
"E.S. PROMOC. Y DISTR. DE GASES ,S.A",Repsol,"CL SUECA, 5",,Valencia_València,39.1674,-0.2588311,, De Lunes a Domingo de 06:00 a 22:00 horas,961720064,Sí,No,No
E.S. PUERTA DE LOS PEDROCHES,Repsol,"CR  N-502  P.K. 366,50 D",,Córdoba,38.37568,-4.977362,, De Lunes a Viernes de 06:00 a 23:00 horas; Festivo de 07:00 a 24:00 horas,957156400,No,No,Sí
"E.S. PULIGARCI, S.L.",Repsol,"CL AVENIDA JUAN CARLOS I, 1",,Alicante_Alacant,38.62656,-0.5679684,, De Lunes a Domingo de 06:00 a 22:00 horas,965552385,Sí,No,No
E.S. RAUSAN S.A.,Repsol,"CR N-2     P.K. 341,00 A",,Zaragoza,41.60685,-0.6911291,,ABIERTO 24h. ,976100273,No,No,Sí
E.S. RICO MATEO S.L.,Repsol,CR N-601   P.K. 159.40 I,,Valladolid,41.3865,-4.685484,, De Lunes a Viernes de 00:00 a 07:00 horas; De Lunes a Viernes de 06:30 a 22:30 horas; Sábado de 06:30 a 14:30 horas; De Sábado a Domingo de 14:30 a 24:00 horas,983609147,Sí,No,Sí
"E.S. ROBLEGAS,S.A.",Repsol,"CL ALFREDO ATIENZA, 156",,Albacete,39.20143,-2.149034,, De Lunes a Domingo de 06:00 a 22:00 horas,967 443322,Sí,Sí,No
E.S. ROGONOIL SL,Repsol,"CR N-6     P.K. 141,00 D",,Valladolid,41.18201,-4.807546,, De Lunes a Domingo de 06:30 a 23:00 horas,983815362,Sí,No,Sí
"E.S. ROMA (CANDAMIL), S.L.",Repsol,"CR C-641   P.K. 32,10 I",,Lugo,43.35534,-7.774972,, De Lunes a Sábado de 07:00 a 23:00 horas,982501288,Sí,No,No
"E.S. ROMA (XOVE), S.L.",Repsol,"CR LU-862   P.K. 97,00 I",,Lugo,43.68166,-7.493284,, De Lunes a Sábado de 07:00 a 23:00 horas,982592666,Sí,No,No
E.S. ROSALEDA,Repsol,"CL AVENIDA S. RAMON Y CAJAL, 1",,Málaga,36.7384,-4.424578,, De Lunes a Domingo de 07:00 a 23:00 horas,952251732,Sí,No,No
"E.S. RP CENTRE LLEIDA, S.L.U",Repsol,"CL ACADEMIA, 28",,Lleida,41.61111,0.6181842,,ABIERTO 24h. ,973266038,Sí,No,No
E.S. SAN BLAS S.C.,Repsol,"CL ORIENTE, 22",,Zaragoza,41.52188,-1.600011,, De Lunes a Viernes de 07:30 a 17:00 horas; De Sábado a Domingo de 08:00 a 13:00 horas,976824615,Sí,No,No
E.S. SAN CRISTOBAL,Repsol,"CL AVENIDA JOAQUIN PLANELLES, 51",,A Coruña,43.34746,-8.419007,,ABIERTO 24h. ,981152099,Sí,No,No
E.S. SAN ELOY,Repsol,"CR P-0435  P.K. 0,50 I",,Cádiz,36.70993,-6.089225,, De Lunes a Domingo de 06:30 a 23:00 horas,956186051,Sí,Sí,No
E.S. SAN JUAN (IBIZA),Repsol,"CR C-733   P.K. 19,70 I",,Illes Balears,39.07032,1.496147,, De Lunes a Viernes de 08:00 a 20:00 horas; Festivo de 09:00 a 19:00 horas,971333197,Sí,No,No
"E.S. SAN JUAN,S.L.",Repsol,"CR N-232   P.K. 393,10 I",,La Rioja,42.43139,-2.280067,, De Lunes a Viernes de 06:00 a 22:00 horas; Sábado de 08:00 a 22:00 horas,941431312,Sí,No,No
E.S. SAN MARCOS DE ALMENDRALEJO SL,Repsol,"CR C-422   P.K. 57,70 I",,Badajoz,38.68713,-6.417851,, De Lunes a Domingo de 06:30 a 22:00 horas,924670417,Sí,Sí,No
E.S. SAN ROQUE S.L.,Repsol,CL SAN ROQUE  33,,Pontevedra,41.91214,-8.851233,,ABIERTO 24h. ,986611309,Sí,No,No
E.S. SAN SALVADOR,Repsol,"CR N-240   P.K. 3,70 D",,Tarragona,41.15191,1.240036,, De Lunes a Viernes de 07:00 a 21:00 horas,977520139,Sí,No,No
E.S. SANTA ANA,Repsol,"CR M-607   P.K. 10,50 A",,Madrid,40.5,-3.697954,,ABIERTO 24h. ,917343038,Sí,No,No
E.S. SANTA JULIA,Repsol,CL PLAZA CRUZ HUMILLADERO S.N.,,Málaga,36.71173,-4.440465,,ABIERTO 24h. ,952314847,Sí,No,No
E.S. SERVICIOS PETROLEROS MALLORCA,Repsol,"CR C-719   P.K. 19,00 A",,Illes Balears,39.52654,2.486663,,ABIERTO 24h. ,971692650,Sí,No,No
E.S. SERVICIOS PETROLEROS MALLORCA,Repsol,CL GENERAL LUQUE S.N.,,Illes Balears,39.7117,2.901997,,ABIERTO 24h. ,971883897,Sí,No,No
E.S. SOMESO,Repsol,"ACCESO POL. IND. POCOMACO  P.K. 1,50 I",,A Coruña,43.33653,-8.416333,, De Lunes a Domingo de 07:00 a 23:00 horas,981133115,Sí,Sí,No
E.S. SOTON,Repsol,"Bº TETUAN, CR AS-17 P.K. 48,5",,Asturias,43.27739,-5.617588,, De Lunes a Domingo de 06:00 a 23:00 horas,985672262,Sí,Sí,No
E.S. STA. LUCIA,Repsol,CR  N-525  P.K.  336.4 I,,A Coruña,42.84333,-8.522655,, De Lunes a Domingo de 07:00 a 23:00 horas;,981817407,Sí,No,No
E.S. SUMINISTROS BUENJI SL,Repsol,"CR N-340A  P.K. 646,00 D",,Murcia,37.94122,-1.264686,, De Lunes a Viernes de 05:00 a 22:00 horas; Sábado de 06:00 a 22:00 horas; Domingo de 07:00 a 22:00 horas,868177990,Sí,Sí,Sí
E.S. TERE COMBUSTIBLES,Repsol,"CR C-230   P.K. 50,00 D",,Tarragona,41.01287,0.6104408,, De Lunes a Viernes de 06:00 a 21:00 horas; Festivo de 07:00 a 21:00 horas,977409349,Sí,No,No
E.S. TERESA SIGNES SEGURA,Repsol,"CR C-322 ,P.K. 81,20 D",,Valencia_València,38.94622,-0.396976,, De Lunes a Domingo de 08:00 a 14:00 horas; De Lunes a Domingo de 17:00 a 20:00 horas,962264820,Sí,No,No
E.S. TITAGUAS,Repsol,"CR CV-35   P.K. 87,00 D",,Valencia_València,39.86205,-1.083556,, De Lunes a Viernes de 07:45 a 14:30 horas; De Lunes a Jueves de 16:30 a 20:00 horas; Viernes de 16:30 a 21:00 horas; Festivo de 09:00 a 14:30 horas; Festivo de 16:30 a 21:00 horas,961634264,Sí,No,No
"E.S. TOGOROSA, S.L.",Repsol,"CR N-234   P.K. 376,50 D",,Soria,41.80579,-2.786326,, De Lunes a Viernes de 08:00 a 21:00 horas; De Sábado a Domingo de 10:00 a 21:00 horas; Festivo de 10:00 a 21:00 horas,975373259,No,No,Sí
E.S. TRAEXSA,Repsol,"CR N-630   P.K. 564,50 D",,Cáceres,39.3833,-6.348767,, De Lunes a Domingo de 06:30 a 22:30 horas,927129720,Sí,No,No
E.S. TRAPICHE,Repsol,"CR A-356   P.K. 43,50  D",,Málaga,36.79962,-4.123282,,ABIERTO 24h. ,952506762,Sí,No,No
E.S. VALMOTOR II,Repsol,"CL OVIDI I MONTLLOR, 18",,Valencia_València,39.47132,-0.4653347,, De Lunes a Viernes de 07:00 a 21:00 horas; Sábado de 08:00 a 20:00 horas,961988334,Sí,No,No
"E.S. VAZQUEZ,S.L.",Repsol,"CL CTRA. DE TARRAGONA, 28",,Tarragona,41.27891,1.246533,, De Lunes a Sábado de 06:00 a 22:00 horas; Domingo de 07:00 a 22:00 horas,977604112,Sí,No,No
E.S. VEC RIOS SL,Repsol,"cr A-52 PK. 143,00 D",,Ourense,41.98259,-7.285696,,ABIERTO 24h. ,629436180,No,No,Sí
E.S. VENTA DEL BARRO,Repsol,"CR N-232   P.K. 170,20 I",,Teruel,41.21412,-0.4683284,,De Lunes a Viernes de 07:30 a 20:00 horas; Sábado de 08:00 a 14:00 horas; Domingo de 08:00 a 14:00 horas,978820708,Sí,No,Sí
"E.S. VERDECEDO,S.L",Repsol,CR PO-255 P.K. 1 D,,Pontevedra,42.38753,-8.491717,, De Lunes a Viernes de 07:00 a 22:00 horas; Sábado de 07:00 a 21:00 horas; Domingo de 08:30 a 21:00 horas; Festivo de 08:30 a 21:00 horas,986750071,Sí,Sí,No
E.S. VILLAFRANCA,Repsol,"CR CO-5+68 P.K. 1,40 I (VILLANUEVA-ALAM)",,Córdoba,37.95564,-4.546109,, De Lunes a Domingo de 06:00 a 22:00 horas,957190315,Sí,No,No
E.S. VILLALBA REOLID,Repsol,"CL CARRETERA JAEN, 2",,Albacete,38.99477,-1.871856,,ABIERTO 24h. ,967220005,No,No,Sí
"E.S. VIVEIRO, S.L.",Repsol,"CR LU-540   P.K. 3,10 I",,Lugo,43.63585,-7.601503,, Lunes de 08:00 a 21:00 horas,982562563,Sí,No,No
"E.S. WAY ATALAYA,S.L.",Repsol,"CR CUV-8306  P.K. 6,60 D (A-3 P.K. 177I)",,Cuenca,39.53836,-2.254386,, De Lunes a Domingo de 00:15 a 24:00 horas,969381425,No,No,Sí
"E.S. Z. CANTOS,S.L.",Repsol,CL DEL GREMIS 25-31 (POLIGONO TEULADA),,Alicante_Alacant,38.72945,0.09198405,, De Lunes a Sábado de 06:00 a 22:00 horas; Domingo de 08:00 a 22:00 horas,965741411,Sí,Sí,No
E.S. ZAISA,Repsol,"CL TERMINAL DE ZAISA-BEHOBIA, S.N.",,Gipuzkoa,43.34119,-1.754279,,ABIERTO 24h. ,943633103,No,No,Sí
E.S. ZOILO RIOS-CISNE,Repsol,"CR A-2   P.K. 309,00 A",,Zaragoza,41.62532,-1.010082,,ABIERTO 24h. ,976344300,No,No,Sí
E.S. ZONA FRANCA,Repsol,"CL Pº ZONA FRANCA, 82-84",,Barcelona,41.35572,2.142588,, De Lunes a Viernes de 06:00 a 22:00 horas; Sábado de 06:00 a 14:00 horas,932231511,Sí,No,No
"E.S.CAN JARDI, S.A.",Repsol,"CR C-1413  P.K. 7,70 D",,Barcelona,41.46666,2.025814,, De Lunes a Domingo de 06:00 a 22:00 horas,936743292,Sí,No,No
"E.S.CARBURANTES MONOVAR,S.L.",Repsol,CL AVENIDA PAIS VALENCIA S.N.,,Alicante_Alacant,38.43418,-0.8398628,, De Lunes a Sábado de 08:00 a 15:00 horas; Domingo de 10:00 a 15:00 horas; Festivo de 10:00 a 15:00 horas,966272353,Sí,No,No
E.S.CRED ZAISA III,Repsol,"CL ANTXOTXIPI, 15",,Gipuzkoa,43.33788,-1.765345,,ABIERTO 24h. ,943665910,Sí,Sí,Sí
E.S.ITURRALDE,Repsol,"CR GI-3631  P.K. 1,100 I (BDA. ITURRALDE",,Gipuzkoa,43.29622,-1.871834,, De Lunes a Domingo de 07:00 a 22:00 horas,943493829,Sí,No,No
"E.S.MONTAHUD,S.L.",Repsol,CR AC-1521 P.K. 2.80 D,,Alicante_Alacant,38.6059,-0.07849209,, De Lunes a Domingo de 07:00 a 22:00 horas,965845958,Sí,Sí,No
E.S.MUNUERA S.L.,Repsol,"CR C-3211  P.K. 69,00 D",,Murcia,37.59975,-1.657255,, De Lunes a Sábado de 06:30 a 22:30 horas; Domingo de 07:00 a 22:30 horas,968471743,Sí,No,No
E.S.PEDRIÑANES S.L.,Repsol,"CR E-1  P.K. 1,7  D",,Murcia,37.96778,-1.158521,, De Lunes a Domingo de 06:30 a 23:00 horas,968345673,Sí,No,No
E.S.PETROJOISA,Repsol,CR LE-110  P.K. 13.10 D,,León,42.18733,-5.98212,, De Lunes a Domingo de 08:00 a 22:00 horas,987668172,Sí,No,No
E.S.PUNTXAS S.L.,Repsol,"CR N-121   P.K. 74,10 D",,Gipuzkoa,43.33583,-1.752726,, De Lunes a Viernes de 00:00 a 24:00 horas; Sábado de 00:00 a 21:00 horas; Domingo de 08:00 a 24:00 horas,943638224,No,No,Sí
E.S.RAOS S.L.,Repsol,"PG. POLIGONO DE RAOS, PARC-G ,S.N.",,Cantabria,43.43433,-3.836502,, De Lunes a Viernes de 06:00 a 24:00 horas; De Sábado a Domingo de 07:00 a 23:00 horas,942369335,Sí,Sí,No
E.S.RIO TIRON S.A.,Repsol,"CR N-120   P.K. 68,00 I",,Burgos,42.41738,-3.206568,, De Lunes a Domingo de 07:00 a 23:00 horas,947580289,Sí,No,No
E.S.SANCHEZ MU#OZ,Repsol,"CL CLOSA D'EN LLOP, 2",,Girona,42.12497,3.12318,,ABIERTO 24h. ,972770274,Sí,No,No
E.S.VILLA HUERTA,Repsol,"CR A-2     P.K. 180,00 D",,Soria,41.28381,-2.173624,, De Lunes a Viernes de 07:00 a 23:00 horas; Sábado de 07:00 a 21:00 horas; Domingo de 08:00 a 23:00 horas,975327414,Sí,No,Sí
EE.S. CRED CTRA. ALCOVER,Repsol,POL. 17 PARCELA 127-129 ENLACE A,,Tarragona,41.27184,1.229307,, De Lunes a Domingo de 06:00 a 22:00 horas,,Sí,Sí,No
ES ALHANDIGA GAS STATIONSS S.L.,Repsol,"CL AVENIDA MIRAT, 40",,Salamanca,40.97015,-5.662929,, De Lunes a Domingo de 07:00 a 23:00 horas,923220494,Sí,No,No
ES ALHANDIGA GESTION Y SERVICIOS SL,Repsol,"CR N-620   P.K. 307,00 D",,Salamanca,40.70868,-6.399444,, De Lunes a Sábado de 08:00 a 15:00 horas,923484151,Sí,No,No
ES ALJOBAR SL,Repsol,"AV DE SALAMANCA, 68A",,Valladolid,41.63805,-4.746664,, De Lunes a Domingo de 08:00 a 22:00 horas,983336108,Sí,Sí,No
"ES ANGEL MANUEL EXPOSITO, SOCIEDAD",Repsol,"CL TIBURCIO, 98",,Ciudad Real,39.06221,-3.618093,, De Lunes a Viernes de 07:30 a 16:30 horas; De Sábado a Domingo de 09:00 a 15:00 horas,926852613,Sí,No,No
"ES AREA DE SERVICIO VILLARDEFRADES,",Repsol,"CR N-6     P.K. 216,00 I",,Valladolid,41.72332,-5.25279,, De Lunes a Viernes de 08:00 a 21:00 horas; Sábado de 09:00 a 18:00 horas; Domingo de 08:00 a 22:00 horas,983723560,No,No,Sí
ES AS HUETOR TAJAR 2020 SL,Repsol,"CR A-92 P.K. 200,30 I",,Granada,37.1818,-4.057498,,ABIERTO 24h. ,958333843,Sí,No,Sí
ES ASG LA REVA,Repsol,POL IND REVA SECTOR 12,,Valencia_València,39.47876,-0.5696937,,ABIERTO 24h. ,606595676,No,No,Sí
ES CAMPA CULEBRO SL,Repsol,AVDA.EUROPA S/N,,Madrid,40.27643,-3.699493,, De Lunes a Viernes de 06:00 a 22:00 horas,916919138,No,No,Sí
ES CARBAHERMA S.L.,Repsol,"CR PO-549 P.K. 5,9 D",,Pontevedra,42.55756,-8.81188,, De Lunes a Viernes de 07:00 a 22:00 horas; Domingo de 08:00 a 22:00 horas,986563401,Sí,Sí,Sí
ES CARBAHERMA S.L.,Repsol,"CR PO-531 P.K. 8,3 I",,Pontevedra,42.5015,-8.656804,, De Lunes a Viernes de 07:00 a 22:00 horas; Domingo de 08:00 a 22:00 horas,986713904,No,No,Sí
ES CARBURANTES ALRONAY SL,Repsol,"CL AVENIDA DIPUTACION, 4",,Valencia_València,38.9157,-0.5569211,, De Lunes a Viernes de 06:00 a 22:00 horas; Sábado de 06:00 a 21:00 horas; Domingo de 06:00 a 21:00 horas,962201396,Sí,No,No
ES CARBURANTES MONTALBAN S.L.,Repsol,CR CO-741  P.K. 3.20 D,,Córdoba,37.58763,-4.742494,, De Lunes a Sábado de 06:00 a 22:00 horas; Domingo de 08:00 a 20:00 horas,957310491,Sí,No,No
"ES CARO CUMPLIDO ,S.L.",Repsol,"AV DIPUTACION, 85",,Córdoba,37.70884,-5.284505,, Lunes de 06:00 a 22:00 horas,957710417,Sí,No,No
ES COLOMAR INVERSIONES Y SERVICIOS,Repsol,"CR N-621  P.K. 4,50 D",,León,42.62216,-5.549317,, De Lunes a Viernes de 07:00 a 21:00 horas; De Sábado a Domingo de 08:00 a 20:00 horas,987308337,Sí,Sí,No
ES COLON TERRASA SL,Repsol,"CR N-150   P.K. 18,00 D",,Barcelona,41.55843,2.024495,,ABIERTO 24h. ,937315368,Sí,Sí,No
"ES COMBUSTIBLES RUIDERA, S.L.",Repsol,"CR N-430   P.K. 415,00 I",,Ciudad Real,38.97824,-2.882998,, De Lunes a Domingo de 09:00 a 21:00 horas,926525146,Sí,No,No
ES COMBUSTIBLES Y SERVICIOS VINROMA,Repsol,"CR C-238  P.K. 45,70 D",,Castellón_Castelló,40.30713,0.1142825,, De Lunes a Viernes de 07:00 a 21:00 horas; De Sábado a Domingo de 09:00 a 12:00 horas,964195289,Sí,No,No
"ES EL CARMEN NAVAHERMOSA, SL",Repsol,CR  CM-401 P.K. 47 I,,Toledo,39.63908,-4.463023,, De Lunes a Domingo de 07:00 a 22:00 horas,925410092,Sí,No,No
ES EL SASTRE SL,Repsol,"CR A-440 P.K. 8,00 D",,Córdoba,37.71253,-5.080511,, De Lunes a Domingo de 06:30 a 21:30 horas,654575503,Sí,No,Sí
ES ENERGIA SANTA ANA SL,Repsol,CR N-330   .P.K. 71.4 I,,Albacete,38.75741,-0.9565873,, De Lunes a Jueves de 06:00 a 22:00 horas; Viernes de 06:00 a 24:00 horas; De Sábado a Domingo de 06:00 a 22:00 horas,965979222,No,No,Sí
ES ESTACION DE SERVICIO NOW SL,Repsol,"CR AS-19   P.K. 4,50 I",,Asturias,43.53856,-5.721224,, De Lunes a Viernes de 06:00 a 22:00 horas; De Sábado a Domingo de 07:00 a 22:00 horas,985329570,Sí,No,Sí
ES ESTACION DE SERVICIOS IBAIA ENER,Repsol,AV. DE GIPUZKOA ETORBIDEA 5 BIS,,Navarra,42.84001,-1.676675,, De Lunes a Domingo de 06:00 a 23:00 horas,948773755,Sí,Sí,No
ES ESTACIONES DE SERVICIO ELOMENDI,Repsol,P.I. SADAR,,Navarra,42.79778,-1.645583,, De Lunes a Domingo de 06:30 a 22:30 horas; De Lunes a Domingo de 22:30 a 06:30 horas,948835233,Sí,No,No
ES EUGENIO JAVIER MARTINEZ NAVARRO,Repsol,"CR N-301   P.K. 231,80 D",,Albacete,39.10763,-1.990406,, De Lunes a Domingo de 07:00 a 21:30 horas,967275064,Sí,No,No
ES EXCATRANS BAONZA E HIJOS S.L.,Repsol,"CR M-631   P.K. 5,30 I",,Madrid,40.83927,-3.676538,, De Lunes a Viernes de 07:30 a 19:00 horas; Festivo de 09:00 a 15:00 horas,722371313,Sí,No,No
ES FOOTWEAR PLANET S.L.,Repsol,"CR A-214   P.K. 5,00 I",,Alicante_Alacant,38.40104,-0.4777786,, De Lunes a Domingo de 06:00 a 22:30 horas,965184855,Sí,No,No
ES FOOTWEAR PLANET SL,Repsol,"CR  N-340  P.K. 688,60 I",,Alicante_Alacant,38.10627,-0.9316543,, De Lunes a Domingo de 06:00 a 22:00 horas,965304087,Sí,Sí,No
ES FOOTWORK S.L.,Repsol,"CR N-332   P.K. 218,00 D",,Valencia_València,38.93963,-0.1523522,, De Lunes a Viernes de 06:00 a 20:00 horas; Festivo de 08:00 a 18:00 horas,962893712,Sí,Sí,No
ES FOOTWORK SL,Repsol,CR A-311   P.K. 1.80 D,,Alicante_Alacant,38.10701,-0.864734,, De Lunes a Domingo de 06:00 a 22:00 horas,966753389,Sí,No,No
ES FOOTWORK SL,Repsol,"CR N-340   P.K. 714,10 I",,Alicante_Alacant,38.25681,-0.7477987,, De Lunes a Domingo de 06:00 a 22:00 horas,966663802,Sí,No,No
"ES G.B. PARKING LA REDONDA, S.L.",Repsol,CR. IRIDA – POLG. LA REDONDA (SANTA MARIA DEL AGUILA),,Almería,36.7804,-2.748943,,ABIERTO 24h. ,950583171,No,No,Sí
"ES GARCERAN 1, S.L.",Repsol,"AVDA. REYES CATOLICOS, 152",,Murcia,38.02483,-1.262473,, De Lunes a Viernes de 05:30 a 22:30 horas; Festivo de 06:00 a 22:00 horas,968624570,Sí,No,No
ES GAS CORDOBA SL,Repsol,"CR N-432, P.K. 265,00 I",,Córdoba,37.92103,-4.76152,, De Lunes a Domingo de 06:00 a 22:00 horas,957324106,Sí,Sí,No
ES GASOGAS CALEFACCIÓN S.L.U.,Repsol,"CR C-430   P.K. 428,40 I",,Albacete,38.96732,-2.751309,, Lunes de 08:00 a 20:00 horas,967377166,No,No,Sí
ES GASOLEOS CHICHARRO S.L.,Repsol,"CR CM-4011 P.K. 18,00 D",,Toledo,39.98178,-4.13777,, De Lunes a Domingo de 07:00 a 22:00 horas,696195285,Sí,No,No
ES GASOLEOS TALAVERA SL,Repsol,"CR  N-3 ,P.K. 14,40 M.D.",,Madrid,40.35739,-3.559,, De Lunes a Domingo de 07:00 a 20:30 horas,913318018,Sí,Sí,No
ES GASOLINERA ERMITA DEL REMEIL SL,Repsol,CL AVENIDA DEL REMEI-GENERAL PRIM S.N.,,Tarragona,40.54781,0.4780478,, De Lunes a Sábado de 07:00 a 21:00 horas,977730581,Sí,No,No
ES GLEM COLLAO S.L.,Repsol,CL OLIVER S.N.,,Alicante_Alacant,38.69194,-0.4896789,, De Lunes a Domingo de 07:00 a 21:00 horas,965520943,Sí,No,No
ES GLEM MUTXAMEL,Repsol,"CR CV-800 PK 0,7",,Alicante_Alacant,38.42702,-0.435011,, De Lunes a Domingo de 06:00 a 22:00 horas,965659396,Sí,Sí,No
ES GLEM S.L.- ALGARS,Repsol,AVENIDA DE ALICANTE Nº 49,,Alicante_Alacant,38.71892,-0.4565359,, De Lunes a Viernes de 07:00 a 20:00 horas; De Sábado a Domingo de 08:00 a 16:00 horas,966500442,Sí,No,No
"ES GRUPO EMPRESARIAL PETROGO, S.L.",Repsol,"CR N-301   P.K. 342,90 I",,Murcia,38.31775,-1.48143,, De Lunes a Domingo de 06:00 a 22:00 horas,968675537,Sí,No,Sí
ES GRUPO MAICAS PEIRO SLU,Repsol,"CR N-234   P.K. 150,50 I",,Teruel,40.5643,-1.285428,, Lunes de 07:00 a 21:00 horas,978780233,No,No,Sí
ES GRUPO MAICAS PEIRO SLU,Repsol,"CR N-234   P.K. 19,60 D",,Castellón_Castelló,39.78265,-0.3940095,,ABIERTO 24h. ,964135135,Sí,Sí,No
ES GUILLERMO IURGI LOPEZ DE IPIÑA S,Repsol,CR N-332   P.K. 238 I,,Valencia_València,39.08731,-0.2485817,, De Lunes a Domingo de 07:00 a 19:00 horas,625449515,Sí,No,Sí
ES HIJOS DE JOAQUIN DOMINGUEZ SL,Repsol,CL CIRCUNVALACION S.N.,,Córdoba,37.57028,-4.842472,, De Lunes a Domingo de 06:00 a 23:00 horas,957313082,Sí,No,No
ES HIJOS DE NAVARRO ROBLES S.L.,Repsol,CR C-3314  P.K. 61.80 I,,Murcia,38.61881,-1.046839,, De Lunes a Viernes de 06:30 a 21:00 horas; Domingo de 08:00 a 15:00 horas; Festivo de 08:00 a 15:00 horas,691014167,Sí,No,No
ES HITIGARCA S.L.,Repsol,"CR  CM-4009 (C/STA.LUCIA,S/N) P.K. 32,10",,Toledo,39.85386,-4.360934,, De Lunes a Viernes de 06:30 a 21:30 horas; Sábado de 07:00 a 21:30 horas; Domingo de 07:30 a 21:30 horas,925750758,Sí,Sí,No
ES INMATERGIES SL,Repsol,"CR N-431 PK 110,60 I",,Huelva,37.28828,-7.146673,, De Lunes a Domingo de 06:00 a 22:00 horas; Festivo de 06:30 a 22:00 horas,859994022,Sí,No,No
ES INTER-ALFARA SA,Repsol,"CR  VV-6104  P.K. 6,00 I",,Valencia_València,39.55905,-0.5053691,, De Lunes a Domingo de 07:00 a 22:00 horas,962750439,Sí,No,No
ES INVERAMA OIL S.L.,Repsol,"CR C-431   P.K. 5,50 D",,Córdoba,37.87669,-4.846626,, De Lunes a Domingo de 06:00 a 22:00 horas,957329060,Sí,No,No
ES INVERAMA OIL SL,Repsol,"CL AVENIDA CADIZ, 74",,Córdoba,37.86578,-4.782428,, De Lunes a Domingo de 06:00 a 22:00 horas,957294138,Sí,No,No
ES LAS VENTAS (DIRECCION LOGROÑO),Repsol,"CTRA. LOGROÑO, KM 10,500",,Zaragoza,41.69575,-0.9895905,,ABIERTO 24h. ,976770075,No,No,Sí
ES LLODRA SL,Repsol,"CR C-713   P.K. 13,10 D",,Illes Balears,39.64795,2.756871,, De Lunes a Domingo de 06:00 a 22:00 horas,971620273,Sí,No,No
ES LLODRA SL,Repsol,"CR C-713   P.K. 13,00 I",,Illes Balears,39.6483,2.756747,, De Lunes a Domingo de 06:00 a 22:00 horas,971620001,Sí,No,No
ES LOS LLANOS DE COLUNGA SL,Repsol,"CR N-632   P.K. 23,70 D",,Asturias,43.48462,-5.261057,, Lunes de 06:00 a 22:00 horas,985856085,Sí,No,No
ES LUSITANIA I (MERIDA),Repsol,"CR  N-5A   P.K. 340,90 I",,Badajoz,38.91067,-6.340433,, De Lunes a Domingo de 06:00 a 22:00 horas,622686642,Sí,Sí,No
ES MAFON 2018 S.L.,Repsol,"CR VV-6116 P.K. 6,80 I",,Valencia_València,39.5112,-0.5150465,, De Lunes a Viernes de 07:00 a 21:00 horas; Sábado de 08:00 a 18:00 horas,,Sí,No,No
ES MARTIN LOPEZ CARBURANTES SL,Repsol,"CR N-430   P.K. 630,80 D",,Valencia_València,38.92943,-0.6626579,,ABIERTO 24h. ,962299372,No,No,Sí
ES MARTIN LOPEZ CARBURANTES SL,Repsol,CR A-35 KM 27,,Valencia_València,38.8946,-0.724834,,ABIERTO 24h. ,962261217,No,No,Sí
ES MARTIN LOPEZ CARBURANTES SL,Repsol,"CR A-2     P.K. 107,00 D",,Guadalajara,40.92805,-2.713923,,ABIERTO 24h. ,949828532,No,No,Sí
ES MKT OIL SL,Repsol,"CR N-2     P.K. 593,50 I",,Barcelona,41.49025,1.913048,, De Lunes a Viernes de 06:00 a 22:00 horas; Sábado de 08:00 a 18:00 horas; Domingo de 08:00 a 14:00 horas,937750762,Sí,No,No
ES MORENO FERNANDEZ MANUEL,Repsol,"CR A-92 (NORTE N-342)   P.K. 208,00 D",,Granada,37.39457,-3.02686,, De Lunes a Domingo de 06:00 a 23:00 horas; De Lunes a Domingo de 07:00 a 22:00 horas,958682230,Sí,No,Sí
ES NETEJAMATIC JAMC SL,Repsol,"CR LLOSA DE RANES, S.N. I",,Valencia_València,38.99431,-0.5243341,, De Lunes a Viernes de 08:00 a 15:00 horas; Sábado de 09:00 a 14:00 horas,609339371,Sí,No,No
ES O REI DAS TARTAS,Repsol,"A-8 SALIDA 552 AUTOVIA A-8 (LU-PP-0105, P.K. 0,150)",,Lugo,43.37977,-7.426558,,ABIERTO 24h. ,982145600,Sí,No,Sí
ES OFE SA,Repsol,"CL GRAHAM BELL, S.N.",,Málaga,36.7312,-4.549814,,ABIERTO 24h. ,952434748,Sí,No,No
ES ORTIZ ESPIN SL,Repsol,"AUTOVIA A3, P.K. 207 MI",,Cuenca,39.49951,-1.989885,,ABIERTO 24h. ,,No,No,Sí
ES PARAISO,Repsol,"CR A-92  P.K. 212,7 D",,Granada,37.18013,-3.928777,,ABIERTO 24h. ,958443564,Sí,No,Sí
ES PETROLMAR GESTION SL,Repsol,"CR N-332   P.K. 187,50 D",,Alicante_Alacant,38.76805,0.09860681,, De Lunes a Domingo de 07:00 a 21:00 horas,966454262,Sí,No,No
ES PETROLMAR GESTION SL,Repsol,C/ FORTUNY ESQ AVDA NOVELDA 141,,Alicante_Alacant,38.37524,-0.4994538,, De Lunes a Viernes de 07:00 a 21:00 horas; De Sábado a Domingo de 09:00 a 14:00 horas; De Sábado a Domingo de 14:00 a 17:00 horas; De Sábado a Domingo de 17:00 a 21:00 horas,965775614,Sí,No,No
"ES REIM OIL EESS, S.L.",Repsol,"CL BOULEVARD SALVADOR ALLENDE, 12 Y 13",,Madrid,40.53782,-3.634698,, De Lunes a Sábado de 06:00 a 20:00 horas; Festivo de 08:00 a 20:00 horas,916613899,Sí,No,No
ES SAFOR ESTACIONES SL,Repsol,CR N-332   P.K. 182.10 D,,Valencia_València,38.89513,-0.07272317,, De Lunes a Domingo de 07:00 a 21:00 horas,962855627,Sí,No,No
ES SAFOR ESTACIONES SL,Repsol,CR N-332   P.K. 182.10 I,,Valencia_València,38.8943,-0.07274698,, De Lunes a Domingo de 06:00 a 22:00 horas,962855618,Sí,No,No
"ES SAFOR ESTACIONES, S.L.",Repsol,"CR CV-60   P.K. 29,00 I",,Valencia_València,38.92269,-0.2694232,, De Lunes a Domingo de 06:00 a 21:00 horas,962835218,Sí,No,No
"ES SAFOR ESTACIONES, SL",Repsol,"CL AVENIDA DE VALENCIA, 23",,Valencia_València,38.97158,-0.1816618,, De Lunes a Domingo de 07:00 a 21:00 horas,962874127,Sí,No,No
ES SOCIETAT CATALANA DE PETROLIS SA,Repsol,"CR N-240   P.K. 20,00 D",,Tarragona,41.28853,1.249432,, De Lunes a Domingo de 06:00 a 22:00 horas,977600340,Sí,No,No
ES SOCIETAT CATALANA DE PETROLIS SA,Repsol,"CR TA-2000 P.K. 9,20 D",,Tarragona,41.36157,1.299032,, De Lunes a Domingo de 06:00 a 22:00 horas,977630264,Sí,No,No
ES TASONIS DIRECTORSHIP SL,Repsol,"CR  N-432  P.K. 239,58 I",,Córdoba,38.09153,-4.86474,,ABIERTO 24h. ,957367031,No,No,Sí
ES UNIDAD DE SUMINISTROS AMEIJEIRAS,Repsol,CL CTRA. CIRCUNVALACION  17,,Pontevedra,42.63236,-8.563257,, De Lunes a Domingo de 07:00 a 23:00 horas,986548154,Sí,No,No
"ES VALDEMENDRAL, SOCIEDAD LIMTIADA",Repsol,"CR A-62 PK. 147, 00 D",,Valladolid,41.51741,-4.945926,, De Lunes a Domingo de 07:00 a 23:00 horas,,Sí,Sí,Sí
ES VALDEPARES,Repsol,CR N-634   P.K. 535.80 D,,Asturias,43.55544,-6.845353,, De Lunes a Domingo de 07:00 a 23:00 horas,985637612,Sí,Sí,Sí
ES ZAISA SL,Repsol,CALLE COMETE SAREA NUM 1,,Gipuzkoa,43.33886,-1.753916,,ABIERTO 24h. ,943630419,Sí,No,Sí
ES ZOILO RIOS # EL CID,Repsol,"CR  A-23   P.K. 506,50 D",,Zaragoza,41.70844,-0.8626626,, De Lunes a Viernes de 00:00 a 24:00 horas; Sábado de 06:00 a 20:00 horas; Domingo de 08:00 a 24:00 horas,976528837,No,No,Sí
ES ZOILO RIOS # PINSEQUE,Repsol,"CR  A-68  P.K. 258,20 I",,Zaragoza,41.73829,-1.076429,, De Lunes a Viernes de 08:00 a 16:00 horas,976656582,No,No,Sí
ES. GLEM SL SANT JORDI,Repsol,"PADRE JESULADO FERRERO, 1",,Alicante_Alacant,38.71885,-0.6639814,, De Lunes a Viernes de 07:00 a 20:00 horas; De Sábado a Domingo de 08:00 a 16:00 horas,965567617,Sí,No,No
ES. LAS LADERAS,Repsol,CR A-2 P.K. 174.50 I,,Soria,41.24824,-2.217994,, De Lunes a Viernes de 00:00 a 24:00 horas; Sábado de 06:00 a 15:00 horas; Domingo de 09:00 a 13:00 horas; Domingo de 17:00 a 24:00 horas,975320712,No,No,Sí
ESTACIO DE SERVEI JORBA S.L.,Repsol,"CR A-2 P.K. 543,00 I",,Barcelona,41.62032,1.509342,,ABIERTO 24h. ,938090874,No,No,Sí
ESTACIO SERVEI MONTSERRAT SL,Repsol,"CR C-55  P.K. 6,39 D",,Barcelona,41.55231,1.880176,, De Lunes a Domingo de 06:00 a 22:00 horas,937757601,No,No,Sí
"ESTACIO ULLDECONA, S.L.",Repsol,"CR T-332   P.K. 17,50 D",,Tarragona,40.58781,0.442737,, De Lunes a Domingo de 07:00 a 21:00 horas,977573147,Sí,No,No
EUROWASH CENTER S.L.,Repsol,"AVDA.DE LA INDUSTRIA, PARCELA 64",,Murcia,38.03511,-1.253361,, De Lunes a Domingo de 06:00 a 22:00 horas,626977552,No,No,Sí
"EXPLOTACIONES HERRERO, S.L.",Repsol,"CR A-92    P.K. 1,50 I",,Sevilla,37.38703,-5.935001,, De Lunes a Domingo de 06:00 a 22:00 horas,954523836,Sí,No,No
"EXPLOTACIONES RINCON-SAN JOSE,S.L.",Repsol,"CR A-62   P.K. 98,90 D",,Palencia,41.83863,-4.567341,,ABIERTO 24h. ,979780208,Sí,Sí,No
FOOTWEAR PLANET S.L.,Repsol,"CL AVENIDA DEL CARMEN, 94",,Alicante_Alacant,38.14714,-0.8892838,, Lunes de 06:00 a 22:00 horas; De Martes a Sábado de 05:00 a 22:00 horas; Domingo de 07:00 a 22:00 horas,966750598,Sí,No,No
G.VAQUERO CRUCHET,Repsol,"CR M-610  P.K. 6,70 I",,Toledo,40.24251,-4.189043,,ABIERTO 24h. ,918178744,Sí,Sí,No
"GALIMOVIL GALICIA,S.L.",Repsol,"AV FINISTERRE, 324",,A Coruña,43.35731,-8.424719,, De Lunes a Domingo de 07:00 a 21:00 horas,981269033,Sí,Sí,No
GALURESA FONTECULLER,Repsol,"AV DE FONTECULLER,S/N",,A Coruña,43.32408,-8.381114,, De Lunes a Domingo de 07:00 a 23:00 horas,981280457,Sí,Sí,No
GAS. EL CRUCE S.L.,Repsol,"CR A-5 P.K. 240,00 I",,Cáceres,39.5648,-5.832593,,ABIERTO 24h. ,927338242,Sí,No,No
GASOLEOS PLAZA SLU,Repsol,"CR N-234   P.K. 175,50 I",,Teruel,40.78272,-1.347247,, De Lunes a Sábado de 08:00 a 22:00 horas; Festivo de 09:00 a 21:00 horas,978863059,Sí,No,No
"GASOLINERA HNOS YANES, S.L.",Repsol,"CR N-640   P.K. 26,00 I",,Asturias,43.41303,-7.148556,, De Lunes a Domingo de 07:00 a 22:00 horas,985634412,No,No,Sí
"GASOLINERAS EL CA#UELO,S.L.",Repsol,"AV DEL CUARTEL, 1",,Valladolid,41.30518,-4.911061,, De Lunes a Domingo de 07:00 a 23:00 horas,983812482,Sí,No,No
"GASOLPER, S.L.",Repsol,"CL AVENIDA DOS DE MAYO, 207",,Valencia_València,38.81822,-0.6047011,, De Lunes a Domingo de 06:00 a 22:00 horas,962380189,Sí,No,No
GASVIVE S.L.,Repsol,"CL AVENIDA MADRID, 66",,Pontevedra,42.22438,-8.711577,, De Lunes a Domingo de 07:00 a 23:00 horas,986418452,Sí,Sí,No
"GESBALISA, SOCIEDA LIMITADA",Repsol,"CR A-44  P.K. 125,00 I",,Granada,37.22025,-3.627599,, De Sábado a Domingo de 08:00 a 22:00 horas,958402688,Sí,Sí,No
"GLEM ,S.L. BIAR",Repsol,CR A-210   P.K. 38.20 I,,Alicante_Alacant,38.6306,-0.786549,, De Lunes a Sábado de 08:00 a 16:00 horas,965810513,Sí,No,No
GLEM SL.CARRT YECLA,Repsol,"CL CARRETERA DE YECLA, 6",,Alicante_Alacant,38.63581,-0.8732552,, De Lunes a Domingo de 06:00 a 22:00 horas,965349039,Sí,No,No
"GLEM, S.L. CASTALLA 1",Repsol,"AV IBI, 80",,Alicante_Alacant,38.60095,-0.6696101,, De Lunes a Viernes de 06:00 a 22:00 horas; De Sábado a Domingo de 07:00 a 22:00 horas,966560551,Sí,No,No
"GLEM,S.L.-AUTOVIA R-2A",Repsol,"CR N-330   P.K. 53,00 I",,Alicante_Alacant,38.61808,-0.8490196,, De Lunes a Viernes de 06:00 a 20:00 horas; De Sábado a Domingo de 08:00 a 16:00 horas,966603140,Sí,No,No
"GLEM,S.L.-AUTOVIA R-2B",Repsol,"CR N-330   P.K. 53,00 D",,Alicante_Alacant,38.61847,-0.8484224,, De Lunes a Jueves de 07:00 a 24:00 horas; Viernes de 07:00 a 22:00 horas; Sábado de 08:00 a 20:00 horas; Domingo de 08:00 a 22:00 horas,965946584,Sí,No,Sí
"GLEM,SL.-URBANA.",Repsol,"CL AVENIDA DE ALICANTE, 22",,Alicante_Alacant,38.62967,-0.8567118,, De Lunes a Viernes de 06:00 a 20:00 horas; De Sábado a Domingo de 08:00 a 20:00 horas,965598926,Sí,No,No
GPV- AV NOVELDA (A) - 132,Repsol,"CL AVENIDA NOVELDA, 179",,Alicante_Alacant,38.37025,-0.4975134,, De Lunes a Domingo de 07:00 a 24:00 horas,965178644,Sí,Sí,No
GPV- EL ATABAL - 131,Repsol,"CL AVDA LOPE DE VEGA,S.N.",,Málaga,36.73056,-4.467508,,ABIERTO 24h. ,952616550,Sí,Sí,No
GPV-7 PALMAS,Repsol,AV HOYA DE LA GALLINA SN,,Las Palmas,28.09643,-15.45667,, De Lunes a Domingo de 07:00 a 24:00 horas,928508639,Sí,Sí,No
GPV-ALCALA-104,Repsol,CR M-300 (POLG. MATILLAS PARC-A1) D,,Madrid,40.47611,-3.393158,,ABIERTO 24h. ,918827373,Sí,Sí,No
GPV-ALCALA-BRICOR 145,Repsol,"AV JUAN CARLOS I, S/N",,Madrid,40.48129,-3.400294,,ABIERTO 24h. ,912657393,Sí,Sí,No
GPV-ALCORCON-115,Repsol,"CL AVENIDA DEL PINAR, S.N.",,Madrid,40.34626,-3.805383,,ABIERTO 24h. ,914860484,Sí,Sí,No
GPV-ALFONSO XIII-138,Repsol,"AV ALFONSO XIII, ESQ, COSTA RICA",,Madrid,40.45888,-3.667381,,ABIERTO 24h. ,913453800,Sí,Sí,No
GPV-ARROYOMOLINO-110,Repsol,"CR A-5  P.K. 23,50 I",,Madrid,40.30216,-3.922616,,ABIERTO 24h. ,916478002,Sí,Sí,No
GPV-AVDA.LACAVE-123,Repsol,"AV SEGUNDA AGUADA, 2",,Cádiz,36.51277,-6.276369,, De Lunes a Domingo de 06:00 a 24:00 horas,956263908,Sí,Sí,No
GPV-BARBERA-128,Repsol,"CR N-150   P.K. 8,60 I",,Barcelona,41.52104,2.123859,, De Lunes a Domingo de 07:00 a 24:00 horas,937181836,Sí,Sí,No
GPV-BENAHAVIS-122,Repsol,"CR N-340  P.K. 169,10 I",,Málaga,36.47341,-5.011106,,ABIERTO 24h. ,952887799,Sí,Sí,No
GPV-CASABLANCA-119,Repsol,"CL AVENIDA HISPANIDAD, 15",,Zaragoza,41.63338,-0.9093104,,ABIERTO 24h. ,976357625,Sí,Sí,No
GPV-CASTELLON - 134,Repsol,"CL AVENIDA VALENCIA, 96",,Castellón_Castelló,39.97607,-0.04853763,,ABIERTO 24h. ,964218991,Sí,Sí,No
GPV-CORDOBA-143,Repsol,"CTRA CAMINO DE TURRUÑUELOS, PARCELA 4.2 (PP-0-5)",,Córdoba,37.89307,-4.809627,,ABIERTO 24h. ,957226563,Sí,Sí,No
GPV-ESCORIAL DIR ESCORIAL (106),Repsol,"CR M-600  P.K. 3,00 D",,Madrid,40.63333,-4.108259,, De Lunes a Domingo de 06:30 a 23:30 horas,918902801,Sí,Sí,No
GPV-ESCORIAL DIR MADRID (107),Repsol,"CR M-600  P.K. 3,00 I",,Madrid,40.63312,-4.106844,, De Lunes a Domingo de 06:30 a 23:00 horas,918902629,Sí,Sí,No
GPV-GUADALAJARA -136,Repsol,"AV FRANCIA, S.N.",,Guadalajara,40.64334,-3.142827,,ABIERTO 24h. ,949298830,Sí,Sí,No
GPV-LA PRINCESA/ALCORCON-130,Repsol,"CL CAMINO DE LEGANES, 55",,Madrid,40.32432,-3.847275,,ABIERTO 24h. ,916460255,Sí,Sí,No
GPV-LAS TABLAS-140,Repsol,"CL DEL ABETAL (PAU LAS TABLAS), 8",,Madrid,40.50222,-3.663029,,ABIERTO 24h. ,917504842,Sí,Sí,No
GPV-LEON-116,Repsol,"CL CRUZ ROJA DE LEON, S.N.",,León,42.60431,-5.578835,,ABIERTO 24h. ,987242588,Sí,Sí,No
GPV-MAESTRO RODRIGO-129,Repsol,"CL MAESTRO RODRIGO, S.N.",,Valencia_València,39.48775,-0.4041035,,ABIERTO 24h. ,963498590,Sí,Sí,No
GPV-MAJADAHONDA I-124,Repsol,"CL MANUEL DE FALL, S.N.",,Madrid,40.44874,-3.860112,,ABIERTO 24h. ,916029002,Sí,Sí,No
GPV-MAJADAHONDA II-125,Repsol,CL DR.MARAÑON C/V PL ESCORIAL S.N.,,Madrid,40.47372,-3.875744,,ABIERTO 24h. ,916346598,Sí,Sí,No
GPV-MATEO INURRI-101,Repsol,"CL MATEO INURRIA, 4",,Madrid,40.46656,-3.685533,,ABIERTO 24h. ,913507109,Sí,Sí,No
GPV-MOSTOLES-121,Repsol,"CL TORRES QUEVEDO, 2",,Madrid,40.31667,-3.848852,, De Lunes a Domingo de 07:00 a 24:00 horas,916473652,Sí,Sí,No
GPV-NUDO TRINIDA-103,Repsol,"CL PS SANTA COLOMA, 71-73(NUDO TRINIDAD)",,Barcelona,41.44721,2.195104,,ABIERTO 24h. ,933117001,Sí,Sí,No
GPV-PEDROSA-144,Repsol,"AV GRAN VIA DE L´HOSPITALET, 135",,Barcelona,41.35375,2.122072,,ABIERTO 24h. ,932591257,Sí,Sí,No
GPV-REUS -133,Repsol,"CL AVENIDA MARIA FORTUNY, 57",,Tarragona,41.15852,1.117961,, De Lunes a Domingo de 07:00 a 24:00 horas,977771608,Sí,Sí,No
GPV-RIOS ROSAS-114,Repsol,"CL RIOS ROSAS, 1",,Madrid,40.44228,-3.703701,,ABIERTO 24h. ,914417771,Sí,Sí,No
GPV-SABADELL-126,Repsol,"CR N-150  P.K. 14,20 D",,Barcelona,41.55318,2.068938,,ABIERTO 24h. ,937278065,Sí,Sí,No
GPV-SANT CUGAT DEL VALLES-137,Repsol,"CL CERDANYA Y LA RONDA NORTE, S.N.",,Barcelona,41.47971,2.068615,,ABIERTO 24h. ,935831323,Sí,Sí,No
GPV-SANT QUIRZE-117,Repsol,"CL RONDA ARRAONA, S.N.",,Barcelona,41.5358,2.085048,,ABIERTO 24h. ,937210728,Sí,Sí,No
GPV-TERRA MITICA-142,Repsol,"CR CV-70 P.K. 47,00 I",,Alicante_Alacant,38.5593,-0.1347882,,ABIERTO 24h. ,966806234,Sí,Sí,No
GPV-TORREMOLINOS-113,Repsol,"AV BENALMADENA, 1",,Málaga,36.60867,-4.514311,,ABIERTO 24h. ,952051805,Sí,Sí,No
GPV-TORREVIEJA - 135,Repsol,CR  CV-95 P.K. 2 - URB.LOS BALCONES,,Alicante_Alacant,37.96206,-0.7186745,,ABIERTO 24h. ,966799393,Sí,Sí,No
GPV-VILLALBA-108,Repsol,"CL REAL, 2",,Madrid,40.62607,-4.004624,,ABIERTO 24h. ,918491489,Sí,Sí,No
"GRANDE PETROLEOS,S.L",Repsol,"POL. IND. LARACHE, PARC. 93",,Ciudad Real,38.97722,-3.936064,,ABIERTO 24h. ,926211918,Sí,No,No
HERCA 1999 S.L.,Repsol,"CR CUV-8307  P.K. 1,60 (A-3  P.K. 186 D)",,Cuenca,39.4843,-2.158363,,ABIERTO 24h. ,969381470,No,No,Sí
HERMANOS GARCIA MONTES S.A..,Repsol,"CL 1º DE MAYO, S.N.",,Murcia,37.98746,-1.115225,,ABIERTO 24h. ,968991075,Sí,No,No
"HERMANOS OTAL ROMEO,S.C.",Repsol,"AV GOYA, 10",,Zaragoza,42.11436,-0.9479219,, De Lunes a Sábado de 07:00 a 21:00 horas; Domingo de 09:00 a 21:00 horas,976694007,Sí,No,No
HIDROCARBUROS EL MAMI,Repsol,"CR AL-1008 P.K. 5,20 I",,Almería,36.89809,-2.186454,, De Lunes a Domingo de 06:00 a 22:00 horas,950366246,Sí,No,No
"HIJOS DE NAVARRO ROBLES,S.L.",Repsol,CR N-344   P.K. 73.30 I,,Murcia,38.50573,-1.318297,, De Lunes a Viernes de 06:00 a 21:00 horas; Sábado de 07:00 a 21:00 horas; Domingo de 08:00 a 21:00 horas,,Sí,No,No
HORTA,Repsol,"CR TA-330  P.K. 16,50 I",,Tarragona,40.93499,0.3093627,, De Lunes a Domingo de 07:00 a 22:00 horas,977435695,Sí,No,No
JUAN ANTONIO GARCIA MARTINEZ,Repsol,"CR C-330   P.K. 78,50 I",,Murcia,38.04409,-1.972573,, De Lunes a Domingo de 06:00 a 22:00 horas,968725181,Sí,No,No
JUAN ANTONIO MARQUEZ FERNANDEZ,Repsol,"CR N-332  P.K. 224,20 I",,Valencia_València,38.96839,-0.2029517,, De Lunes a Sábado de 06:00 a 20:00 horas; Domingo de 07:00 a 20:00 horas; Festivo de 07:00 a 20:00 horas,962951292,Sí,No,No
JUAN PEREZ HENRY,Repsol,CL BARCA DE LA FLORIDA S.N.,,Cádiz,36.6495,-5.93462,, De Lunes a Viernes de 07:00 a 21:30 horas; Festivo de 08:00 a 21:30 horas,956390296,No,No,Sí
"LA PLANILLA, S.L.",Repsol,CL AVENIDA DE NUMANCIA S.N.,,La Rioja,42.30265,-1.974752,, De Lunes a Sábado de 08:00 a 21:00 horas,941133328,Sí,No,No
LES 4 RODES S.L.,Repsol,"CR  C-12  P.K. 60,9 D",,Tarragona,41.07946,0.6619171,, De Lunes a Viernes de 07:00 a 21:00 horas; De Sábado a Domingo de 07:00 a 21:00 horas,977403256,Sí,No,No
"LES 4 RODES,S.L.",Repsol,"CR C-12   P.K. 11,00 I",,Tarragona,40.90541,0.4848647,, De Lunes a Viernes de 08:00 a 14:00 horas; De Lunes a Viernes de 16:00 a 20:00 horas; Sábado de 08:00 a 14:00 horas,977473506,Sí,No,No
LLOANA ESTACIONES DE SERVICIO SL,Repsol,CR BI-3121  P.K. 24.2  D,,Bizkaia,43.36588,-2.929872,, De Lunes a Sábado de 07:00 a 22:00 horas; Domingo de 08:00 a 22:00 horas,946766822,Sí,No,No
lugo,Repsol,"CL CARRETERA DE CHANTADA, S.N.",,Lugo,42.52582,-7.527199,,ABIERTO 24h. ,982405127,Sí,No,No
M Y R CORBERA SL,Repsol,"CR C-3322  P.K. 40,10 D",,Valencia_València,39.27198,-0.5742611,, De Lunes a Domingo de 06:00 a 22:00 horas,,Sí,No,No
M.BELTRAN E HIJOS,Repsol,CR N-420   P.K. 653.10 D,,Teruel,40.80275,-0.8373237,, De Lunes a Sábado de 07:00 a 22:00 horas; Domingo de 08:00 a 22:00 horas,978758173,Sí,No,Sí
MADESE DISTRIBUCION,Repsol,"CL PASEO ACACIAS, 8",,Madrid,40.40442,-3.705365,,ABIERTO 24h. ,914673347,Sí,No,No
MARIANO FERNANDEZ HERREZUELO,Repsol,"CR CIRCUNVALACION,S.N.",,Palencia,42.15677,-4.69233,, De Lunes a Sábado de 07:00 a 22:00 horas,979831005,Sí,No,No
MINGERIZ S.L.,Repsol,"CR BU-4013 P.K. 1,00 D",,Burgos,42.2867,-4.141324,, De Lunes a Sábado de 08:00 a 15:00 horas,947377038,Sí,No,No
NAVAL.OIL S.L.,Repsol,"CR A-44  P.K. 97,00  D",,Granada,37.40582,-3.566585,,ABIERTO 24h. ,958384828,Sí,No,No
"NOLASCO, S.L.",Repsol,"CR CV-60   P.K. 35,00 D",,Valencia_València,38.93423,-0.2115684,, De Lunes a Domingo de 06:00 a 22:00 horas,962808704,Sí,No,No
OFE S.A. E/S ÁLORA,Repsol,CL AVENIDA CONSTITUCION S.N.,,Málaga,36.82424,-4.701061,, De Lunes a Domingo de 06:00 a 24:00 horas,952496038,Sí,No,No
OFESA CAMPANILLAS,Repsol,"CL AVENIDA I.ORTEGA Y GASSET, S.N.",,Málaga,36.71981,-4.53365,,ABIERTO 24h. ,952433249,Sí,No,No
PAFER ZALLA SL,Repsol,"CL POLIG.IND. BALPARDA EL ARBOL , 2",,Bizkaia,43.31964,-3.045963,, De Lunes a Domingo de 06:00 a 22:00 horas,944934197,Sí,Sí,No
PETROLMAR GESTION SL,Repsol,CL AVENIDA DE VALENCIA 21,,Alicante_Alacant,38.84529,-0.1154862,, De Lunes a Sábado de 06:00 a 14:00 horas,965570414,Sí,No,No
"PORTELA DE LAMAS,S.L",Repsol,"CR N-541   P.K. 51,50 D",,Pontevedra,42.5183,-8.273906,, De Lunes a Domingo de 07:00 a 21:00 horas,986756116,No,No,Sí
R.BERICOCHEA Y 4 MAS,Repsol,"CL AVENIDA LOBETE, 46",,La Rioja,42.45885,-2.430481,, De Lunes a Domingo de 07:15 a 22:45 horas,941256564,Sí,No,No
RIBERA DE ORBIGO SL,Repsol,"CL POBLADO ARMELLADA, S.N.",,León,42.54876,-5.867799,, De Lunes a Viernes de 07:00 a 22:00 horas; De Sábado a Domingo de 08:00 a 22:00 horas,987363379,Sí,No,No
SAENZ DE JUBERA S.L.,Repsol,"CR LR-259  P.K. 7,40 D",,La Rioja,42.39946,-2.333987,, De Lunes a Viernes de 07:00 a 21:30 horas; De Sábado a Domingo de 07:00 a 14:30 horas,941432521,Sí,No,No
SAN FERNANDO PUERTA DE MADRID,Repsol,CL DE LOS HERRADORES N 1,,Madrid,40.4429,-3.49858,,ABIERTO 24h. ,,Sí,Sí,Sí
SERVIBALISA SL,Repsol,"AV. BUENOS AIRES, S/N",,Granada,37.30642,-3.132609,, De Lunes a Viernes de 06:00 a 20:00 horas; De Sábado a Domingo de 08:00 a 20:00 horas; Festivo de 08:00 a 20:00 horas,958666195,Sí,Sí,No
SFORZA CARBURANTES SL,Repsol,"CR MU-603  P.K. 47,20 I",,Murcia,37.62238,-1.341313,, De Lunes a Domingo de 06:00 a 23:00 horas,968590024,Sí,No,Sí
"SUM.PETR.ARGES,S.L.",Repsol,"CR CM-4013 P.K. 6,40 D",,Toledo,39.81326,-4.0569,, De Lunes a Domingo de 06:00 a 22:00 horas,925376453,Sí,No,No
SURTIDOR CADAGUA S.L,Repsol,"CR BI-636  P.K. 4,00 I",,Bizkaia,43.24728,-2.979558,, De Lunes a Domingo de 06:00 a 22:00 horas,944980157,Sí,No,No
SURTIMOVIL ALMURADIE,Repsol,"CR N-4     P.K. 232,50 A",,Ciudad Real,38.50847,-3.497824,,ABIERTO 24h. ,926339022,No,No,Sí
"TEJEDOR LOMBARTE,S.L.",Repsol,"CR C-221   P.K. 68,40 D",,Tarragona,41.0918,0.3171104,, De Lunes a Sábado de 07:00 a 21:00 horas,977430628,Sí,No,No
"TERESA CALLEJON,S.L.",Repsol,CL AVENIDA PAZ S.N.,,Córdoba,37.70001,-5.272693,, De Lunes a Domingo de 06:00 a 22:00 horas,957643159,Sí,No,No
"TORRES MANCHA,S.L.",Repsol,"CR  A-4 P.K. 84,7 I",,Toledo,39.76595,-3.479417,,ABIERTO 24h. ,925123244,Sí,No,No
"TRANSFUEL,S.L.",Repsol,"CR N-601   P.K. 116,30 I",,Segovia,41.00663,-4.60391,, De Lunes a Viernes de 07:00 a 22:00 horas,920311280,No,No,Sí
U.S. LUIS MARIA PAULE PANIAGUA,Repsol,"CR C-512   P.K. 23,60 D",,Cáceres,40.14618,-6.414541,, De Lunes a Domingo de 07:00 a 22:00 horas,927448033,Sí,No,No
XUNQUEIRA S.L.,Repsol,"CR C-550   P.K. 35,00 D",,A Coruña,42.59859,-8.943276,, De Lunes a Viernes de 07:00 a 23:00 horas; Sábado de 08:00 a 23:00 horas; Domingo de 08:30 a 23:00 horas,981832076,Sí,Sí,No
Andamur Guarroman,SGI,"Polígono industrial de Guadiel, en la N-4 EN EL KILÓMETRO 288",,Jaén,38.14286,-3.725343,Servicio de menu todos los días,Cerrado noches,,No,Sí,No
Andamur La Junquera,SGI,"c/ Bassegoda, 4 ",,Girona,42.40289,2.876075,Menu recogida en tienda,,,No,Sí,No
Andamur Pamplona,SGI,"Ciudad del Transporte de Pamplona: Avenida del Este,1. ",,Navarra,42.73265,-1.615465,,,,No,Sí,No
Andamur San Román,SGI,"Polígono Okiturri, en la A-1, salida 385",,Araba_Álava,40.47831,-3.683123,Menu recogida en tienda,Cerrado noches,,No,Sí,No
Área 177,SGI,A-2  en el kilómetro 117,,Guadalajara,40.97523,-2.618512,,,,No,Sí,No
Área de Servicio Avia Fombellida,SGI,A-67 en la salida 126 ,,Valladolid,42.94011,-4.124428,Comidas y cenas ,,,Sí,Sí,No
Área de Servicio Avia Gornzazo,SGI,A-67 en la salida 191 ,,Cantabria,40.47831,-3.683123,Comidas y cenas ,,,Sí,Sí,No
Área de Servicio Avia Unquera Restaurante La Corbata,SGI,A-8 en la salida 272 ,,Cantabria,43.37517,-4.503412,Comidas y cenas ,,,Sí,Sí,No
Área de Servicio Canuhe,SGI,"en la A-23, en el kilómetro 332",,Huesca,41.99203,-0.6693756,Tienda y aseos,24h,,Sí,Sí,Sí
Área de Servicio de Santomera,SGI,A-7 en el kilómetro 750,,Murcia,38.10084,-1.037765,Aseos,,,Sí,No,No
Área de servicio de Uclés,SGI,A-3 en el kilómetro 90,,Cuenca,39.9615,-2.929033,Aseos,,617388611,No,Sí,No
Área de Servicio la Noguera de Pozo Seco,SGI,A-3 en el kilómetro 207,,Cuenca,39.51884,-1.953187,,,687 76 52 83,Sí,Sí,Sí
Área de Servicio Las Cumbres 2,SGI,"Avenida Pedro Sánchez Meca,",,Murcia,37.59642,-0.9682426,Tienda y aseos,,,Sí,No,No
Área de Servicio Las Salinas Repsol,SGI,carretera de Molina  a Fortuna ,,Murcia,38.07349,-1.201552,Tienda y aseos,,,Sí,No,No
Área de servicio Los Cerrillos,SGI,A-5 en el kilómetro 174,,Cáceres,39.88861,-5.469978,Menús para llevar ,24h,,Sí,Sí,Sí
Área de servicio Restaurante La Laguna,SGI,"A-43 salida 129, sentido Valencia ",,Albacete,40.47831,-3.683123,,,,No,Sí,No
Carrocerías Javi,SGI,Polígono Industrial de Villarcayo,,Burgos,40.47831,-3.683123,,,676 185 116,Sí,Sí,Sí
Catering La Gran Familia,SGI,"A-66, kilómetro 657",,Badajoz,40.47831,-3.683123,Café gratuito. Menu del día,,649 641 988,No,Sí,No
Catering Santa Cruz. Área de Servicio Ángel III,SGI,A-4 en el kilómetro 217 ,,Ciudad Real,38.63605,-3.472835,Menús para llevar llamando a un teléfono,,926 33 10 17,No,Sí,No
Complejo Leo,SGI,A-66 en el kilómetro 630 ,,Badajoz,38.02884,-6.221698,Tiendas y aseos,Cerrado noches,,Sí,No,Sí
E.S Andamur El Límite,SGI,Autovía del Mediterráneo km 565,Huércal-Overa,Almería,37.48135,-1.87195,,,95052 87 90,Sí,No,No
E.S Magna Oil Vía de la Plata,SGI,Autovía A-5 salida 342,,Badajoz,38.92109,-6.377606,Tiendas y aseos,,,Sí,Sí,Sí
Empres Frigoríficos Sandoval,SGI,Polígono Bravo 3-4 en Granda (junto a Central Lechera Asturiana),,Asturias,43.38975,-5.782367,Maquina de café y snacks,,,No,No,Sí
Estación Adán,SGI,A-62 en el kilómetro 61.5,,Palencia,42.04723,-4.25726,Aseos,Cerrado noches,,Sí,No,No
estación BP de Villaherreros,SGI,"A-231, en el kilómetro 99",,Palencia,42.39185,-4.476446,,,979 04 80 13,Sí,Sí,No
Estación BP en Santillana de Campos,SGI,A-67 en el kilómetro 51 ,,Palencia,42.363,-4.388863,,,979 04 60 06,Sí,Sí,No
Estación de servicio Aragón,SGI,"A-68, en el kilómetro 258",,Zaragoza,40.47831,-3.683123,Tienda y aseos. Solicitar llave para duchas,Cerrado noches,,No,No,Sí
Estación de Servicio BDMED Carboneros,SGI,"en la A-4, en el kilómetro 275 en Carboneros",,Jaén,38.22823,-3.630631,"El restaurante Acebuche ofrece servicio de comida para llevar. Además, regalan una bebida a los transportistas en el Supermercado SUMA, que se encuentra en el mismo área",,,No,Sí,Sí
Estación de Servicio Cepsa La Maya,SGI,A-66 ,,Salamanca,40.66824,-5.619738,Tienda,,,Sí,Sí,Sí
Estación de servicio El Pantano,SGI,"carretera 615, en el kilómetro 28.5",,Palencia,42.24076,-4.6069,Tienda y aseos,,,Sí,No,No
Estación de Servicio FROET GAS,SGI,Centro Integrado de Transportes San Ginés en Molina de Segura,,Murcia,38.07733,-1.225356,Aseos,Cerrado noches,,Sí,Sí,No
Estación de Servicio Magna Oil El Nevero,SGI,Autovía A-5 salida 403,,Badajoz,38.89371,-6.993849,Tiendas y aseos,,,Sí,Sí,Sí
Estación de servicio Rausán Alfajarín,SGI,N-22 en el kilómetro 341 ,,Zaragoza,41.60628,-0.6940471,Tienda y aseos,24h,,Sí,Sí,Sí
Estación de Servicio Rioja Homilla,SGI,Calle Principal s/n ,,La Rioja,40.47831,-3.683123,Aseos,,941 41 77 65,Sí,Sí,Sí
Estación de Servicio Valcarce Ribaforada,SGI,A-68 ,,Navarra,41.98661,-1.533075,Comidas por encargo,,948 81 98 25,No,Sí,No
Estaciones Arnedo.,SGI,N-232 en el kilómetro 367 ,,La Rioja,42.31913,-2.053623,Aseos,,641 14 10 91,Sí,Sí,Sí
Galp Ocaña:,SGI,A-4 dirección Madrid-Córdoba en la salida 62,,Toledo,39.93414,-3.491461,,,,Sí,Sí,Sí
Gasolinera Cepsa Cuesta La Palma,SGI,"en la A-92, kilómetro 177",,Granada,37.13536,-4.285399,,,,Sí,Sí,No
Gasolinera Novellana Repsol,SGI,"A-8, salida 441",,Asturias,40.47831,-3.683123,Tienda,24h,,Sí,Sí,Sí
Gasolinera Staroil,SGI,A-3 en Caudete,,Valencia_València,39.55252,-1.274416,Aseos,,,Sí,No,No
Hostal Asturias,SGI,"N-630,  en el kilómetro 448. A-66, salida 449",,Asturias,40.18752,-6.006748,Comidas y cenas,Cerrado noches,927 477 05 Whassap 663 968 927,Sí,Sí,No
Hostal Restaurante Los Mellizos,SGI,la N-IV  en el kilómetro 280 ,,Jaén,38.19381,-3.67473,Menús para llevar llamando a un teléfono,,630 068 939,No,Sí,No
Hotel Restaurante La Jarilla,SGI,A-66 Salida 449 ,,Cáceres,40.18833,-6.005557,Comidas y cenas llamando a los teléfonos,Cerrado noches,927 47 70 40/ 676 48 40 64/ 626 86 33 96 ,No,Sí,No
Hotel Restaurante La Yedra,SGI,A 45 km 112 en Antequera ,,Málaga,36.98153,-4.461718,,,952 701 497,No,Sí,No
Hotel Restaurante Las Acacias,SGI,,,Málaga,36.72208,-4.371812,Duchas y servicio con cita previa,,952 200 167.,No,No,Sí
Hotel-Restaurante Yuma La casa del camionero,SGI,Aldea de los Rios en la A-4 (salida 280). ,,Jaén,38.19373,-3.673592,"Parking vigilado. Por ventailla: bocadillos, pan y otros productos",,,Sí,No,Sí
Repsol El Caldero,SGI,A-66 en el kilómetro 494 ,,Cáceres,39.88305,-6.278186,,Cerrado noches,,No,No,Sí
Restaurante 6 Hermanos,SGI,"A-31, dirección Madrid en la salida 65",,Albacete,40.46844,-4.73415,Café gratuito. Menu del día,Cerrado noches,,No,Sí,No
Restaurante Camino de Burgos,SGI,N-623 ,,Burgos,42.99309,-3.863813,,,,Sí,Sí,Sí
Restaurante Castillejo de Iniesta,SGI,"A-3 , salida 224",,Cuenca,39.51656,-1.755801,Aseos,24h,962 31 21 12,Sí,Sí,No
Restaurante El Navarro,SGI,"A-2, kilómetro 285 ",,Zaragoza,41.53927,-1.24005,Aseos,,,No,No,Sí
Restaurante El Paso Buelna,SGI,salida de Buelna La Franca o en la salida de Pendueles Vidiago en la N-634,,Asturias,43.39357,-4.623326,Comida y café llamando al teléfono,,626 167 798,Sí,Sí,No
Restaurante en la gasolinera de Sarasate,SGI,la N-240,,Navarra,42.46425,-1.981859,Menu 5€,,,Sí,Sí,Sí
Restaurante Guadalquivir,SGI,Carretera Bailén-Motril,Mengíbar,Jaén,37.98302,-3.798293,Regalan bocadillo y una lata,Cerrado noches,659 468 828,Sí,No,No
Restaurante Juanjo II,SGI,LE-512 en Villanueva de las Manzanas,,León,42.44982,-5.503507,Aseos,,987 31 52 10,Sí,Sí,No
Restaurante La Herradura,SGI,N-630 en el kilómetro 326 ,,Salamanca,41.0841,-5.698648,,,,No,Sí,No
Restaurante La Ruta de Peñalba,SGI,Carretera N-II Kilómetro 401.800 en Peñalba ,,Huesca,41.50091,-0.0309419,,,670 64 54 24,No,Sí,No
Restaurante Los Olivos,SGI,N-630 en el kilómetro 591,,Cáceres,39.16446,-6.265998,Menús para llevar llamando a un teléfono,,927 38 40 01/676 73 65 10 ,No,Sí,No
Restaurante Riazor,SGI,N-VIm kilómetro 392. Polígono de Camponaraya.,,León,42.56631,-6.663104,Menús para llevar llamando a un teléfono,,987 46 30 91,No,Sí,No
Restaurante Río Verde,SGI,N-340 en el kilómetro 864 ,,Valencia_València,39.13856,-0.5237575,,,,No,Sí,No
Valcarce Aldea del Cano,SGI,A-66 salida 576,,Cáceres,39.28995,-6.330781,,24h,,Sí,No,Sí
ALBACETE,SIN PEAJE,A-31; 70,Albacete,Albacete,39.03256,-1.891222,,6:00 - 22:00,682 34 89 25,Sí,No,Sí
ALBERIQUE,SIN PEAJE,"A-7; 378,5",Massalavés,Valencia_València,39.15432,-0.528499,,24 horas,962 44 17 67,Sí,No,No
ALHAMA DE MURCIA,SIN PEAJE,"A-7, 606",Alhama de Murcia,Murcia,37.79459,-1.428408,,24 horas,680 63 66 75,Sí,No,No
AYAMONTE,SIN PEAJE,A-49; 130,Ayamonte,Huelva,37.23898,-7.383847,,24 horas,959 32 70 02,Sí,No,No
BAIX EBRE,SIN PEAJE,AP-7; 317,,Tarragona,40.76503,0.6276944,,24 horas,977 47 03 02,Sí,Sí,No
BENICARLÓ,SIN PEAJE,AP-7; 358,,Castellón_Castelló,40.45908,0.4065278,,24 horas,964 47 19 86,Sí,Sí,No
BRIVIESCA,SIN PEAJE,AP-1; 36,Briviesca,Burgos,42.52752,-3.333082,,24 horas,947 59 07 48,Sí,No,No
CARTAYA,SIN PEAJE,A-49; 102,Cartaya,Huelva,37.32327,-7.115438,,24 horas,959 50 44 38,Sí,No,Sí
CERRO DEL FANTASMA,SIN PEAJE,AP-4; 42,"Cabezas de San Juan, Las",Sevilla,37.00205,-5.938245,,24 horas,955 87 22 48,Sí,Sí,No
CHUCENA,SIN PEAJE,A-49; 37,Chucena,Huelva,37.34787,-6.423129,,24 horas,959 42 44 47,Sí,No,Sí
COIRÓS,SIN PEAJE,A-6; 558,Coirós,A Coruña,43.23983,-8.135053,,7:00h a 23:00h,981 79 61 48,Sí,Sí,Sí
COLUNGA,SIN PEAJE,"A-8; 340,5",Colunga,Asturias,43.4823,-5.285979,,24 horas,985 85 22 60,Sí,No,Sí
CONIL,SIN PEAJE,"A-48; 24,5",Conil de la Frontera,Cádiz,36.30922,-6.056383,Duchas solo en sentido Cádiz,24 horas,956 45 25 83,Sí,Sí,Sí
DESFILADERO,SIN PEAJE,"AP-1; 63,5",Ameyugo,Burgos,42.65131,-3.068968,,24 horas,947 35 42 34,Sí,No,No
EL CUADREJÓN,SIN PEAJE,AP-4; 69,Jerez de la Frontera,Cádiz,36.78148,-6.043642,,7:00h a 23:00h,956 39 22 21,Sí,No,No
ELCHE,SIN PEAJE,A-70; 25,Elche/Elx,Alicante_Alacant,38.30889,-0.605944,,24 horas,965 68 22 16,Sí,No,No
GORNAZO,SIN PEAJE,"A-67; 190,5",Miengo,Cantabria,43.40709,-3.987019,,24 horas,942 57 78 70,Sí,No,No
GUITIRIZ,SIN PEAJE,A-6; 538,Guitiriz,Lugo,43.18795,-7.928259,,06:00-23:00h,982 37 02 43,Sí,Sí,Sí
L´HOSPITALET,SIN PEAJE,AP-7; 283,Vandellòs i l'Hospitalet de l'Infant,Tarragona,40.98566,0.895743,,24 horas,977 82 00 98,Sí,Sí,No
LA GRANJA,SIN PEAJE,A-66; 241,Granja de Moreruela,Zamora,41.79868,-5.75625,,24 horas,980 05 80 51,Sí,No,Sí
LA MARINA,SIN PEAJE,AP-7; 655,"Villajoyosa/Vila Joiosa, la",Alicante_Alacant,38.53543,-0.204132,,24horas,965 89 16 33,Sí,No,No
LA PLANA,SIN PEAJE,AP-7; 448,Borriana/Burriana,Castellón_Castelló,39.86506,-0.122545,"En sentido Valencia, de 10:00 a 12:00h se ofrece gratuitamente agua, bebidas calientes y bocadillos  ",24 horas,964 51 25 50,Sí,Sí,No
LA RIBERA,SIN PEAJE,AP-7; 404,Cabanes,Castellón_Castelló,40.13264,0.139876,"En sentido Barcelona de 10:00 a 12:00h se ofrece gratuitamente agua, bebidas calientes y bocadillos  ",24 horas,964 31 01 30,Sí,Sí,No
LA RODA,SIN PEAJE,"A-31; 50,5","Roda, La",Albacete,39.14439,-2.051084,,6:00 - 22:00,967 58 01 45,Sí,No,Sí
LA SAFOR,SIN PEAJE,AP-7; 570,Xeraco,Valencia_València,39.04071,-0.22751,,24horas,962 89 10 65,Sí,No,No
LOS PALACIOS,SIN PEAJE,AP-4; 20,"Palacios y Villafranca, Los",Sevilla,37.19576,-5.911056,,24horas,955 81 12 25,Sí,Sí,No
LUCENA,SIN PEAJE,"A-45; 51,5",Lucena,Córdoba,37.19576,-5.911056,,24horas,957 72 45 48,Sí,No,No
MONTICO,SIN PEAJE,A-8; 394,Carreño,Asturias,43.513,-5.818908,Duchas solo en sentido Oviedo,06:00 a 22:00,985 51 80 84,Sí,No,Sí
MUÑOGRANDE,SIN PEAJE,"A-50, 32,5",Muñogrande,Ávila,40.82879,-4.936895,,24 horas,631 27 26 14,Sí,No,Sí
O CORGO,SIN PEAJE,A-6; 485,"Corgo, O",Lugo,42.96538,-7.45612,,24 horas,982 30 02 06,No,No,Sí
PONFERRADA,SIN PEAJE,A-6; 390,Ponferrada,León,42.58417,-6.627195,,24 horas,987 42 79 41,Sí,Sí,Sí
PONTEAREAS,SIN PEAJE,A-52; 291,Ponteareas,Pontevedra,42.1455,-8.475781,,24 horas,986 64 91 28,No,No,Sí
QUINTANAPALLA,SIN PEAJE,AP-1; 12,Quintanapalla,Burgos,42.40444,-3.549305,,24 horas,947 43 04 49,Sí,No,No
RIBADAVIA,SIN PEAJE,A-52; 249,Ribadavia,Ourense,42.31382,-8.093554,,24 horas,988 47 15 42,No,No,Sí
ROBLEDO,SIN PEAJE,A-66; 19,Llanera,Asturias,43.43699,-5.798654,,06:00 a 22:00,985 77 20 82,Sí,No,No
SAGUNTO,SIN PEAJE,AP-7; 478,Sagunto/Sagunt,Valencia_València,39.65028,-0.301648,"En sentido Barcelona, de 10:00 a 12:00h se ofrece gratuitamente agua, bebidas calientes y bocadillos  ",24 horas,962 66 56 69,Sí,Sí,No
SAN ANTONIO,SIN PEAJE,AP-7; 613,Pedreguer,Alicante_Alacant,38.79124,0.062931,,24horas,965 76 16 80,Sí,No,No
SANTOMERA,SIN PEAJE,"A-7; 553,5",Santomera,Murcia,38.10175,-1.035404,,24 h.,968 86 06 85,Sí,Sí,No
TORRE DEL VALLE,SIN PEAJE,A-6; 273,"Torre del Valle, La",Zamora,42.08854,-5.71441,,24horas,980 65 01 55,No,No,No
TORRENT - PICASSENT,SIN PEAJE,A-7; 346,Torrent,Valencia_València,39.40065,-0.492359,,24 horas,962 11 28 74,Sí,No,No
TRIGUEROS,SIN PEAJE,A-49; 70,Trigueros,Huelva,37.33227,-6.802583,,24horas,959 36 74 85,Sí,No,No
VALDÁLIGA,SIN PEAJE,A-8; 256,Valdáliga,Cantabria,43.33463,-4.331277,,24 horas,942 70 80 90,Sí,No,No
Aerojerez,UPI,A4-CTRA. MADRID – CADIZ KM 628,,Cádiz,36.75861,-6.071521,,CIERRA POR LA NOCHE,,Sí,Sí,No
Aerosevilla,UPI,"NIV-CTRA. NACIONAL IV  KM. 531,700",,Sevilla,37.42821,-5.895345,,CIERRA POR LA NOCHE,,Sí,Sí,No
Alcala de Henares,UPI,N-II-crta Aljalvir-Alcala,,Madrid,40.49039,-3.385083,,24H,,Sí,Sí,No
Área de aseo y avituallamiento gratuito en el estadio Artés Carrasco de Lorca (salida 640 de la A7),UPI,salida 640 de la A7,,Murcia,37.63885,-1.737232,"zona de aparcamiento, aseos, duchas, comida y bebida gratuita ofrecida por el Ayuntamiento de Lorca",12H-16H  | 18H-22H,,Sí,Sí,Sí
AREA DE SERVICIO CASTILLO EL BURGO,UPI,"Autovía León-Burgos, km 34",,León,42.41763,-5.218055,Tienda y aseos. Más servicios,24 horas,987-330-403,Sí,Sí,Sí
Área Santa Ana,UPI,"NIV-CTRA. NACIONAL IV  KM. 441,500 - ÉCIJA",Écija,Sevilla,37.60219,-4.971222,,CIERRA POR LA NOCHE,,Sí,No,No
Arriaundi,UPI,"N-634-CTRA. N-634 P.K.84,4. Iurreta (Bizkaia)",,Bizkaia,43.18629,-2.670985,,24H,,Sí,Sí,Sí
Azuqueca,UPI,"N-II-Avda La Barca, 8",,Madrid,40.5662,-3.251766,,CIERRA POR LA NOCHE,,Sí,Sí,Sí
Benavente,UPI,"A-6-Av Federico Silva, n128",,Zamora,41.99722,-5.661432,,24H,,Sí,Sí,No
BENIPARRELL,UPI,Ctra V - 302-P.K 233,,Valencia_València,39.38647,-0.410711,,CIERRA POR LA NOCHE,,Sí,Sí,No
CAPMANY MONTAÑA,UPI,N -II-Km 771,,Girona,42.38031,2.89071,,CIERRA POR LA NOCHE,,Sí,Sí,Sí
CAPMANY RIO,UPI,N -II-Km 771,,Girona,42.38128,2.646594,,24H,,Sí,Sí,Sí
Casarrubios II,UPI,N V-CR Nacional V PK-40 (Toledo),,Toledo,40.22333,-4.075479,,24H,,Sí,Sí,No
Chauchina,UPI,,,Granada,37.1937,-3.77687,,CIERRA POR LA NOCHE,,Sí,Sí,No
Ciempozuelos,UPI,"M-404-M-404 KM 42,100",,Madrid,40.1595,-3.607715,,CIERRA POR LA NOCHE,,Sí,Sí,No
Cullar,UPI,A92N-AUTOVIA A-92N  P.KM. 81,,Granada,37.59491,-2.373281,,CIERRA POR LA NOCHE,,Sí,Sí,No
Dulce Nombre Norte,UPI,"A92-A92 KM 44,500 MD",,Sevilla,37.27015,-5.500549,,CIERRA POR LA NOCHE,,Sí,Sí,No
Dulce Nombre Sur,UPI,"A92-A92 KM 44,500 MI",,Sevilla,37.26928,-5.499834,,CIERRA POR LA NOCHE,,Sí,Sí,No
E.S. Antequera,UPI,A45-Ctra. N 331 Km 124 - 29200 Antequera,,Málaga,37.04492,-4.512232,,CIERRA POR LA NOCHE,,Sí,Sí,No
E.S. Loma Verde,UPI,A44-Ctra. N 323 Km 121 - 18220 Albolote,,Granada,37.24786,-3.655699,,CIERRA POR LA NOCHE,,Sí,Sí,No
E.S. Portichuelos,UPI,A7-CTRA. CADIZ-MALAGA KM 124,,Cádiz,36.23079,-5.351614,,CIERRA POR LA NOCHE,,Sí,Sí,No
E.S. Reserva del Higueron,UPI,A7-CTRA. MIJAS - BENALMADENA P.KM. 217,,Málaga,36.58602,-4.593414,,CIERRA POR LA NOCHE,,Sí,Sí,No
EL DESCANSO,UPI,A - 7-Km 645,,Murcia,37.58607,-1.786492,,CIERRA POR LA NOCHE,,Sí,Sí,Sí
EL PUIG,UPI,A-7-A7-ENLACE 311 (SENTIDO CASTELLON),,Valencia_València,39.60689,-0.3436917,,24H,,Sí,Sí,Sí
ES Alcorcón,UPI,"N-V-Pk. 12,500 (entrada)",,Madrid,40.3565,-3.819548,,24H,,Sí,Sí,No
ES Casarrrubios I,UPI,N-V-Ctra N-V km 40. Toledo,,Toledo,40.24465,-4.057381,,CIERRA POR LA NOCHE,,Sí,No,No
ES Cazalegas,UPI,"N V-Antigua N-5 P.K. 107, Autovía del Suroeste",,Toledo,39.98044,-4.729471,,CIERRA POR LA NOCHE,,No,Sí,Sí
ES La Cabrera,UPI,"N-I-Pk. 57,000 (salida)",,Madrid,40.87582,-3.602362,,CIERRA POR LA NOCHE,,Sí,Sí,No
ES la Serna,UPI,"N-I-Pk. 81,000 (entrada)",,Madrid,41.04068,-3.617856,,CIERRA POR LA NOCHE,,Sí,Sí,Sí
ES Lozoyuela,UPI,"N-I-Pk. 64,500 (entrada)",,Madrid,40.90665,-3.610159,,CIERRA POR LA NOCHE,,Sí,Sí,No
ES M 50,UPI,N-IV-coto de Doñana 1. Polig ind. Nassica. Pinto,,Madrid,40.26492,-3.692938,,24H,,Sí,Sí,No
ES M-40,UPI,M-40-Salida nº 5 (entrada),,Madrid,40.4691,-3.627632,,24H,,Sí,Sí,No
ES Plaza Elíptica,UPI,"Salida hacia A-42 (Crtra. Toledo)-Pº Santa María de la Cabeza, 168",,Madrid,40.38638,-3.716692,,24H,,Sí,Sí,No
ES Rivas,UPI,"N-III-Pk. 19,500 (salida)",,Madrid,40.32567,-3.520126,,24H,,Sí,Sí,No
ES Sancti Spiritus,UPI,"Ctra. N-620-Ctra. N-620, Km. 309",,Salamanca,40.69707,-6.41725,,24H,,Sí,Sí,Sí
ES Segovia Entrada,UPI,"N-603 -Pk. 93,600_ Segovia entrada",,Segovia,40.92721,-4.109311,,CIERRA POR LA NOCHE,,Sí,Sí,No
ES Segovia Salida,UPI,"N-603 -Pk. 93,600 _ Segovia Salida",,Segovia,40.9227,-4.109666,,CIERRA POR LA NOCHE,,Sí,Sí,No
ES Toledo,UPI,"Toledo (Poligono)-AVENIDA RIO ESTENILLA, 78",,Toledo,39.86729,-3.958778,,CIERRA POR LA NOCHE,,Sí,Sí,No
ESTACIÓN DE SERVICIO CASTILLO BENAVENTE,UPI,A-6 Calle Simón Bolívar S/N,,Zamora,42.00508,-5.664462,Aseos y tienda,24 horas,980-637-912,Sí,No,Sí
Estacion de servicio El gallo,UPI,A66 Pk539,,Cáceres,39.55667,-6.404809,,,927-190-986,Sí,Sí,Sí
Estación Servicio DYNEFF ARASUR,UPI,Avda Alava s/n,,Araba_Álava,42.70012,-2.91937,Lavadora Secadora,,(+34)945356889,Sí,Sí,Sí
Estación Servicio La Jonquera,UPI,Avda Euskadi,,Girona,42.39965,2.884394,Lavadora Secadora,,(+34)972554207,Sí,Sí,Sí
Fontioso,UPI,N-I-N-I. Km 190. Fontioso. Burgos,,Burgos,41.93055,-3.760047,,24H,,Sí,Sí,No
Fuentidueña,UPI,N-III-N-3 KM 68,,Madrid,40.08414,-3.112975,,CIERRA POR LA NOCHE,,Sí,Sí,No
Gasolinera Repsol La Retama Autovía A8,UPI,"Carretera Nacional 634 PK 244,300",,Cantabria,43.32836,-4.193071,Aseos,,942-708-893,Sí,Sí,Sí
Jarrio,UPI,N- 634-Ctra N 634 km 528,,Asturias,43.54108,-6.759804,,CIERRA POR LA NOCHE,,Sí,Sí,Sí
La Isla,UPI,"A 4-CALLE AS, S/N - POLIGONO INDUSTRIAL “LA ISLA” DOS HERRMANAS",,Sevilla,37.2798,-5.990881,,CIERRA POR LA NOCHE,,Sí,Sí,No
LA JUNQUERA,UPI,GI - 601-Polígono Oliveres ( Cantallops ),,Girona,42.40427,2.879954,,24H,,Sí,Sí,Sí
La Muela,UPI,"N-II-Ctra A-2 Km. 299,3. La Muela (Zaragoza)",,Zaragoza,41.58572,-1.099697,,24H,,Sí,Sí,Sí
La Nijareña,UPI,"N341-CTRA. N-341 KM 0,500 (NIJAR-CARBONERA)",,Almería,36.99074,-2.06063,,CIERRA POR LA NOCHE,,Sí,Sí,No
Laguna de Duero,UPI,N-601-Av de la Ronda s/n,,Valladolid,41.59452,-4.723731,,CIERRA POR LA NOCHE,,Sí,Sí,No
Las Cabezas,UPI,"A471-CR A-471, KM. 16,500 ",,Sevilla,36.97488,-5.960702,,CIERRA POR LA NOCHE,,Sí,Sí,No
Las Monjas,UPI,"N-II-Avda Las Monjas, 2",,Madrid,40.44624,-3.483403,,24H,,Sí,Sí,No
MASSALFASSAR,UPI,"Pol. Industrial-Calle Gombalda, S/N",,Valencia_València,42.80062,-1.611634,,CIERRA POR LA NOCHE,,Sí,Sí,No
Mérida,UPI,A66-CRTA. A-66  PK 630 M.D.,,Badajoz,42.80062,-1.611634,,CIERRA POR LA NOCHE,,Sí,Sí,Sí
MOLINS DE REY,UPI,"N - 340-Esq Calle Horta, Km 1246",,Barcelona,42.80062,-1.611634,,CIERRA POR LA NOCHE,,Sí,Sí,No
MONTESA,UPI,A - 35-Salida 38,,Valencia_València,42.80062,-1.611634,,CIERRA POR LA NOCHE,,Sí,Sí,No
Montico,UPI,"A-6-Ctra VP 9803 km 0,70",,Valladolid,42.80062,-1.611634,,CIERRA POR LA NOCHE,,Sí,Sí,No
Mugiro,UPI,"A-15-A-15, P.K. 124,48. Mugiro (Navarra)",,Navarra,42.80062,-1.611634,,24H,,Sí,Sí,Sí
Mutilva,UPI,PA-30-Ctra Pa-30 P.Km.4 (Ronda Este). Mutilva (Navarra),,Navarra,42.80062,-1.611634,,24H,,Sí,Sí,Sí
POLIGONO DE LEVANTE,UPI,Pol. Industrial-Calle de l´Hort de les animes 23,,Illes Balears,39.56712,2.685689,,24H,,Sí,No,No
Puerta de Alcalá,UPI,N432 - A335-GLORIETA NORTE ENLACE N432 A A335 - ALCALÁ LA REAL,,Jaén,37.45234,-3.93519,,CIERRA POR LA NOCHE,,Sí,Sí,Sí
Puerta de Vera,UPI,AL 820-AUTOVIA DEL MEDITERRÁNEO KM 529 - ANTAS,,Almería,37.21371,-1.89786,,CIERRA POR LA NOCHE,,Sí,Sí,Sí
RABASSA,UPI,"Avenida-Avda de la universidad esq, Calle Fortuny",,Alicante_Alacant,38.37419,-0.50691,,24H,,Sí,Sí,No
Reocin,UPI,A-8-Salida 234,,Cantabria,43.35697,-4.092806,,CIERRA POR LA NOCHE,,Sí,Sí,Sí
Ribabellosa,UPI,"N-I-Ctra. N-1, Km. 323. Ribabellosa (Alava)",,Araba_Álava,42.71062,-2.906969,,24H,,Sí,Sí,Sí
San Nicolas (O),UPI,"N340-CTRA. N-340 P.KM. 417,799",,Almería,36.79166,-2.706876,,CIERRA POR LA NOCHE,,Sí,Sí,No
San Lucas,UPI,A44-AUTOVIA A-44 (BAILEN - MOTRIL) P. KM. 36 ,,Jaén,37.91388,-3.783709,,CIERRA POR LA NOCHE,,Sí,Sí,Sí
San Nicolas (E),UPI,"N340-CTRA. N-340 P.KM. 417,800",,Almería,36.79166,-2.706876,,CIERRA POR LA NOCHE,,Sí,Sí,No
SANTIGA,UPI,"Pol. Industrial-Calle paraires, 2, 4 ( Santiga )",,Girona,41.5328,2.1529,,CIERRA POR LA NOCHE,,Sí,Sí,No
Sarracin,UPI,N-I-N-I. Km 225. Sarracin. Burgos,,Burgos,42.20411,-3.696899,,24H,,Sí,Sí,No
Serra do Barbanza,UPI,"AG-11-Autovia Padrón-Ribeira, p.k. 7,5",,A Coruña,42.71633,-8.72643,,CIERRA POR LA NOCHE,,Sí,Sí,Sí
SON HUGO,UPI,"PM330-Ctra. PM330, Km 1,5",,Illes Balears,39.64174,3.028324,,CIERRA POR LA NOCHE,,Sí,No,No
Talavera,UPI,"A5-CTRA. A-5 KM.384 ,7",,Badajoz,38.86537,-6.811517,,CIERRA POR LA NOCHE,,Sí,Sí,Sí
Tomelloso,UPI,N IV (Polígono Tomelloso)-Calle Zurbarán 19 ,,Ciudad Real,39.16637,-3.028078,,CIERRA POR LA NOCHE,,Sí,Sí,No
Torredelcampo,UPI,"N321-CTRA. N-321, P.K. 68,5",,Jaén,37.77657,-3.888793,,CIERRA POR LA NOCHE,,Sí,Sí,No
Tremañes,UPI,Tremañes-Gijon-Avda de los Campones 13,,Asturias,43.53383,-5.691222,,CIERRA POR LA NOCHE,,Sí,No,Sí
Urnieta,UPI,A-15. Salida 160.-POL. IND. BARRIO ERGOYEN. Urnieta (Gipuzkoa),,Gipuzkoa,43.23481,-2.000134,,24H,,Sí,Sí,Sí
Valdemoro,UPI,"N-IV-c/Tenerias, 50",,Madrid,40.19842,-3.677453,,CIERRA POR LA NOCHE,,Sí,Sí,No
Valdepeñas,UPI,"N-IV-CTRA. N-IV, KM 192",,Ciudad Real,38.84206,-3.393034,,24H,,Sí,Sí,Sí
VILLAFRANCA N,UPI,"N - 340- Km 1.216,35",,Barcelona,41.358,1.752177,,CIERRA POR LA NOCHE,,No,Sí,No
VILLAFRANCA S,UPI,"N - 340- Km 1.216,35",,Barcelona,41.35692,1.752728,,CIERRA POR LA NOCHE,,No,Sí,No
Villagonzalo,UPI,"N-620-N-620. Km 6,600. Villagonzalo Pedernales. Burgos",,Burgos,42.30677,-3.732365,,24H,,Sí,Sí,Sí
Villalpando,UPI,A-6-Autovia A6 km 231,,Zamora,41.82676,-5.379844,,CIERRA POR LA NOCHE,,Sí,Sí,Sí
Villamañan,UPI,A-66-Ctra Matorga -Astorga Km 32. Villamañan. Leon,,León,42.32489,-5.60467,,24H,,Sí,Sí,Sí
Villanueva M Grande,UPI,M-600-crta M-600 km 28,,Madrid,40.46895,-4.014375,,24H,,Sí,Sí,No
Villaverde,UPI,Getafe - Villaverde-AVDA REAL DE PINTO 167,,Madrid,40.32914,-3.715908,,24H,,Sí,Sí,No
